{"type":"FeatureCollection","features":[{"type":"Feature","properties":{"highway":"footway","name":"Cowboy Rock Trail","Block_No":2},"geometry":{"type":"LineString","coordinates":[[-122.5567043,37.9007787],[-122.5567098,37.9008071],[-122.5566895,37.9008482],[-122.5566734,37.9008829]]}},{"type":"Feature","properties":{"highway":"steps","name":"Cowboy Rock Trail","Block_No":2},"geometry":{"type":"LineString","coordinates":[[-122.5567044,37.9010595],[-122.5567088,37.9010612],[-122.5567686,37.901062]]}},{"type":"Feature","properties":{"highway":"residential","name":"Cherry Blossom Lane","Block_No":23},"geometry":{"type":"LineString","coordinates":[[-122.5433557,37.8970692],[-122.5432768,37.8977073],[-122.543134,37.8981426]]}},{"type":"Feature","properties":{"highway":"service","name":null,"Block_No":21},"geometry":{"type":"LineString","coordinates":[[-122.5450797,37.897691],[-122.5450213,37.8977052],[-122.5449841,37.8977052],[-122.5449547,37.8976975],[-122.5449273,37.8976815],[-122.5448816,37.8976465],[-122.5448176,37.8975805],[-122.5447909,37.8975553],[-122.544725,37.8974904],[-122.5446675,37.8974389],[-122.5446349,37.8974131],[-122.5445644,37.8973735]]}},{"type":"Feature","properties":{"highway":"residential","name":"Montford Place","Block_No":21},"geometry":{"type":"LineString","coordinates":[[-122.5450788,37.8976861],[-122.5450797,37.897691],[-122.5451421,37.8980105],[-122.545204,37.8981942],[-122.5452791,37.8983307],[-122.5453377,37.898404]]}},{"type":"Feature","properties":{"highway":"residential","name":null,"Block_No":3},"geometry":{"type":"LineString","coordinates":[[-122.5582226,37.8975063],[-122.5582483,37.8977501],[-122.5578878,37.8979533]]}},{"type":"Feature","properties":{"highway":"service","name":null,"Block_No":16},"geometry":{"type":"LineString","coordinates":[[-122.5476576,37.8976405],[-122.5476957,37.8976499],[-122.5477622,37.8976371],[-122.5478066,37.8976165],[-122.5478388,37.8975743],[-122.5478721,37.8975131],[-122.5479426,37.8972666],[-122.5479839,37.8972157]]}},{"type":"Feature","properties":{"highway":"service","name":null,"Block_No":11},"geometry":{"type":"LineString","coordinates":[[-122.5506263,37.8975693],[-122.550389,37.8976248],[-122.5502049,37.8976687],[-122.5501426,37.8976551],[-122.5501122,37.8975808],[-122.5501294,37.8975296],[-122.5500963,37.8974721],[-122.5499903,37.8974387],[-122.5498711,37.8973948]]}},{"type":"Feature","properties":{"highway":"service","name":null,"Block_No":12},"geometry":{"type":"LineString","coordinates":[[-122.5497699,37.8987515],[-122.5497522,37.8985689],[-122.5497591,37.8983396]]}},{"type":"Feature","properties":{"highway":"service","name":null,"Block_No":12},"geometry":{"type":"LineString","coordinates":[[-122.551146,37.8991111],[-122.5511489,37.8991084],[-122.5513099,37.8990355],[-122.5515294,37.8989443],[-122.551692,37.898875],[-122.5517413,37.898824],[-122.5516719,37.8987675]]}},{"type":"Feature","properties":{"highway":"service","name":null,"Block_No":8},"geometry":{"type":"LineString","coordinates":[[-122.5552053,37.9005664],[-122.5549621,37.9004672]]}},{"type":"Feature","properties":{"highway":"service","name":null,"Block_No":5},"geometry":{"type":"LineString","coordinates":[[-122.5556336,37.9008472],[-122.5555427,37.9007689],[-122.5552662,37.9005913],[-122.5552053,37.9005664]]}},{"type":"Feature","properties":{"highway":"service","name":null,"Block_No":4},"geometry":{"type":"LineString","coordinates":[[-122.5557199,37.9009605],[-122.5556368,37.90085],[-122.5556336,37.9008472]]}},{"type":"Feature","properties":{"highway":"footway","name":null,"Block_No":66},"geometry":{"type":"LineString","coordinates":[[-122.5364641,37.8931086],[-122.5365274,37.8926519]]}},{"type":"Feature","properties":{"highway":"service","name":null,"Block_No":68},"geometry":{"type":"MultiLineString","coordinates":[[[-122.5341925,37.8939987],[-122.5341938,37.8940061]],[[-122.5341958,37.894017],[-122.5342072,37.8940801],[-122.5342656,37.8942022]],[[-122.5344093,37.8943497],[-122.534433,37.8943706]]]}},{"type":"Feature","properties":{"highway":"service","name":null,"Block_No":69},"geometry":{"type":"LineString","coordinates":[[-122.5364719,37.8956413],[-122.536236,37.8954203]]}},{"type":"Feature","properties":{"highway":"service","name":null,"Block_No":50},"geometry":{"type":"LineString","coordinates":[[-122.5369992,37.8960216],[-122.5366451,37.8957314],[-122.5366015,37.89576],[-122.5365049,37.8956722],[-122.5364719,37.8956413]]}},{"type":"Feature","properties":{"highway":"service","name":null,"Block_No":38},"geometry":{"type":"LineString","coordinates":[[-122.5427257,37.8949346],[-122.5427259,37.8949345],[-122.5428165,37.8948786],[-122.5428578,37.8947762],[-122.5428676,37.8946954],[-122.5428263,37.8946861]]}},{"type":"Feature","properties":{"highway":"service","name":null,"Block_No":37},"geometry":{"type":"LineString","coordinates":[[-122.5422619,37.8950413],[-122.5423069,37.8950244]]}},{"type":"Feature","properties":{"highway":"service","name":null,"Block_No":49},"geometry":{"type":"LineString","coordinates":[[-122.5390933,37.8963657],[-122.5391597,37.8961452],[-122.538983,37.8960156]]}},{"type":"Feature","properties":{"highway":"service","name":null,"Block_No":38},"geometry":{"type":"LineString","coordinates":[[-122.5434511,37.894709],[-122.5434279,37.8946519]]}},{"type":"Feature","properties":{"highway":"service","name":null,"Block_No":32},"geometry":{"type":"LineString","coordinates":[[-122.5437599,37.894978],[-122.5436055,37.8949183],[-122.543532,37.8948711],[-122.5434916,37.8948087],[-122.5434511,37.894709]]}},{"type":"Feature","properties":{"highway":"service","name":null,"Block_No":38},"geometry":{"type":"LineString","coordinates":[[-122.5428298,37.8949606],[-122.5429074,37.8948146],[-122.5430003,37.894614],[-122.5430816,37.8944435],[-122.5431832,37.8942676],[-122.543251,37.8941328],[-122.5432435,37.8940692]]}},{"type":"Feature","properties":{"highway":"service","name":null,"Block_No":33},"geometry":{"type":"LineString","coordinates":[[-122.5427176,37.8951455],[-122.5427317,37.8951243]]}},{"type":"Feature","properties":{"highway":"footway","name":null,"Block_No":19},"geometry":{"type":"LineString","coordinates":[[-122.5456531,37.8949128],[-122.5453385,37.8948735]]}},{"type":"Feature","properties":{"highway":"footway","name":null,"Block_No":18},"geometry":{"type":"LineString","coordinates":[[-122.546266,37.8949892],[-122.5456531,37.8949128]]}},{"type":"Feature","properties":{"highway":"footway","name":null,"Block_No":25},"geometry":{"type":"LineString","coordinates":[[-122.5453005,37.8948688],[-122.5449031,37.8948192]]}},{"type":"Feature","properties":{"highway":"residential","name":"Wickham Drive","Block_No":38},"geometry":{"type":"LineString","coordinates":[[-122.5438598,37.8941658],[-122.5438231,37.8941146],[-122.5438182,37.89397],[-122.5437481,37.8939278],[-122.543658,37.8939305],[-122.5435244,37.8940137],[-122.5433992,37.8941106],[-122.543298,37.8942988]]}},{"type":"Feature","properties":{"highway":"residential","name":"Wickham Drive","Block_No":32},"geometry":{"type":"LineString","coordinates":[[-122.5439184,37.8946161],[-122.5439892,37.8943729],[-122.5440013,37.8942893],[-122.5439386,37.8942513],[-122.5438857,37.8942019],[-122.5438598,37.8941658]]}},{"type":"Feature","properties":{"highway":"footway","name":null,"Block_No":48},"geometry":{"type":"LineString","coordinates":[[-122.5395702,37.8940723],[-122.5397321,37.8944754]]}},{"type":"Feature","properties":{"highway":"service","name":"Rhonda Way","Block_No":41},"geometry":{"type":"LineString","coordinates":[[-122.540486,37.8916593],[-122.5405742,37.8916817],[-122.5406695,37.8916775],[-122.5408,37.8916277],[-122.5408893,37.8915934],[-122.5409297,37.8915948],[-122.5409792,37.8916283],[-122.5410054,37.8917188],[-122.5410077,37.8918224],[-122.5409788,37.8918642],[-122.5409258,37.8918965],[-122.5408994,37.8919835]]}},{"type":"Feature","properties":{"highway":"footway","name":null,"Block_No":41},"geometry":{"type":"LineString","coordinates":[[-122.5408893,37.8915934],[-122.5408917,37.8915584],[-122.5408897,37.8915124],[-122.5408917,37.8914616],[-122.5409064,37.8914245],[-122.5409064,37.8913817],[-122.5408897,37.8913293],[-122.5408702,37.8913033],[-122.5408817,37.8911916],[-122.5408333,37.8910032],[-122.54081,37.8909421]]}},{"type":"Feature","properties":{"highway":"service","name":null,"Block_No":30},"geometry":{"type":"LineString","coordinates":[[-122.5449497,37.8923729],[-122.5449725,37.8923189],[-122.5449658,37.8922202],[-122.544975,37.8921827],[-122.5450167,37.8921445],[-122.5450367,37.8920918],[-122.5450818,37.8920458]]}},{"type":"Feature","properties":{"highway":"service","name":null,"Block_No":3},"geometry":{"type":"MultiLineString","coordinates":[[[-122.5581009,37.897271],[-122.5581617,37.8972384],[-122.5582139,37.8971851],[-122.5582553,37.8970218],[-122.558261,37.8969874]],[[-122.5581862,37.8965964],[-122.5581115,37.896451],[-122.558032,37.8963504],[-122.557971,37.8962714],[-122.5579046,37.8961785]]]}},{"type":"Feature","properties":{"highway":"service","name":null,"Block_No":3},"geometry":{"type":"LineString","coordinates":[[-122.5573962,37.8965655],[-122.5572595,37.8966476],[-122.5570906,37.8967766]]}},{"type":"Feature","properties":{"highway":"service","name":"Ridgewood Avenue","Block_No":18},"geometry":{"type":"LineString","coordinates":[[-122.5499282,37.8962176],[-122.5499991,37.8962529],[-122.5503027,37.8963904]]}},{"type":"Feature","properties":{"highway":"service","name":null,"Block_No":18},"geometry":{"type":"LineString","coordinates":[[-122.5476684,37.8953765],[-122.5477038,37.8953705],[-122.547783,37.8953515],[-122.5478339,37.8953367],[-122.5479211,37.8953473],[-122.5479922,37.895378],[-122.5480445,37.8954256],[-122.5480807,37.8954626],[-122.548133,37.8955155],[-122.5482094,37.8955515],[-122.5482698,37.8955674],[-122.5483435,37.8955642],[-122.5483677,37.8955547]]}},{"type":"Feature","properties":{"highway":"service","name":null,"Block_No":57},"geometry":{"type":"LineString","coordinates":[[-122.5390566,37.8891798],[-122.538978,37.8892701],[-122.5389022,37.8893542],[-122.5387696,37.889485]]}},{"type":"Feature","properties":{"highway":"residential","name":"Valley View Lane","Block_No":57},"geometry":{"type":"LineString","coordinates":[[-122.5391229,37.8892025],[-122.5391147,37.8891216],[-122.5390886,37.889062]]}},{"type":"Feature","properties":{"highway":"service","name":null,"Block_No":68},"geometry":{"type":"LineString","coordinates":[[-122.5350448,37.894658],[-122.5351233,37.8946017],[-122.5351879,37.8945674],[-122.535254,37.8945549],[-122.5353047,37.8945742],[-122.5353229,37.8946187],[-122.5353258,37.894658],[-122.5352972,37.8947194],[-122.5352568,37.8947838],[-122.5352301,37.8948437],[-122.535214,37.8948665]]}},{"type":"Feature","properties":{"highway":"residential","name":"Ethel Lane","Block_No":68},"geometry":{"type":"LineString","coordinates":[[-122.5365873,37.8944541],[-122.5363947,37.8945402],[-122.5363266,37.8945941],[-122.536269,37.8946619],[-122.5362203,37.8947339],[-122.5361865,37.8947696],[-122.5361426,37.8947973],[-122.5360729,37.8948128],[-122.5360031,37.8948213]]}},{"type":"Feature","properties":{"highway":"residential","name":null,"Block_No":55},"geometry":{"type":"LineString","coordinates":[[-122.5373776,37.8907781],[-122.5373622,37.8907392],[-122.537352,37.89066]]}},{"type":"Feature","properties":{"highway":"residential","name":null,"Block_No":60},"geometry":{"type":"LineString","coordinates":[[-122.5375972,37.8911689],[-122.5375044,37.8910059]]}},{"type":"Feature","properties":{"highway":"residential","name":"Lehman Lane","Block_No":67},"geometry":{"type":"LineString","coordinates":[[-122.5375172,37.8946386],[-122.5372292,37.8941386],[-122.5367497,37.8943039]]}},{"type":"Feature","properties":{"highway":"residential","name":"Midway Avenue","Block_No":59},"geometry":{"type":"LineString","coordinates":[[-122.5355718,37.8906038],[-122.5355714,37.8905299]]}},{"type":"Feature","properties":{"highway":"residential","name":"Midway Avenue","Block_No":61},"geometry":{"type":"LineString","coordinates":[[-122.536826,37.8918959],[-122.5368129,37.8918994],[-122.5367888,37.8919058],[-122.5367203,37.8919112],[-122.5366624,37.8919009],[-122.5366046,37.891873],[-122.5365653,37.8918292],[-122.5365414,37.891782],[-122.536499,37.8916248],[-122.5364705,37.8913841],[-122.536442,37.891322],[-122.5363946,37.8912598],[-122.5359888,37.8909911],[-122.535653,37.890784],[-122.535584,37.8907247],[-122.5355673,37.8907028]]}},{"type":"Feature","properties":{"highway":"residential","name":"Midway Avenue","Block_No":54},"geometry":{"type":"LineString","coordinates":[[-122.5377642,37.8921841],[-122.5377521,37.8921089],[-122.537675,37.8919399],[-122.5376211,37.8918377],[-122.5375116,37.8917392],[-122.5374037,37.8916869],[-122.5373422,37.891679]]}},{"type":"Feature","properties":{"highway":"residential","name":"Circle Way","Block_No":63},"geometry":{"type":"LineString","coordinates":[[-122.5355128,37.8928411],[-122.5354631,37.8928176],[-122.5347238,37.8924681],[-122.5346432,37.8922838]]}},{"type":"Feature","properties":{"highway":"residential","name":"Greenhill Road","Block_No":59},"geometry":{"type":"LineString","coordinates":[[-122.5355714,37.8905299],[-122.5355187,37.8902991],[-122.5354861,37.8902182],[-122.5354315,37.8901489],[-122.5353599,37.8900977],[-122.5347751,37.8897744]]}},{"type":"Feature","properties":{"highway":"service","name":null,"Block_No":62},"geometry":{"type":"LineString","coordinates":[[-122.5343369,37.8918334],[-122.5344698,37.8918587],[-122.5346791,37.8918681],[-122.5349932,37.8917701]]}},{"type":"Feature","properties":{"highway":"service","name":null,"Block_No":63},"geometry":{"type":"LineString","coordinates":[[-122.5341905,37.8918056],[-122.5343369,37.8918334]]}},{"type":"Feature","properties":{"highway":"service","name":null,"Block_No":40},"geometry":{"type":"LineString","coordinates":[[-122.5406644,37.8932207],[-122.5409728,37.8932624],[-122.5410613,37.8933322],[-122.5410801,37.8935058]]}},{"type":"Feature","properties":{"highway":"service","name":null,"Block_No":46},"geometry":{"type":"LineString","coordinates":[[-122.5405009,37.8931986],[-122.5406644,37.8932207]]}},{"type":"Feature","properties":{"highway":"residential","name":"Lillian Lane","Block_No":36},"geometry":{"type":"LineString","coordinates":[[-122.5397601,37.8958499],[-122.5396979,37.8960231]]}},{"type":"Feature","properties":{"highway":"residential","name":"Lillian Lane","Block_No":35},"geometry":{"type":"LineString","coordinates":[[-122.5396979,37.8960231],[-122.5396953,37.8960302],[-122.539717,37.8960663],[-122.5395748,37.8964677],[-122.5395739,37.8965679],[-122.5395728,37.8965707]]}},{"type":"Feature","properties":{"highway":"residential","name":"Linden Lane","Block_No":49},"geometry":{"type":"LineString","coordinates":[[-122.53942,37.8953404],[-122.5394446,37.8952807],[-122.5394615,37.8952335]]}},{"type":"Feature","properties":{"highway":"residential","name":"Linden Lane","Block_No":48},"geometry":{"type":"LineString","coordinates":[[-122.5394615,37.8952335],[-122.5397321,37.8944754],[-122.539786,37.894326]]}},{"type":"Feature","properties":{"highway":"residential","name":"Ethel Lane","Block_No":65},"geometry":{"type":"LineString","coordinates":[[-122.536409,37.8941542],[-122.5363775,37.8941011],[-122.536396,37.8940031]]}},{"type":"Feature","properties":{"highway":"residential","name":"Ethel Lane","Block_No":67},"geometry":{"type":"LineString","coordinates":[[-122.536396,37.8940031],[-122.5364054,37.8939529],[-122.5365523,37.893721],[-122.5367041,37.8936484]]}},{"type":"Feature","properties":{"highway":"residential","name":"Ethel Lane","Block_No":68},"geometry":{"type":"LineString","coordinates":[[-122.5368267,37.8949037],[-122.5365873,37.8944541],[-122.536409,37.8941542]]}},{"type":"Feature","properties":{"highway":"residential","name":"Scott Street","Block_No":37},"geometry":{"type":"LineString","coordinates":[[-122.5417135,37.8956988],[-122.5419779,37.8949846]]}},{"type":"Feature","properties":{"highway":"service","name":null,"Block_No":35},"geometry":{"type":"LineString","coordinates":[[-122.5405266,37.8968116],[-122.5407223,37.8962732]]}},{"type":"Feature","properties":{"highway":"residential","name":"Ethel Avenue","Block_No":69},"geometry":{"type":"LineString","coordinates":[[-122.5370125,37.8953069],[-122.536787,37.8951036],[-122.5367585,37.8950803]]}},{"type":"Feature","properties":{"highway":"residential","name":"Ethel Avenue","Block_No":50},"geometry":{"type":"LineString","coordinates":[[-122.5378402,37.8960277],[-122.5375057,37.8957312],[-122.53746,37.8956993],[-122.5373893,37.8956467],[-122.5370125,37.8953069]]}},{"type":"Feature","properties":{"highway":"residential","name":"Ethel Avenue","Block_No":49},"geometry":{"type":"LineString","coordinates":[[-122.5382917,37.896428],[-122.5378402,37.8960277]]}},{"type":"Feature","properties":{"highway":"residential","name":"Reed Street","Block_No":69},"geometry":{"type":"LineString","coordinates":[[-122.5358134,37.8951965],[-122.5358721,37.8951973],[-122.5359603,37.8951929],[-122.5360958,37.8951725],[-122.5362902,37.895138]]}},{"type":"Feature","properties":{"highway":null,"name":null,"Block_No":1},"geometry":{"type":"LineString","coordinates":[[-122.5582221,37.8998725],[-122.5580737,37.8997937],[-122.5580915,37.8997761]]}},{"type":"Feature","properties":{"highway":null,"name":null,"Block_No":2},"geometry":{"type":"LineString","coordinates":[[-122.5584526,37.9021729],[-122.5584066,37.9020841]]}},{"type":"Feature","properties":{"highway":"residential","name":"Tamalpais Drive","Block_No":7},"geometry":{"type":"LineString","coordinates":[[-122.5540377,37.8987951],[-122.5541445,37.8987976],[-122.5543868,37.8988337],[-122.5545267,37.8989014],[-122.5547074,37.8990468],[-122.5548444,37.8991247],[-122.5550913,37.899216]]}},{"type":"Feature","properties":{"highway":"residential","name":"Tamalpais Drive","Block_No":6},"geometry":{"type":"LineString","coordinates":[[-122.5550913,37.899216],[-122.5551258,37.8992288],[-122.5551823,37.8993036],[-122.5553052,37.8994023],[-122.555486,37.8995364],[-122.5556272,37.8996027]]}},{"type":"Feature","properties":{"highway":"footway","name":"Cowboy Rock Trail","Block_No":2},"geometry":{"type":"LineString","coordinates":[[-122.5567686,37.901062],[-122.556811,37.9010711],[-122.5568178,37.9010848],[-122.5567404,37.901147]]}},{"type":"Feature","properties":{"highway":"footway","name":"Stolte Grove","Block_No":6},"geometry":{"type":"LineString","coordinates":[[-122.5558827,37.8997002],[-122.5559115,37.8997082]]}},{"type":"Feature","properties":{"highway":"steps","name":"Stolte Grove","Block_No":5},"geometry":{"type":"LineString","coordinates":[[-122.5561592,37.9001397],[-122.5561908,37.9002073],[-122.5562259,37.9002629],[-122.5562933,37.9003664],[-122.5563409,37.9004529],[-122.5564051,37.9005179],[-122.5564503,37.900575],[-122.5564552,37.9006184],[-122.5564783,37.9006572],[-122.5564935,37.9006668]]}},{"type":"Feature","properties":{"highway":"footway","name":null,"Block_No":3},"geometry":{"type":"LineString","coordinates":[[-122.5572583,37.8979376],[-122.5572511,37.8979151]]}},{"type":"Feature","properties":{"highway":"residential","name":"Douglas Drive","Block_No":4},"geometry":{"type":"LineString","coordinates":[[-122.5543525,37.9013169],[-122.5544011,37.9012884],[-122.554569,37.9012238],[-122.5546572,37.9011885],[-122.5547346,37.9011443],[-122.5548604,37.9010581],[-122.554955,37.9010221],[-122.5550362,37.9010199],[-122.555163,37.9010471]]}},{"type":"Feature","properties":{"highway":"residential","name":"Park Way","Block_No":7},"geometry":{"type":"LineString","coordinates":[[-122.5551677,37.8989163],[-122.5549653,37.8989474],[-122.554777,37.8989412],[-122.5545267,37.8989014]]}},{"type":"Feature","properties":{"highway":null,"name":null,"Block_No":4},"geometry":{"type":"LineString","coordinates":[[-122.5563343,37.9025877],[-122.5563198,37.9025821]]}},{"type":"Feature","properties":{"highway":"residential","name":"Cape Court","Block_No":15},"geometry":{"type":"LineString","coordinates":[[-122.5449791,37.9000809],[-122.5449708,37.9000249],[-122.5449278,37.8999547],[-122.5448324,37.8998927],[-122.5447195,37.899833],[-122.5446069,37.8997713],[-122.5445431,37.89973],[-122.5444368,37.8996464],[-122.5443437,37.8995718],[-122.5442389,37.8994618],[-122.5442162,37.8993966],[-122.54423,37.8993307],[-122.5443045,37.8992335]]}},{"type":"Feature","properties":{"highway":"residential","name":"Holly Street","Block_No":20},"geometry":{"type":"LineString","coordinates":[[-122.5454029,37.8974673],[-122.5456778,37.896691]]}},{"type":"Feature","properties":{"highway":"residential","name":"Holly Street","Block_No":21},"geometry":{"type":"LineString","coordinates":[[-122.5453222,37.8976951],[-122.5453249,37.8976876]]}},{"type":"Feature","properties":{"highway":"service","name":null,"Block_No":13},"geometry":{"type":"MultiLineString","coordinates":[[[-122.549537,37.8997636],[-122.5495205,37.8997409],[-122.5495074,37.8996706],[-122.5494922,37.8996377],[-122.5494559,37.8995969],[-122.5493088,37.8994864],[-122.549265,37.8994518]],[[-122.5491482,37.8993023],[-122.5491342,37.8992769],[-122.5491252,37.8992492]]]}},{"type":"Feature","properties":{"highway":"service","name":null,"Block_No":14},"geometry":{"type":"LineString","coordinates":[[-122.5491146,37.8991022],[-122.5491169,37.8990955]]}},{"type":"Feature","properties":{"highway":"path","name":null,"Block_No":14},"geometry":{"type":"LineString","coordinates":[[-122.549356,37.9002355],[-122.5493745,37.9002136],[-122.5494036,37.9002057],[-122.5494355,37.9002142],[-122.5494716,37.9002223],[-122.5495127,37.9002211],[-122.5495506,37.9002075],[-122.5496205,37.900197],[-122.5497352,37.900184],[-122.5499006,37.9001764],[-122.550027,37.9001762],[-122.5501392,37.900186],[-122.5503079,37.9002272],[-122.5505443,37.9002919],[-122.5507196,37.9003641],[-122.5507683,37.9003831]]}},{"type":"Feature","properties":{"highway":null,"name":null,"Block_No":59},"geometry":{"type":"LineString","coordinates":[[-122.5351123,37.8907097],[-122.5350528,37.8907136]]}},{"type":"Feature","properties":{"highway":null,"name":null,"Block_No":56},"geometry":{"type":"LineString","coordinates":[[-122.540058,37.8898545],[-122.5396914,37.8898661],[-122.5391104,37.8901757],[-122.5388285,37.8903052],[-122.5384906,37.8904411]]}},{"type":"Feature","properties":{"highway":null,"name":null,"Block_No":58},"geometry":{"type":"LineString","coordinates":[[-122.5366413,37.8906237],[-122.5366226,37.8906252],[-122.536151,37.8906467]]}},{"type":"Feature","properties":{"highway":null,"name":null,"Block_No":55},"geometry":{"type":"LineString","coordinates":[[-122.5384906,37.8904411],[-122.5383418,37.8905009],[-122.5381693,37.8902211],[-122.5377694,37.8905545],[-122.5371366,37.8905835],[-122.5366413,37.8906237]]}},{"type":"Feature","properties":{"highway":null,"name":null,"Block_No":42},"geometry":{"type":"LineString","coordinates":[[-122.543348,37.8897739],[-122.5428761,37.8897909],[-122.5421839,37.8898073],[-122.5418966,37.8898269]]}},{"type":"Feature","properties":{"highway":null,"name":null,"Block_No":43},"geometry":{"type":"LineString","coordinates":[[-122.5415238,37.8898523],[-122.541486,37.8898549],[-122.5408824,37.8901206],[-122.5405175,37.8902419],[-122.5403845,37.8899896],[-122.5402817,37.8898475],[-122.540058,37.8898545]]}},{"type":"Feature","properties":{"highway":null,"name":null,"Block_No":66},"geometry":{"type":"LineString","coordinates":[[-122.5361782,37.8931803],[-122.5364557,37.8931817],[-122.5366981,37.8931601],[-122.5371687,37.8932777],[-122.5374997,37.8930894],[-122.5377058,37.8935725]]}},{"type":"Feature","properties":{"highway":null,"name":null,"Block_No":64},"geometry":{"type":"MultiLineString","coordinates":[[[-122.5334488,37.8928011],[-122.5334992,37.89298],[-122.5336351,37.892968]],[[-122.5345012,37.8930366],[-122.5345413,37.8933342],[-122.5346179,37.8936396]]]}},{"type":"Feature","properties":{"highway":null,"name":null,"Block_No":65},"geometry":{"type":"LineString","coordinates":[[-122.5346179,37.8936396],[-122.5346205,37.8936498],[-122.5354561,37.8936602],[-122.5360587,37.8935262],[-122.5361011,37.8933811],[-122.5361549,37.8931802],[-122.5361782,37.8931803]]}},{"type":"Feature","properties":{"highway":null,"name":null,"Block_No":52},"geometry":{"type":"LineString","coordinates":[[-122.5377058,37.8935725],[-122.537726,37.89362]]}},{"type":"Feature","properties":{"highway":"path","name":"Pixie Trail","Block_No":22},"geometry":{"type":"LineString","coordinates":[[-122.5440085,37.8984059],[-122.5438171,37.8984285],[-122.5437222,37.898455]]}},{"type":"Feature","properties":{"highway":"path","name":"Pixie Trail","Block_No":15},"geometry":{"type":"MultiLineString","coordinates":[[[-122.5462762,37.8996097],[-122.5462564,37.8996047],[-122.5461712,37.8995464],[-122.546154,37.8995307]],[[-122.54578,37.8992893],[-122.5456856,37.8992886],[-122.5455714,37.8993457],[-122.5454607,37.8994526],[-122.5454186,37.8995002],[-122.5453806,37.8995194],[-122.5453323,37.8995294],[-122.545231,37.899539],[-122.5451806,37.8995186],[-122.5451629,37.8994921]]]}},{"type":"Feature","properties":{"highway":"path","name":"Pixie Trail","Block_No":14},"geometry":{"type":"MultiLineString","coordinates":[[[-122.5489462,37.8989818],[-122.5488347,37.8989974],[-122.5486772,37.8990385],[-122.5484967,37.8991062],[-122.5483598,37.899178],[-122.5482207,37.8992377],[-122.5481229,37.8993074],[-122.5480259,37.8993896],[-122.5479555,37.899442],[-122.5479117,37.8994461],[-122.547877,37.8994317],[-122.5477978,37.8993856],[-122.5476863,37.8992973],[-122.5476487,37.8992634]],[[-122.5473444,37.8990284],[-122.5472372,37.8989777],[-122.5470259,37.898902],[-122.5469705,37.8988961],[-122.5469114,37.8988934],[-122.5468766,37.8988946]]]}},{"type":"Feature","properties":{"highway":"path","name":null,"Block_No":15},"geometry":{"type":"LineString","coordinates":[[-122.5445277,37.8986495],[-122.5444395,37.8986277],[-122.5443657,37.898626],[-122.5442908,37.8986383],[-122.5442115,37.8986719],[-122.5440755,37.898747],[-122.5440268,37.898781]]}},{"type":"Feature","properties":{"highway":"footway","name":"Log Arch Trail","Block_No":6},"geometry":{"type":"LineString","coordinates":[[-122.5567206,37.8991654],[-122.5566478,37.8992023],[-122.5564626,37.8992841],[-122.5561917,37.8993433],[-122.5560361,37.899409],[-122.5559449,37.8994555],[-122.5558247,37.8994619],[-122.5557232,37.8994697],[-122.555573,37.8994946],[-122.555486,37.8995364]]}},{"type":"Feature","properties":{"highway":null,"name":null,"Block_No":18},"geometry":{"type":"LineString","coordinates":[[-122.5483264,37.8948457],[-122.5482279,37.894833],[-122.5481471,37.894819],[-122.5481042,37.8948201],[-122.5480177,37.8948328],[-122.5479094,37.8948587],[-122.5478557,37.8948934],[-122.5478255,37.8949558],[-122.5478158,37.8950021],[-122.5478135,37.8950661],[-122.5478266,37.8951159],[-122.547855,37.8951643],[-122.5479131,37.8952312]]}},{"type":"Feature","properties":{"highway":"residential","name":"Montford Avenue","Block_No":9},"geometry":{"type":"LineString","coordinates":[[-122.5521745,37.8995533],[-122.5521954,37.8995633],[-122.5522574,37.8995658],[-122.552322,37.8995414],[-122.5523842,37.8994891]]}},{"type":"Feature","properties":{"highway":"service","name":null,"Block_No":9},"geometry":{"type":"LineString","coordinates":[[-122.5533421,37.899137],[-122.5534507,37.8991578],[-122.5535995,37.8991836],[-122.5537672,37.8992055]]}},{"type":"Feature","properties":{"highway":"service","name":null,"Block_No":5},"geometry":{"type":"LineString","coordinates":[[-122.5558145,37.9009758],[-122.5558645,37.9009857]]}},{"type":"Feature","properties":{"highway":"service","name":null,"Block_No":4},"geometry":{"type":"LineString","coordinates":[[-122.555163,37.9010471],[-122.5552585,37.9009729],[-122.5553258,37.9009711],[-122.5555444,37.9009654],[-122.5557199,37.9009605],[-122.5557344,37.90096],[-122.5558145,37.9009758]]}},{"type":"Feature","properties":{"highway":"service","name":null,"Block_No":22},"geometry":{"type":"LineString","coordinates":[[-122.5437222,37.898455],[-122.543664,37.8984879],[-122.5436306,37.898515],[-122.5435231,37.8986232],[-122.5434974,37.8986425],[-122.5434616,37.8986601]]}},{"type":"Feature","properties":{"highway":"service","name":null,"Block_No":9},"geometry":{"type":"LineString","coordinates":[[-122.5518642,37.8995615],[-122.5518607,37.8995689],[-122.5518455,37.8996709],[-122.5518432,37.8997984],[-122.5518541,37.8998372],[-122.5518823,37.8998818],[-122.5519491,37.8999374],[-122.5520431,37.900033],[-122.5520952,37.9000621],[-122.5521676,37.9000675],[-122.5522585,37.9000586],[-122.5523507,37.9000277],[-122.5524443,37.899969],[-122.5525106,37.8999087],[-122.5525478,37.8998718]]}},{"type":"Feature","properties":{"highway":"service","name":null,"Block_No":14},"geometry":{"type":"LineString","coordinates":[[-122.5504515,37.9004827],[-122.5503091,37.9005557],[-122.5502767,37.9005621],[-122.5501718,37.9005684],[-122.5501589,37.9005727],[-122.5500862,37.9006147],[-122.5499948,37.9006531],[-122.5499797,37.9006572],[-122.5499668,37.900659],[-122.5499063,37.9006634],[-122.5498702,37.9006654]]}},{"type":"Feature","properties":{"highway":"service","name":null,"Block_No":13},"geometry":{"type":"LineString","coordinates":[[-122.5512119,37.8995195],[-122.5511891,37.8995224],[-122.5511698,37.8995291],[-122.5511524,37.8995403],[-122.5511449,37.8995532],[-122.5511413,37.8995733]]}},{"type":"Feature","properties":{"highway":"service","name":null,"Block_No":14},"geometry":{"type":"LineString","coordinates":[[-122.548767,37.8997197],[-122.5487949,37.8996819]]}},{"type":"Feature","properties":{"highway":"residential","name":"Laverne Avenue","Block_No":53},"geometry":{"type":"LineString","coordinates":[[-122.5382554,37.8937395],[-122.5382682,37.893693],[-122.5382839,37.8936412],[-122.5383273,37.8935329],[-122.5383851,37.8935006],[-122.5383995,37.8935002]]}},{"type":"Feature","properties":{"highway":"residential","name":"Laverne Avenue","Block_No":66},"geometry":{"type":"LineString","coordinates":[[-122.5361978,37.8931277],[-122.5362299,37.8931185],[-122.5362905,37.8931082],[-122.5363478,37.893103],[-122.5364641,37.8931086],[-122.5366835,37.8931191],[-122.5369088,37.893225],[-122.5370701,37.8932592],[-122.5371689,37.8932174],[-122.5372459,37.89313],[-122.537335,37.8930616],[-122.5374217,37.8930825],[-122.5375017,37.8931693],[-122.5377208,37.8935651]]}},{"type":"Feature","properties":{"highway":"residential","name":"Laverne Avenue","Block_No":64},"geometry":{"type":"LineString","coordinates":[[-122.5345319,37.8930616],[-122.5345237,37.8934273],[-122.5345303,37.8934829],[-122.5345418,37.8935385],[-122.5345614,37.8935876],[-122.5345925,37.8936315],[-122.5346085,37.8936468]]}},{"type":"Feature","properties":{"highway":"residential","name":"Laverne Avenue","Block_No":65},"geometry":{"type":"LineString","coordinates":[[-122.5346085,37.8936468],[-122.5346189,37.8936567],[-122.5346318,37.893669],[-122.5346777,37.8936909],[-122.5347284,37.8937],[-122.5347808,37.8937051],[-122.535516,37.893678],[-122.5355651,37.8936664],[-122.5358386,37.8935798],[-122.5358992,37.8935501],[-122.5359401,37.8935204],[-122.5359797,37.8934837],[-122.5360008,37.8934512],[-122.5360187,37.8934183],[-122.536058,37.8932348],[-122.5360858,37.8931896],[-122.5361251,37.8931598],[-122.536171,37.8931353],[-122.5361978,37.8931277]]}},{"type":"Feature","properties":{"highway":"residential","name":"Laverne Avenue","Block_No":52},"geometry":{"type":"MultiLineString","coordinates":[[[-122.5377208,37.8935651],[-122.5377826,37.8936766],[-122.5379564,37.8938427],[-122.538054,37.8938722]],[[-122.5385612,37.8935477],[-122.5386836,37.8936054],[-122.5389342,37.8936963],[-122.5392448,37.8937609],[-122.5396133,37.8938313],[-122.5396874,37.8938266]]]}},{"type":"Feature","properties":{"highway":"residential","name":"Laverne Avenue","Block_No":17},"geometry":{"type":"MultiLineString","coordinates":[[[-122.5459545,37.8960143],[-122.5459593,37.896017],[-122.5463165,37.8961007],[-122.5466852,37.896197],[-122.546705,37.8962018]],[[-122.5467678,37.8962168],[-122.5470444,37.8962833],[-122.5471076,37.8962943],[-122.5471714,37.8962892],[-122.5472324,37.8962517],[-122.5472591,37.8962371]],[[-122.5474545,37.8962131],[-122.5475622,37.8962249],[-122.5476424,37.8962675],[-122.5477873,37.8963612],[-122.547869,37.8963624],[-122.5479346,37.8963514],[-122.5482773,37.8962838],[-122.5483529,37.8962845],[-122.5484223,37.8963222],[-122.5484282,37.8963263]]]}},{"type":"Feature","properties":{"highway":"residential","name":"Laverne Avenue","Block_No":11},"geometry":{"type":"LineString","coordinates":[[-122.5484282,37.8963263],[-122.5484762,37.8963599],[-122.5485093,37.8964056],[-122.5485302,37.8964816],[-122.548552,37.8965729],[-122.5485918,37.896664],[-122.5486864,37.8967523],[-122.5488061,37.8968331],[-122.5489427,37.8969042],[-122.5491159,37.8969876],[-122.5493198,37.8970646],[-122.5493764,37.8970873],[-122.5494427,37.8971007],[-122.5495363,37.8970924],[-122.549634,37.897044],[-122.5497209,37.8970325],[-122.5498121,37.8970495],[-122.5499153,37.8970783],[-122.5500483,37.8971092],[-122.5503567,37.8971254],[-122.5505855,37.8971309],[-122.5506309,37.897132],[-122.550844,37.8971268],[-122.5509561,37.8971078],[-122.5510274,37.897115],[-122.5510833,37.8971303],[-122.5511438,37.8971623],[-122.5512429,37.8972247],[-122.5513446,37.8972973],[-122.5513736,37.8973585],[-122.5513688,37.8974295],[-122.551341,37.8974904],[-122.5512919,37.8975529]]}},{"type":"Feature","properties":{"highway":"residential","name":"Laverne Avenue","Block_No":47},"geometry":{"type":"MultiLineString","coordinates":[[[-122.5405894,37.8938701],[-122.5406272,37.8938959],[-122.5407163,37.8940707],[-122.5408314,37.8942597]],[[-122.540869,37.8943213],[-122.5408941,37.8943626],[-122.5410753,37.8944979]],[[-122.5411861,37.8945806],[-122.5413249,37.8946843]]]}},{"type":"Feature","properties":{"highway":"residential","name":"Laverne Avenue","Block_No":37},"geometry":{"type":"LineString","coordinates":[[-122.5413249,37.8946843],[-122.5414653,37.8947891],[-122.5416131,37.8948714],[-122.5417639,37.8949298],[-122.5419779,37.8949846],[-122.5422619,37.8950413],[-122.5423801,37.8950683]]}},{"type":"Feature","properties":{"highway":"residential","name":"Laverne Avenue","Block_No":33},"geometry":{"type":"LineString","coordinates":[[-122.5423801,37.8950683],[-122.5427176,37.8951455],[-122.5435792,37.8953421]]}},{"type":"Feature","properties":{"highway":"residential","name":"Laverne Avenue","Block_No":24},"geometry":{"type":"LineString","coordinates":[[-122.5438376,37.8953952],[-122.5442943,37.8954873],[-122.5447343,37.8956106]]}},{"type":"Feature","properties":{"highway":"residential","name":"Laverne Avenue","Block_No":10},"geometry":{"type":"LineString","coordinates":[[-122.5512919,37.8975529],[-122.5512542,37.8976008],[-122.551214,37.8976854],[-122.5512051,37.89773],[-122.5512047,37.8977841],[-122.5512244,37.8978402],[-122.5512773,37.8978973],[-122.5513786,37.8979849],[-122.5514862,37.898031],[-122.5516144,37.8980676],[-122.5517716,37.8981029],[-122.5520659,37.8981473],[-122.5521225,37.8981596]]}},{"type":"Feature","properties":{"highway":"residential","name":"Castle Rock Drive","Block_No":1},"geometry":{"type":"MultiLineString","coordinates":[[[-122.5580956,37.9020367],[-122.5580355,37.902024],[-122.5578101,37.9019584],[-122.5576799,37.901928],[-122.5576004,37.9019052],[-122.5575582,37.9018785],[-122.5575461,37.9018576]],[[-122.5576092,37.9017686],[-122.5576193,37.9017602],[-122.5576739,37.9017178],[-122.5576992,37.9016617],[-122.5576999,37.9016455]],[[-122.5577581,37.9007967],[-122.557757,37.9007695],[-122.5577691,37.9006678],[-122.5577667,37.9005631],[-122.5577152,37.9004688]]]}},{"type":"Feature","properties":{"highway":"residential","name":"Castle Rock Drive","Block_No":2},"geometry":{"type":"MultiLineString","coordinates":[[[-122.5584061,37.9020836],[-122.5583467,37.9020896],[-122.5580956,37.9020367]],[[-122.5575461,37.9018576],[-122.5575401,37.9018471],[-122.557563,37.9018072],[-122.5576092,37.9017686]],[[-122.5576999,37.9016455],[-122.557704,37.9015571],[-122.5577016,37.901442],[-122.557657,37.9013364],[-122.55761,37.9012527],[-122.5575824,37.901204],[-122.557591,37.9011505],[-122.5576281,37.9010996],[-122.55771,37.9010073],[-122.5577619,37.9008922],[-122.5577581,37.9007967]],[[-122.5577152,37.9004688],[-122.5576956,37.9004328],[-122.5576519,37.900325],[-122.5576058,37.9002598],[-122.557531,37.9001917],[-122.5573269,37.9000729],[-122.5572146,37.9000294],[-122.5571197,37.8999938],[-122.5570579,37.8999453],[-122.5570407,37.8998714],[-122.5570509,37.8997973],[-122.5571324,37.8996994],[-122.5572255,37.8996434],[-122.5573846,37.8995626],[-122.5574569,37.8995065],[-122.5575497,37.8993942],[-122.5576435,37.8993372],[-122.5576879,37.8992538],[-122.557739,37.8991664],[-122.557748,37.8990918],[-122.5577374,37.8990272],[-122.5576588,37.8989004]]]}},{"type":"Feature","properties":{"highway":"residential","name":"Evergreen Lane","Block_No":20},"geometry":{"type":"LineString","coordinates":[[-122.5452343,37.8965851],[-122.5456778,37.896691],[-122.5464593,37.8968518]]}},{"type":"Feature","properties":{"highway":"residential","name":"Homestead Boulevard","Block_No":64},"geometry":{"type":"MultiLineString","coordinates":[[[-122.5334408,37.8928082],[-122.5334545,37.8928355],[-122.5334823,37.8928794],[-122.5335184,37.8929156],[-122.5335642,37.8929492],[-122.5336101,37.8929712],[-122.5336559,37.892988],[-122.5336575,37.8929883]],[[-122.5343954,37.8930339],[-122.5345319,37.8930616]]]}},{"type":"Feature","properties":{"highway":"service","name":null,"Block_No":30},"geometry":{"type":"MultiLineString","coordinates":[[[-122.5468117,37.8921603],[-122.546746,37.8920581]],[[-122.5465292,37.8919384],[-122.5464785,37.891949],[-122.5464218,37.89198],[-122.5463482,37.8920241],[-122.546247,37.8921156],[-122.5462049,37.8921796],[-122.5461767,37.8922419],[-122.5461049,37.8923387],[-122.5460205,37.8924069],[-122.5459434,37.8924688],[-122.5458974,37.8925425],[-122.5458217,37.892613],[-122.5457657,37.8926745]]]}},{"type":"Feature","properties":{"highway":"path","name":null,"Block_No":15},"geometry":{"type":"LineString","coordinates":[[-122.5449708,37.9000249],[-122.5451269,37.8999032],[-122.5452556,37.8997991],[-122.5453958,37.899715],[-122.5455055,37.8996255],[-122.5455805,37.8995335],[-122.5456201,37.8994752],[-122.5456505,37.899427],[-122.5456928,37.89938],[-122.5457456,37.8993524],[-122.5458289,37.8993434],[-122.5458493,37.8993433]]}},{"type":"Feature","properties":{"highway":"tertiary","name":"Sequoia Valley Road","Block_No":1},"geometry":{"type":"MultiLineString","coordinates":[[[-122.5581613,37.8998276],[-122.5581635,37.8998341],[-122.5582016,37.8998775],[-122.558253,37.8999185],[-122.558322,37.8999582],[-122.5583673,37.8999878]],[[-122.5584822,37.9000877],[-122.5584843,37.9000911]]]}},{"type":"Feature","properties":{"highway":"tertiary","name":"Sequoia Valley Road","Block_No":2},"geometry":{"type":"LineString","coordinates":[[-122.5584703,37.9021399],[-122.5584737,37.9021494],[-122.558472,37.9021644]]}},{"type":"Feature","properties":{"highway":"residential","name":"Ridgewood Avenue","Block_No":8},"geometry":{"type":"LineString","coordinates":[[-122.55188,37.9011975],[-122.5520421,37.9011522],[-122.5522763,37.9010791],[-122.5524357,37.9010049],[-122.5525886,37.9009033],[-122.552699,37.9008295],[-122.5527975,37.9007498],[-122.552878,37.9006822],[-122.5529394,37.9005829],[-122.5530058,37.9004976],[-122.5530878,37.900441],[-122.5531694,37.900398],[-122.5532244,37.9003756],[-122.5532905,37.900367],[-122.5534762,37.9003806],[-122.5535695,37.9003948],[-122.5536289,37.9003821],[-122.553698,37.9003271],[-122.553776,37.900276],[-122.5538481,37.9002588],[-122.5540258,37.9002647],[-122.5541835,37.9002551],[-122.5542984,37.9002376],[-122.5543581,37.9002041],[-122.5544028,37.9001658],[-122.5544731,37.9001426],[-122.5545752,37.9001333],[-122.5547608,37.9001444]]}},{"type":"Feature","properties":{"highway":"service","name":null,"Block_No":14},"geometry":{"type":"LineString","coordinates":[[-122.5493423,37.9002309],[-122.5492924,37.9003274]]}},{"type":"Feature","properties":{"highway":"residential","name":"Cedarwood Lane","Block_No":8},"geometry":{"type":"LineString","coordinates":[[-122.5539715,37.9011806],[-122.5537533,37.9007009]]}},{"type":"Feature","properties":{"highway":"footway","name":"Stolte Grove","Block_No":6},"geometry":{"type":"LineString","coordinates":[[-122.5557815,37.8996992],[-122.5558827,37.8997002]]}},{"type":"Feature","properties":{"highway":"service","name":null,"Block_No":53},"geometry":{"type":"LineString","coordinates":[[-122.5382682,37.893693],[-122.5382449,37.8936215],[-122.5382297,37.893538],[-122.5382216,37.8934536],[-122.5382826,37.8933672],[-122.5383246,37.8933225],[-122.5383592,37.893251],[-122.5383779,37.8931463],[-122.5383839,37.8929651]]}},{"type":"Feature","properties":{"highway":"residential","name":"East Laverne Avenue","Block_No":65},"geometry":{"type":"LineString","coordinates":[[-122.5346189,37.8936567],[-122.5342716,37.8939353]]}},{"type":"Feature","properties":{"highway":"residential","name":"East Laverne Avenue","Block_No":68},"geometry":{"type":"LineString","coordinates":[[-122.5342716,37.8939353],[-122.5341925,37.8939987]]}},{"type":"Feature","properties":{"highway":"residential","name":"Lillian Lane","Block_No":36},"geometry":{"type":"LineString","coordinates":[[-122.5399034,37.8954508],[-122.5397886,37.8957704]]}},{"type":"Feature","properties":{"highway":"residential","name":"Lillian Lane","Block_No":36},"geometry":{"type":"LineString","coordinates":[[-122.5397886,37.8957704],[-122.5397601,37.8958499]]}},{"type":"Feature","properties":{"highway":"service","name":"Chapman Road","Block_No":39},"geometry":{"type":"LineString","coordinates":[[-122.5417567,37.8937647],[-122.5419219,37.8937218],[-122.5420511,37.8937649],[-122.5423914,37.8938546]]}},{"type":"Feature","properties":{"highway":"service","name":"Brabo Terrace","Block_No":40},"geometry":{"type":"LineString","coordinates":[[-122.5418579,37.8922405],[-122.541915,37.892368],[-122.5419739,37.8925754],[-122.5420048,37.8926814],[-122.5420144,37.8928278],[-122.5420022,37.8929097]]}},{"type":"Feature","properties":{"highway":"service","name":"Brabo Terrace","Block_No":39},"geometry":{"type":"LineString","coordinates":[[-122.5420022,37.8929097],[-122.5419855,37.8930216]]}},{"type":"Feature","properties":{"highway":"service","name":null,"Block_No":40},"geometry":{"type":"LineString","coordinates":[[-122.5421059,37.8924322],[-122.541915,37.892368]]}},{"type":"Feature","properties":{"highway":"service","name":null,"Block_No":39},"geometry":{"type":"LineString","coordinates":[[-122.5426141,37.8926418],[-122.5425231,37.8925553],[-122.5423187,37.8925037],[-122.5421059,37.8924322]]}},{"type":"Feature","properties":{"highway":"residential","name":"Madrone Park Circle","Block_No":29},"geometry":{"type":"LineString","coordinates":[[-122.5478716,37.8909366],[-122.5478283,37.8909369],[-122.547757,37.8909373],[-122.5476675,37.890962],[-122.5476134,37.8909892]]}},{"type":"Feature","properties":{"highway":"residential","name":"Madrone Park Circle","Block_No":28},"geometry":{"type":"LineString","coordinates":[[-122.5474415,37.8919796],[-122.547473,37.8919392],[-122.5475457,37.891879],[-122.5476067,37.8918403],[-122.547672,37.8918202],[-122.5477261,37.8918058],[-122.5477857,37.8917962],[-122.5478436,37.8918047],[-122.5478904,37.8917985],[-122.5479425,37.8917825],[-122.5479665,37.8917615],[-122.5479782,37.8917414],[-122.5479765,37.8917129],[-122.5479415,37.8915289],[-122.5479403,37.8914871],[-122.5479574,37.8914474],[-122.5479834,37.8914062],[-122.5480345,37.8913434],[-122.5481969,37.8912097],[-122.54829,37.8911293],[-122.5483514,37.8910574],[-122.5483966,37.89102],[-122.5484043,37.8910012],[-122.548404,37.8909826],[-122.5483891,37.8909614],[-122.54831,37.8909058],[-122.548293,37.8908977],[-122.5482671,37.8909001],[-122.5481729,37.8909241],[-122.5481014,37.8909353],[-122.5478716,37.8909366]]}},{"type":"Feature","properties":{"highway":"residential","name":"Madrone Park Circle","Block_No":27},"geometry":{"type":"LineString","coordinates":[[-122.546573,37.8924984],[-122.5465494,37.8925459],[-122.5465344,37.8925982],[-122.5465352,37.8926452],[-122.5465427,37.8927007],[-122.546553,37.8927415],[-122.5466206,37.8928081],[-122.546679,37.8929085],[-122.5466918,37.8929451],[-122.5467072,37.8930828],[-122.5467242,37.8932221],[-122.5467394,37.8932815],[-122.5467558,37.893321],[-122.5468086,37.8933749],[-122.5468792,37.8934138],[-122.5469407,37.8934385],[-122.547014,37.8934642],[-122.5470718,37.8934823],[-122.5471174,37.8934936],[-122.5471551,37.8934893],[-122.5471541,37.8934624],[-122.5471226,37.8934345],[-122.5470539,37.8934183],[-122.5469997,37.8933968],[-122.5469626,37.8933658],[-122.5469356,37.8933261],[-122.5469305,37.8932843],[-122.5469692,37.8930349],[-122.5469919,37.8929576],[-122.5469966,37.8928878],[-122.5469959,37.8927535],[-122.5470125,37.8927114],[-122.5470414,37.8926695],[-122.5470909,37.8926225],[-122.5471505,37.8925884],[-122.5473358,37.8924983],[-122.5474242,37.8924431],[-122.5474655,37.8924029],[-122.5474793,37.8923813],[-122.5474806,37.8923587],[-122.5474679,37.8923281],[-122.5474213,37.8922444],[-122.5474011,37.8922053],[-122.5473884,37.8921582],[-122.5473886,37.8921127],[-122.5473992,37.8920531],[-122.5474297,37.8919947],[-122.5474415,37.8919796]]}},{"type":"Feature","properties":{"highway":"residential","name":"Melrose Avenue","Block_No":30},"geometry":{"type":"LineString","coordinates":[[-122.5458292,37.8926884],[-122.5458157,37.8926781],[-122.5457657,37.8926745],[-122.5457186,37.8926906],[-122.5456252,37.8927583],[-122.5455284,37.8928517],[-122.5453935,37.8929334],[-122.5452754,37.8930161],[-122.5451987,37.8930723]]}},{"type":"Feature","properties":{"highway":"residential","name":"Melrose Avenue","Block_No":31},"geometry":{"type":"MultiLineString","coordinates":[[[-122.5459367,37.8933383],[-122.545888,37.8932674],[-122.5458537,37.8931444],[-122.5458247,37.8930205],[-122.5458278,37.8929401],[-122.5458578,37.8927838],[-122.5458579,37.8927335],[-122.5458438,37.8926995],[-122.5458292,37.8926884]],[[-122.5451987,37.8930723],[-122.5451069,37.8931396],[-122.5449803,37.8932515],[-122.5449302,37.8933473],[-122.5449095,37.8934416],[-122.5448652,37.8935716],[-122.5447456,37.8937185],[-122.5447305,37.8937385]]]}},{"type":"Feature","properties":{"highway":"residential","name":"Melrose Avenue","Block_No":32},"geometry":{"type":"LineString","coordinates":[[-122.5447305,37.8937385],[-122.5446295,37.8938718],[-122.5439184,37.8946161],[-122.5438254,37.8948081],[-122.5437599,37.894978],[-122.5436818,37.8951819]]}},{"type":"Feature","properties":{"highway":"residential","name":"Melrose Avenue","Block_No":26},"geometry":{"type":"LineString","coordinates":[[-122.5460412,37.8934257],[-122.5459578,37.893369],[-122.5459367,37.8933383]]}},{"type":"Feature","properties":{"highway":"residential","name":"Hawthorne Street","Block_No":47},"geometry":{"type":"LineString","coordinates":[[-122.54023,37.8953615],[-122.5403908,37.8948462],[-122.5405367,37.8946387],[-122.5408941,37.8943626]]}},{"type":"Feature","properties":{"highway":"service","name":"Curry Lane","Block_No":38},"geometry":{"type":"LineString","coordinates":[[-122.5418573,37.8947206],[-122.5418579,37.8947055],[-122.5418892,37.8946257],[-122.5419686,37.8945421],[-122.5420385,37.8944983],[-122.5425515,37.8943919],[-122.5426935,37.8943577],[-122.5428019,37.8942931],[-122.5430596,37.8939491],[-122.5431728,37.8938047],[-122.5432426,37.8937134],[-122.5432812,37.8935519],[-122.5432884,37.8934873],[-122.5432523,37.8934074]]}},{"type":"Feature","properties":{"highway":"service","name":"Curry Lane","Block_No":37},"geometry":{"type":"LineString","coordinates":[[-122.5422619,37.8950413],[-122.5422525,37.8950119]]}},{"type":"Feature","properties":{"highway":"residential","name":"Janes Street","Block_No":23},"geometry":{"type":"MultiLineString","coordinates":[[[-122.5429972,37.8984292],[-122.542984,37.8984267],[-122.5429756,37.8984254]],[[-122.5424914,37.8983401],[-122.5425066,37.8982708],[-122.5425621,37.8981719],[-122.5426113,37.8980627],[-122.5426786,37.8978608],[-122.5426944,37.8977822],[-122.5426949,37.8976894],[-122.5426779,37.8975634],[-122.542646,37.8974428],[-122.542607,37.8973418],[-122.5425482,37.8972292]],[[-122.5424761,37.8971137],[-122.5424625,37.8970932],[-122.5424621,37.8970928]]]}},{"type":"Feature","properties":{"highway":"residential","name":"Janes Street","Block_No":22},"geometry":{"type":"LineString","coordinates":[[-122.5426871,37.8990292],[-122.5426924,37.8990207],[-122.5427485,37.8989364],[-122.5428398,37.8988689],[-122.5429021,37.8988379],[-122.5429848,37.8988157],[-122.5430626,37.8988123],[-122.5431305,37.8988263],[-122.5431871,37.8988571],[-122.5432385,37.8988775],[-122.5432855,37.898886],[-122.543326,37.8988755],[-122.5433627,37.898858],[-122.5434005,37.8988276],[-122.5434278,37.8987652],[-122.5434493,37.8987004],[-122.5434616,37.8986601],[-122.5434738,37.8986159],[-122.5435312,37.8984858]]}},{"type":"Feature","properties":{"highway":"residential","name":"North Vernal Avenue","Block_No":56},"geometry":{"type":"LineString","coordinates":[[-122.5385004,37.8903883],[-122.5387704,37.8902426],[-122.5388195,37.8902216],[-122.5396169,37.8899013]]}},{"type":"Feature","properties":{"highway":"residential","name":"North Vernal Avenue","Block_No":55},"geometry":{"type":"LineString","coordinates":[[-122.5382744,37.8902266],[-122.5383133,37.8903591],[-122.5383461,37.8903914],[-122.5383932,37.8904044],[-122.5384465,37.8904044],[-122.5384977,37.8903898],[-122.5385004,37.8903883]]}},{"type":"Feature","properties":{"highway":"residential","name":"Reed Street","Block_No":41},"geometry":{"type":"MultiLineString","coordinates":[[[-122.5404137,37.8928709],[-122.5403643,37.8926792],[-122.5403984,37.8925807],[-122.540502,37.8925256],[-122.5405905,37.8925009]],[[-122.5408616,37.8923365],[-122.5408632,37.8922443],[-122.5408343,37.892117],[-122.5408994,37.8919835]]]}},{"type":"Feature","properties":{"highway":"residential","name":"Reed Street","Block_No":40},"geometry":{"type":"LineString","coordinates":[[-122.5405905,37.8925009],[-122.5406995,37.8924705],[-122.5408608,37.8923831],[-122.5408616,37.8923365]]}},{"type":"Feature","properties":{"highway":"residential","name":"Reed Street","Block_No":46},"geometry":{"type":"LineString","coordinates":[[-122.5404064,37.8935302],[-122.5404129,37.8935177],[-122.5404779,37.8933428],[-122.5405092,37.8932288],[-122.5405009,37.8931986],[-122.5404557,37.8930338],[-122.5404137,37.8928709]]}},{"type":"Feature","properties":{"highway":"residential","name":"Reed Street","Block_No":69},"geometry":{"type":"LineString","coordinates":[[-122.5380136,37.8945764],[-122.5381205,37.8945516]]}},{"type":"Feature","properties":{"highway":"residential","name":"Linden Lane","Block_No":49},"geometry":{"type":"LineString","coordinates":[[-122.5387575,37.896238],[-122.5387942,37.8962013],[-122.538926,37.8961017],[-122.538983,37.8960156],[-122.5392081,37.8953514],[-122.5392141,37.8952962]]}},{"type":"Feature","properties":{"highway":"residential","name":"Seymour Lane","Block_No":22},"geometry":{"type":"LineString","coordinates":[[-122.5435677,37.899826],[-122.5436421,37.8995503]]}},{"type":"Feature","properties":{"highway":"residential","name":"Seymour Lane","Block_No":15},"geometry":{"type":"LineString","coordinates":[[-122.5436421,37.8995503],[-122.5436431,37.8995466],[-122.5438152,37.8990995],[-122.543835,37.8990281],[-122.5438555,37.8989676],[-122.5438926,37.8989021],[-122.543959,37.8988305],[-122.5440268,37.898781]]}},{"type":"Feature","properties":{"highway":"residential","name":"Brabo Terrace","Block_No":41},"geometry":{"type":"LineString","coordinates":[[-122.5408994,37.8919835],[-122.5410694,37.8921478],[-122.5410952,37.8921748]]}},{"type":"Feature","properties":{"highway":"residential","name":"Brabo Terrace","Block_No":40},"geometry":{"type":"LineString","coordinates":[[-122.5410952,37.8921748],[-122.5411835,37.8922671],[-122.5412678,37.8922975],[-122.5412963,37.8922975],[-122.5413545,37.8922975],[-122.541487,37.8922481],[-122.5416411,37.8921778],[-122.5417736,37.8921721],[-122.5418579,37.8922405]]}},{"type":"Feature","properties":{"highway":"residential","name":"Greenhill Road","Block_No":59},"geometry":{"type":"LineString","coordinates":[[-122.5356519,37.8905896],[-122.5355714,37.8905299]]}},{"type":"Feature","properties":{"highway":"residential","name":"Greenhill Road","Block_No":56},"geometry":{"type":"LineString","coordinates":[[-122.5394417,37.8903793],[-122.5393535,37.8903793],[-122.5392903,37.8904048],[-122.5392179,37.8904668],[-122.539097,37.8905686],[-122.5390545,37.8905968]]}},{"type":"Feature","properties":{"highway":"residential","name":"Greenhill Road","Block_No":44},"geometry":{"type":"MultiLineString","coordinates":[[[-122.5400126,37.8905],[-122.5399978,37.8905045],[-122.5398714,37.8905155],[-122.5397635,37.8904912],[-122.5396356,37.8904364],[-122.539585,37.8904202]],[[-122.5390113,37.8906254],[-122.5389404,37.8906724],[-122.5388218,37.8907053],[-122.5387663,37.890777],[-122.5387524,37.8908646],[-122.5387524,37.8909631],[-122.53872,37.8910118],[-122.5386306,37.8910434],[-122.5385212,37.8910507],[-122.5383486,37.8910556],[-122.538085,37.8911237],[-122.5380071,37.8911564]]]}},{"type":"Feature","properties":{"highway":"residential","name":"Greenhill Road","Block_No":60},"geometry":{"type":"MultiLineString","coordinates":[[[-122.5378252,37.8912173],[-122.5377598,37.8912246],[-122.5376704,37.89121],[-122.5375972,37.8911689],[-122.5373837,37.8910762],[-122.5371232,37.8909534],[-122.5370515,37.8909328]],[[-122.5362508,37.8907858],[-122.5361291,37.8907588],[-122.5360054,37.8907271]]]}},{"type":"Feature","properties":{"highway":"residential","name":"Greenhill Road","Block_No":43},"geometry":{"type":"LineString","coordinates":[[-122.541316,37.8898203],[-122.5409398,37.8900402],[-122.5407268,37.8901469],[-122.5404386,37.8902418],[-122.5402737,37.8903464],[-122.5402173,37.8903922]]}},{"type":"Feature","properties":{"highway":"residential","name":"Homestead Boulevard","Block_No":54},"geometry":{"type":"LineString","coordinates":[[-122.5369586,37.8924846],[-122.5370122,37.8924228],[-122.5370616,37.8923255],[-122.5370831,37.8922196],[-122.5371386,37.8921296],[-122.5372527,37.8920469],[-122.5373698,37.8919557],[-122.5374461,37.891933],[-122.5374885,37.8919314],[-122.5375394,37.8919508],[-122.537601,37.8919922],[-122.5376349,37.8920372],[-122.5377012,37.8921418],[-122.5377642,37.8921841]]}},{"type":"Feature","properties":{"highway":"residential","name":"Homestead Boulevard","Block_No":63},"geometry":{"type":"LineString","coordinates":[[-122.5354518,37.8929852],[-122.5354542,37.8929802],[-122.5355128,37.8928411],[-122.5355549,37.8927825]]}},{"type":"Feature","properties":{"highway":"residential","name":"Homestead Boulevard","Block_No":66},"geometry":{"type":"LineString","coordinates":[[-122.5361836,37.8925909],[-122.5365274,37.8926519],[-122.5366129,37.8926671],[-122.5366654,37.8926636],[-122.5367324,37.8926488],[-122.5367841,37.8926332],[-122.5367969,37.8926278]]}},{"type":"Feature","properties":{"highway":"residential","name":"Homestead Boulevard","Block_No":64},"geometry":{"type":"LineString","coordinates":[[-122.5345319,37.8930616],[-122.5346165,37.8931103]]}},{"type":"Feature","properties":{"highway":"residential","name":"Homestead Boulevard","Block_No":65},"geometry":{"type":"LineString","coordinates":[[-122.5347992,37.8932155],[-122.5348103,37.8932219],[-122.5348823,37.8932464],[-122.5349413,37.8932542],[-122.5349649,37.8932537]]}},{"type":"Feature","properties":{"highway":"residential","name":"Montford Avenue","Block_No":21},"geometry":{"type":"LineString","coordinates":[[-122.5451231,37.8976875],[-122.545169,37.8977115],[-122.5452526,37.8977122],[-122.5453222,37.8976951],[-122.5453384,37.897687]]}},{"type":"Feature","properties":{"highway":"residential","name":"Montford Avenue","Block_No":16},"geometry":{"type":"LineString","coordinates":[[-122.5467436,37.8975042],[-122.546919,37.8975386],[-122.5470952,37.897548]]}},{"type":"Feature","properties":{"highway":"residential","name":"Montford Avenue","Block_No":12},"geometry":{"type":"LineString","coordinates":[[-122.5495207,37.8984374],[-122.5495445,37.8984606],[-122.5496647,37.8986924],[-122.5496769,37.8987198]]}},{"type":"Feature","properties":{"highway":"path","name":null,"Block_No":14},"geometry":{"type":"LineString","coordinates":[[-122.547479,37.8999366],[-122.5473365,37.8997016],[-122.5472706,37.8996014],[-122.5471677,37.8994854]]}},{"type":"Feature","properties":{"highway":"service","name":null,"Block_No":11},"geometry":{"type":"LineString","coordinates":[[-122.550844,37.8971268],[-122.5508214,37.8971965],[-122.5507952,37.897247],[-122.5507494,37.8972748],[-122.550663,37.8973029],[-122.5506152,37.8973466],[-122.5505856,37.8974077],[-122.5505868,37.8974881],[-122.5506263,37.8975693],[-122.5506559,37.897606],[-122.5506718,37.8976557],[-122.5506551,37.8977228],[-122.5506282,37.8977971],[-122.5506205,37.8979019],[-122.5506036,37.8980533]]}},{"type":"Feature","properties":{"highway":"service","name":null,"Block_No":9},"geometry":{"type":"LineString","coordinates":[[-122.5532348,37.8995199],[-122.5531422,37.8994172],[-122.5530453,37.8993509],[-122.5529726,37.8993066],[-122.5528515,37.8992527],[-122.5527424,37.8992238],[-122.5526323,37.8991913]]}},{"type":"Feature","properties":{"highway":"service","name":null,"Block_No":41},"geometry":{"type":"LineString","coordinates":[[-122.5412322,37.8918376],[-122.5412671,37.8916331],[-122.5413224,37.89155],[-122.5413981,37.8914362],[-122.5414255,37.8913824],[-122.541422,37.8913447]]}},{"type":"Feature","properties":{"highway":"service","name":null,"Block_No":40},"geometry":{"type":"LineString","coordinates":[[-122.5412963,37.8922975],[-122.5413061,37.8922343],[-122.5412866,37.8921617],[-122.5412264,37.8920674],[-122.5412043,37.8919864],[-122.5412264,37.8918719],[-122.5412322,37.8918376]]}},{"type":"Feature","properties":{"highway":"footway","name":null,"Block_No":11},"geometry":{"type":"LineString","coordinates":[[-122.5520618,37.8972188],[-122.5520549,37.8972213],[-122.5519567,37.8972457],[-122.5518712,37.8972782],[-122.551764,37.8973157]]}},{"type":"Feature","properties":{"highway":"residential","name":"Cecily Lane","Block_No":14},"geometry":{"type":"LineString","coordinates":[[-122.5486036,37.8999612],[-122.5488746,37.9000646],[-122.5491657,37.900171],[-122.5493423,37.9002309],[-122.549356,37.9002355],[-122.5493991,37.9002502]]}},{"type":"Feature","properties":{"highway":"service","name":null,"Block_No":41},"geometry":{"type":"LineString","coordinates":[[-122.5414627,37.8916237],[-122.541401,37.8915832],[-122.5413224,37.89155]]}},{"type":"Feature","properties":{"highway":"service","name":null,"Block_No":40},"geometry":{"type":"LineString","coordinates":[[-122.5415465,37.8916811],[-122.5414962,37.8916457],[-122.5414627,37.8916237]]}},{"type":"Feature","properties":{"highway":null,"name":null,"Block_No":39},"geometry":{"type":"LineString","coordinates":[[-122.5430347,37.8928265],[-122.5432446,37.8929009],[-122.5432581,37.8929393]]}},{"type":"Feature","properties":{"highway":null,"name":null,"Block_No":38},"geometry":{"type":"LineString","coordinates":[[-122.5431138,37.8931292],[-122.5430444,37.8932129]]}},{"type":"Feature","properties":{"highway":"service","name":null,"Block_No":18},"geometry":{"type":"LineString","coordinates":[[-122.5485295,37.8950167],[-122.548396,37.8950581],[-122.5483741,37.8952234],[-122.5483306,37.8953172]]}},{"type":"Feature","properties":{"highway":null,"name":null,"Block_No":15},"geometry":{"type":"LineString","coordinates":[[-122.5458868,37.8999178],[-122.5460071,37.8995732],[-122.5461898,37.8996464]]}},{"type":"Feature","properties":{"highway":null,"name":null,"Block_No":59},"geometry":{"type":"LineString","coordinates":[[-122.5354824,37.8905024],[-122.5350798,37.8905179]]}},{"type":"Feature","properties":{"highway":null,"name":null,"Block_No":59},"geometry":{"type":"LineString","coordinates":[[-122.5351575,37.8906759],[-122.5350917,37.8906796],[-122.5350416,37.8906818]]}},{"type":"Feature","properties":{"highway":"service","name":null,"Block_No":29},"geometry":{"type":"LineString","coordinates":[[-122.5478283,37.8909369],[-122.5478431,37.8908931],[-122.5478734,37.8908687]]}},{"type":"Feature","properties":{"highway":"service","name":null,"Block_No":28},"geometry":{"type":"LineString","coordinates":[[-122.5478734,37.8908687],[-122.5478845,37.8908598],[-122.5479642,37.8908388],[-122.5480971,37.8908222],[-122.5481901,37.8908006],[-122.5482464,37.8907796],[-122.5482698,37.8907525],[-122.5482683,37.8907192],[-122.5482511,37.8906877],[-122.5482175,37.8906741],[-122.5480322,37.890622]]}},{"type":"Feature","properties":{"highway":"service","name":null,"Block_No":14},"geometry":{"type":"LineString","coordinates":[[-122.5490178,37.8989931],[-122.5490404,37.8989693],[-122.5490584,37.8989475],[-122.5490681,37.8989221],[-122.54907,37.8988983],[-122.549066,37.8988615]]}},{"type":"Feature","properties":{"highway":"service","name":null,"Block_No":9},"geometry":{"type":"LineString","coordinates":[[-122.5525478,37.8998718],[-122.5529216,37.8997744]]}},{"type":"Feature","properties":{"highway":"residential","name":"Loring Avenue","Block_No":62},"geometry":{"type":"LineString","coordinates":[[-122.5362196,37.8924085],[-122.5358064,37.8922496],[-122.5357259,37.8922096],[-122.5356642,37.8921408],[-122.5356353,37.892061],[-122.5356473,37.8919591],[-122.535673,37.8918671],[-122.5356704,37.8917912],[-122.5356497,37.891718],[-122.5355286,37.891596],[-122.5349866,37.8911865],[-122.5348996,37.8910982]]}},{"type":"Feature","properties":{"highway":"residential","name":"Loring Avenue","Block_No":66},"geometry":{"type":"LineString","coordinates":[[-122.5366129,37.8926671],[-122.5366019,37.8926101]]}},{"type":"Feature","properties":{"highway":"service","name":"Rydal Avenue","Block_No":30},"geometry":{"type":"LineString","coordinates":[[-122.5449797,37.892389],[-122.5449497,37.8923729]]}},{"type":"Feature","properties":{"highway":"footway","name":null,"Block_No":30},"geometry":{"type":"LineString","coordinates":[[-122.5442629,37.8925272],[-122.5441352,37.8925533],[-122.5439769,37.8925639],[-122.5438937,37.892555]]}},{"type":"Feature","properties":{"highway":"residential","name":"Park Way","Block_No":7},"geometry":{"type":"LineString","coordinates":[[-122.555129,37.8992047],[-122.5551677,37.8989163],[-122.5551934,37.8988716]]}},{"type":"Feature","properties":{"highway":"residential","name":"Park Way","Block_No":6},"geometry":{"type":"MultiLineString","coordinates":[[[-122.5551258,37.8992288],[-122.555129,37.8992047]],[[-122.5551934,37.8988716],[-122.5552566,37.8987614]]]}},{"type":"Feature","properties":{"highway":"steps","name":"Stolte Grove","Block_No":6},"geometry":{"type":"LineString","coordinates":[[-122.5559115,37.8997082],[-122.555916,37.899714]]}},{"type":"Feature","properties":{"highway":"residential","name":"Melrose Avenue","Block_No":33},"geometry":{"type":"LineString","coordinates":[[-122.5435381,37.8955781],[-122.5434653,37.8957872]]}},{"type":"Feature","properties":{"highway":"footway","name":null,"Block_No":39},"geometry":{"type":"LineString","coordinates":[[-122.542904,37.8925554],[-122.5429389,37.8926083],[-122.5429805,37.8926591],[-122.5430301,37.8927088],[-122.5430851,37.8927342],[-122.5431508,37.8927618],[-122.5432017,37.8927829],[-122.5432567,37.8928041],[-122.5432862,37.8928073],[-122.5433519,37.8927967],[-122.5433552,37.8927956]]}},{"type":"Feature","properties":{"highway":"footway","name":null,"Block_No":39},"geometry":{"type":"LineString","coordinates":[[-122.5431452,37.8926182],[-122.5431481,37.8926348],[-122.5431468,37.892676],[-122.5431508,37.892729],[-122.5431508,37.8927618]]}},{"type":"Feature","properties":{"highway":"service","name":null,"Block_No":19},"geometry":{"type":"LineString","coordinates":[[-122.5452624,37.895207],[-122.5453658,37.89537],[-122.5454262,37.8954117],[-122.545519,37.8954504],[-122.5460163,37.8955159]]}},{"type":"Feature","properties":{"highway":"footway","name":"Homestead Trail","Block_No":18},"geometry":{"type":"LineString","coordinates":[[-122.5486303,37.8954734],[-122.5485313,37.8954986],[-122.5483677,37.8955547]]}},{"type":"Feature","properties":{"highway":"footway","name":null,"Block_No":9},"geometry":{"type":"MultiLineString","coordinates":[[[-122.5537655,37.8989715],[-122.5537328,37.8989169]],[[-122.5531425,37.8987871],[-122.5530803,37.898793],[-122.5529489,37.8987613],[-122.5529417,37.8987576]]]}},{"type":"Feature","properties":{"highway":"residential","name":"Pixie Trail","Block_No":13},"geometry":{"type":"LineString","coordinates":[[-122.549185,37.8991942],[-122.5492222,37.8992421],[-122.5492759,37.8993032],[-122.5493228,37.8993421],[-122.5493938,37.899372],[-122.5495147,37.8993998],[-122.5496032,37.8994324],[-122.5496542,37.8994521],[-122.5497045,37.8994591],[-122.5497446,37.8994546],[-122.5497948,37.8994434],[-122.5498539,37.8994246],[-122.5499956,37.8994021],[-122.5501977,37.8993904],[-122.5505,37.8994054],[-122.5508855,37.8994028],[-122.5510299,37.8993994],[-122.5511154,37.8993799],[-122.5513648,37.8992937]]}},{"type":"Feature","properties":{"highway":"residential","name":"Pixie Trail","Block_No":14},"geometry":{"type":"LineString","coordinates":[[-122.5489462,37.8989818],[-122.5489934,37.8989853],[-122.5490178,37.8989931],[-122.5490383,37.8989996],[-122.5490665,37.8990182],[-122.5490846,37.8990469],[-122.5491169,37.8990955],[-122.5491207,37.8991013]]}},{"type":"Feature","properties":{"highway":"residential","name":"Hart Lane","Block_No":14},"geometry":{"type":"LineString","coordinates":[[-122.5484732,37.9002261],[-122.5486036,37.8999612],[-122.5486795,37.8998313],[-122.548767,37.8997197]]}},{"type":"Feature","properties":{"highway":"residential","name":"North Ferndale Avenue","Block_No":26},"geometry":{"type":"LineString","coordinates":[[-122.54691,37.8942772],[-122.5469158,37.8942741],[-122.5469561,37.894228],[-122.5469787,37.8941745],[-122.5469381,37.8941304],[-122.5460412,37.8934257]]}},{"type":"Feature","properties":{"highway":"residential","name":"North Ferndale Avenue","Block_No":25},"geometry":{"type":"LineString","coordinates":[[-122.5450476,37.8946128],[-122.5451054,37.8945708],[-122.5451624,37.8945099],[-122.545258,37.8944126],[-122.5453674,37.8943567],[-122.545466,37.894319],[-122.5456502,37.8942929],[-122.5458651,37.8942587],[-122.5460045,37.8942434],[-122.5461204,37.8942459],[-122.5463337,37.8942695],[-122.5463756,37.8942751]]}},{"type":"Feature","properties":{"highway":"residential","name":"North Ferndale Avenue","Block_No":24},"geometry":{"type":"LineString","coordinates":[[-122.5442943,37.8954873],[-122.544325,37.895443]]}},{"type":"Feature","properties":{"highway":"residential","name":"Amaranth Boulevard","Block_No":3},"geometry":{"type":"MultiLineString","coordinates":[[[-122.5582421,37.8975077],[-122.5582226,37.8975063],[-122.5581009,37.897271],[-122.558037,37.8971474],[-122.5579673,37.896976],[-122.5578878,37.8968425],[-122.557699,37.8967477],[-122.5574193,37.8965883],[-122.5573962,37.8965655],[-122.5573742,37.8965437],[-122.5572767,37.8964044],[-122.5572293,37.8963428],[-122.557172,37.8962976],[-122.5571215,37.8962848],[-122.5567835,37.8962392],[-122.556531,37.8962098],[-122.5564562,37.8962111],[-122.5564025,37.8962506],[-122.5562566,37.8963664]],[[-122.5558915,37.8966561],[-122.5558698,37.8966733]]]}},{"type":"Feature","properties":{"highway":"footway","name":"Stolte Grove","Block_No":5},"geometry":{"type":"LineString","coordinates":[[-122.5561583,37.9001318],[-122.5561592,37.9001397]]}},{"type":"Feature","properties":{"highway":"footway","name":"Stolte Grove","Block_No":6},"geometry":{"type":"LineString","coordinates":[[-122.5556272,37.8996027],[-122.5557815,37.8996992]]}},{"type":"Feature","properties":{"highway":"path","name":null,"Block_No":14},"geometry":{"type":"LineString","coordinates":[[-122.5470436,37.8988407],[-122.5470409,37.8988669],[-122.5470259,37.898902]]}},{"type":"Feature","properties":{"highway":"service","name":null,"Block_No":11},"geometry":{"type":"LineString","coordinates":[[-122.5513992,37.8976153],[-122.5514111,37.8976076],[-122.5514873,37.897557],[-122.5515537,37.897489],[-122.5516501,37.8973805],[-122.5517032,37.8973423],[-122.551764,37.8973157]]}},{"type":"Feature","properties":{"highway":"service","name":null,"Block_No":10},"geometry":{"type":"LineString","coordinates":[[-122.5512051,37.89773],[-122.5513045,37.8976762],[-122.5513992,37.8976153]]}},{"type":"Feature","properties":{"highway":"service","name":null,"Block_No":13},"geometry":{"type":"LineString","coordinates":[[-122.5515002,37.8993265],[-122.5514651,37.8993488],[-122.5513478,37.8994099],[-122.5512496,37.8994763],[-122.5512204,37.8995015],[-122.5512119,37.8995195],[-122.5512146,37.899621]]}},{"type":"Feature","properties":{"highway":"service","name":null,"Block_No":9},"geometry":{"type":"LineString","coordinates":[[-122.5515528,37.899293],[-122.5515002,37.8993265]]}},{"type":"Feature","properties":{"highway":"footway","name":null,"Block_No":2},"geometry":{"type":"LineString","coordinates":[[-122.557508,37.8986379],[-122.5575487,37.8986575],[-122.5575918,37.8987084],[-122.5576275,37.898761],[-122.5576588,37.8989004]]}},{"type":"Feature","properties":{"highway":"footway","name":null,"Block_No":18},"geometry":{"type":"LineString","coordinates":[[-122.551365,37.8964017],[-122.5513396,37.8964035],[-122.5511797,37.8964149],[-122.5509802,37.8964056],[-122.5508353,37.8963886],[-122.5506098,37.8963623],[-122.5504383,37.896323],[-122.5502238,37.8962426],[-122.5500602,37.8961643],[-122.5499579,37.8961153],[-122.5498349,37.8960436],[-122.5497195,37.8960077],[-122.5495955,37.896008]]}},{"type":"Feature","properties":{"highway":"footway","name":"Madrone Trail","Block_No":27},"geometry":{"type":"LineString","coordinates":[[-122.5472263,37.8935238],[-122.5471551,37.8934893]]}},{"type":"Feature","properties":{"highway":"footway","name":"Madrone Trail","Block_No":26},"geometry":{"type":"LineString","coordinates":[[-122.5479448,37.8937901],[-122.5479117,37.8937852],[-122.5478748,37.8937725],[-122.547848,37.893745],[-122.5478387,37.8937244]]}},{"type":"Feature","properties":{"highway":"service","name":null,"Block_No":9},"geometry":{"type":"LineString","coordinates":[[-122.5525478,37.8998718],[-122.5526458,37.8997265],[-122.5526924,37.8996992]]}},{"type":"Feature","properties":{"highway":"service","name":null,"Block_No":14},"geometry":{"type":"LineString","coordinates":[[-122.5493973,37.9005166],[-122.5494118,37.900492],[-122.5494977,37.9003251],[-122.5495114,37.9003136],[-122.549528,37.9003068],[-122.549572,37.9003047]]}},{"type":"Feature","properties":{"highway":"service","name":null,"Block_No":42},"geometry":{"type":"LineString","coordinates":[[-122.5432457,37.8900189],[-122.5431686,37.8899665],[-122.5431277,37.8899322],[-122.5430962,37.8898903],[-122.5430754,37.8898427],[-122.5430719,37.8897931]]}},{"type":"Feature","properties":{"highway":"service","name":null,"Block_No":18},"geometry":{"type":"LineString","coordinates":[[-122.5483677,37.8955547],[-122.5483337,37.8954462]]}},{"type":"Feature","properties":{"highway":null,"name":null,"Block_No":15},"geometry":{"type":"LineString","coordinates":[[-122.5457385,37.8999087],[-122.5457183,37.8996507]]}},{"type":"Feature","properties":{"highway":null,"name":null,"Block_No":22},"geometry":{"type":"LineString","coordinates":[[-122.5435738,37.899478],[-122.543145,37.8993894]]}},{"type":"Feature","properties":{"highway":null,"name":null,"Block_No":15},"geometry":{"type":"LineString","coordinates":[[-122.5436178,37.8994871],[-122.5435738,37.899478]]}},{"type":"Feature","properties":{"highway":"service","name":null,"Block_No":29},"geometry":{"type":"LineString","coordinates":[[-122.5476134,37.8909892],[-122.5475789,37.8910328],[-122.5475383,37.8910754],[-122.5474937,37.8911068],[-122.5474539,37.8911148],[-122.5474125,37.8911247],[-122.5473734,37.8911438],[-122.5473155,37.8911586],[-122.547253,37.8911629],[-122.5471913,37.8911802]]}},{"type":"Feature","properties":{"highway":"service","name":null,"Block_No":11},"geometry":{"type":"LineString","coordinates":[[-122.5505855,37.8971309],[-122.5506709,37.8970896],[-122.5507735,37.8970571],[-122.5508715,37.8970401]]}},{"type":"Feature","properties":{"highway":"residential","name":"Montford Avenue","Block_No":9},"geometry":{"type":"LineString","coordinates":[[-122.5534043,37.8991181],[-122.5535608,37.8990706],[-122.5536801,37.8990093],[-122.5537655,37.8989715],[-122.5538913,37.898924],[-122.5539051,37.8989125]]}},{"type":"Feature","properties":{"highway":"residential","name":"Montford Avenue","Block_No":9},"geometry":{"type":"LineString","coordinates":[[-122.5523842,37.8994891],[-122.5524506,37.8993724],[-122.5525108,37.8992871],[-122.5525752,37.8992243],[-122.5526323,37.8991913],[-122.552746,37.8991789],[-122.5529353,37.8991791],[-122.5531195,37.8991689],[-122.5533421,37.899137],[-122.5534043,37.8991181]]}},{"type":"Feature","properties":{"highway":"service","name":null,"Block_No":22},"geometry":{"type":"LineString","coordinates":[[-122.5436306,37.898515],[-122.5436499,37.8985326],[-122.5436648,37.8985553],[-122.5436676,37.8985809],[-122.5436585,37.8986103],[-122.5436497,37.8986364],[-122.5436433,37.898654],[-122.5436317,37.8986808],[-122.5436309,37.8986892],[-122.5436383,37.8986935],[-122.5436571,37.8986887],[-122.543722,37.8986451]]}},{"type":"Feature","properties":{"highway":"path","name":null,"Block_No":14},"geometry":{"type":"LineString","coordinates":[[-122.548767,37.8997197],[-122.5490015,37.8998231],[-122.5493638,37.8999855],[-122.5494443,37.9000147],[-122.549474,37.9000197]]}},{"type":"Feature","properties":{"highway":"service","name":"Rydal Avenue","Block_No":30},"geometry":{"type":"LineString","coordinates":[[-122.5449497,37.8923729],[-122.5445247,37.8921456],[-122.5442629,37.8925272],[-122.5441771,37.8925828],[-122.5439638,37.8926158]]}},{"type":"Feature","properties":{"highway":"residential","name":"Greenhill Road","Block_No":42},"geometry":{"type":"LineString","coordinates":[[-122.5420665,37.8906288],[-122.5420218,37.8905886],[-122.5419694,37.8905562],[-122.5416478,37.8904248],[-122.5415954,37.8904014],[-122.5415495,37.8903676],[-122.5415182,37.8903086],[-122.5414398,37.8900568]]}},{"type":"Feature","properties":{"highway":"residential","name":"Greenhill Road","Block_No":43},"geometry":{"type":"LineString","coordinates":[[-122.5414398,37.8900568],[-122.5413862,37.8898847],[-122.541316,37.8898203]]}},{"type":"Feature","properties":{"highway":"residential","name":"Princess Lane","Block_No":46},"geometry":{"type":"LineString","coordinates":[[-122.5404557,37.8930338],[-122.5399776,37.8930438]]}},{"type":"Feature","properties":{"highway":"residential","name":"Vernal Way","Block_No":56},"geometry":{"type":"LineString","coordinates":[[-122.5396169,37.8899013],[-122.5398116,37.8898253],[-122.5398792,37.8898091],[-122.5400458,37.8897939]]}},{"type":"Feature","properties":{"highway":"residential","name":"Vernal Way","Block_No":43},"geometry":{"type":"LineString","coordinates":[[-122.5400458,37.8897939],[-122.540074,37.8897913],[-122.5401642,37.8897638]]}},{"type":"Feature","properties":{"highway":"footway","name":null,"Block_No":61},"geometry":{"type":"LineString","coordinates":[[-122.5368129,37.8918994],[-122.5366081,37.8923389]]}},{"type":"Feature","properties":{"highway":"residential","name":"Chapman Road","Block_No":39},"geometry":{"type":"LineString","coordinates":[[-122.5414869,37.8945028],[-122.5414629,37.8944641],[-122.5414269,37.8943609],[-122.541422,37.8942285],[-122.5414846,37.8940631],[-122.5415303,37.8939757],[-122.5416074,37.8938693],[-122.5417567,37.8937647]]}},{"type":"Feature","properties":{"highway":"residential","name":"Chapman Road","Block_No":37},"geometry":{"type":"LineString","coordinates":[[-122.5416131,37.8948714],[-122.5416164,37.8948203]]}},{"type":"Feature","properties":{"highway":"residential","name":"Brabo Terrace","Block_No":41},"geometry":{"type":"LineString","coordinates":[[-122.5403643,37.8926792],[-122.5405903,37.8927656]]}},{"type":"Feature","properties":{"highway":"residential","name":"Brabo Terrace","Block_No":40},"geometry":{"type":"LineString","coordinates":[[-122.5405903,37.8927656],[-122.5406896,37.8928036],[-122.5409042,37.8929342],[-122.5410284,37.8929397],[-122.541157,37.8929057],[-122.5412461,37.8928886],[-122.5413015,37.8929228],[-122.5414701,37.8933485]]}},{"type":"Feature","properties":{"highway":"footway","name":null,"Block_No":65},"geometry":{"type":"LineString","coordinates":[[-122.5363775,37.8941011],[-122.5359797,37.8934837]]}},{"type":"Feature","properties":{"highway":"residential","name":"Centro Way","Block_No":58},"geometry":{"type":"LineString","coordinates":[[-122.5359519,37.8904658],[-122.5359991,37.8904087],[-122.5362035,37.8900938],[-122.536253,37.8900587],[-122.5363024,37.8900366],[-122.5363552,37.8900171],[-122.5364129,37.8900079],[-122.536896,37.8900014],[-122.5369719,37.8899884],[-122.5370473,37.8899653]]}},{"type":"Feature","properties":{"highway":"residential","name":"Ridgewood Avenue","Block_No":26},"geometry":{"type":"LineString","coordinates":[[-122.5469787,37.8941745],[-122.5470996,37.8941698],[-122.5473249,37.8941669],[-122.5475699,37.8941596],[-122.5478258,37.8941742],[-122.547837,37.8941759]]}},{"type":"Feature","properties":{"highway":"residential","name":"Ridgewood Avenue","Block_No":19},"geometry":{"type":"LineString","coordinates":[[-122.546765,37.8951565],[-122.5469189,37.8952017]]}},{"type":"Feature","properties":{"highway":"residential","name":"Ridgewood Avenue","Block_No":18},"geometry":{"type":"MultiLineString","coordinates":[[[-122.5474234,37.8945002],[-122.5472663,37.8945245],[-122.5470397,37.8945501],[-122.5465234,37.8945951],[-122.546414,37.8946316],[-122.5463508,37.8946887],[-122.5463107,37.8947581],[-122.5462552,37.8948797],[-122.5462444,37.8949551],[-122.546266,37.8949892],[-122.5462783,37.8950086],[-122.5463631,37.8950463],[-122.5467006,37.8951376],[-122.546753,37.895153]],[[-122.5476679,37.895425],[-122.5476748,37.8954246],[-122.5477842,37.8954283],[-122.5478705,37.8954453],[-122.5479537,37.8954952],[-122.5480678,37.8956131],[-122.5481372,37.8956727],[-122.5481957,37.8956934],[-122.5482605,37.8957056],[-122.548393,37.8956958],[-122.5485888,37.8956727],[-122.5487121,37.8956557],[-122.5487907,37.8956618],[-122.548877,37.8956861],[-122.549065,37.8957603],[-122.5492592,37.8958455],[-122.5494519,37.8959269],[-122.5495955,37.896008],[-122.5497663,37.8961045],[-122.5499282,37.8962176]]]}},{"type":"Feature","properties":{"highway":"residential","name":"South Vernal Avenue","Block_No":55},"geometry":{"type":"LineString","coordinates":[[-122.5382744,37.8902266],[-122.5378902,37.8904465],[-122.5378276,37.890479],[-122.5377715,37.8905037],[-122.537352,37.89066],[-122.5368208,37.890579]]}},{"type":"Feature","properties":{"highway":"residential","name":"Homestead Boulevard","Block_No":54},"geometry":{"type":"MultiLineString","coordinates":[[[-122.5377642,37.8921841],[-122.5378184,37.8922038],[-122.5379,37.8921868],[-122.537928,37.8921758]],[[-122.5380416,37.8920233],[-122.5381337,37.8918401],[-122.5383254,37.8919227]]]}},{"type":"Feature","properties":{"highway":"residential","name":"Homestead Boulevard","Block_No":45},"geometry":{"type":"LineString","coordinates":[[-122.5388257,37.8920933],[-122.5389424,37.892058],[-122.5392213,37.8917828],[-122.5392589,37.8917045],[-122.5391623,37.8915521],[-122.5391484,37.8914502],[-122.5391684,37.8914015],[-122.5391977,37.8913574]]}},{"type":"Feature","properties":{"highway":"residential","name":"Homestead Boulevard","Block_No":53},"geometry":{"type":"MultiLineString","coordinates":[[[-122.537928,37.8921758],[-122.537974,37.8921576],[-122.5380416,37.8920233]],[[-122.5383254,37.8919227],[-122.5385021,37.8919989],[-122.5386943,37.8920702],[-122.5388163,37.8920961],[-122.5388257,37.8920933]]]}},{"type":"Feature","properties":{"highway":"residential","name":"Rhonda Way","Block_No":41},"geometry":{"type":"LineString","coordinates":[[-122.5397871,37.8919303],[-122.5398389,37.8918299],[-122.5399029,37.8917355],[-122.5399268,37.8917201],[-122.5399541,37.8917158],[-122.5399836,37.8917227],[-122.5400032,37.8917274],[-122.540029,37.8917345],[-122.5400841,37.8917486],[-122.5401167,37.8917581],[-122.540162,37.8917822],[-122.5401808,37.8918181],[-122.5402102,37.8919405],[-122.5401986,37.8920375],[-122.5401765,37.8921096],[-122.5402564,37.8921975],[-122.5403347,37.8922515],[-122.5405928,37.8923868],[-122.5407356,37.8923848]]}},{"type":"Feature","properties":{"highway":"residential","name":"Rhonda Way","Block_No":40},"geometry":{"type":"LineString","coordinates":[[-122.5407356,37.8923848],[-122.5408608,37.8923831]]}},{"type":"Feature","properties":{"highway":null,"name":null,"Block_No":59},"geometry":{"type":"LineString","coordinates":[[-122.5350917,37.8906796],[-122.5350798,37.8905179],[-122.535071,37.8903986]]}},{"type":"Feature","properties":{"highway":"residential","name":"Evergreen Avenue","Block_No":51},"geometry":{"type":"LineString","coordinates":[[-122.5375618,37.8956351],[-122.5378616,37.8954097],[-122.5379563,37.8953495],[-122.5381418,37.8952587],[-122.5382337,37.8952231],[-122.5383397,37.895195],[-122.5384672,37.8951767],[-122.5386144,37.8951783],[-122.538761,37.895204],[-122.5391501,37.8952832]]}},{"type":"Feature","properties":{"highway":"residential","name":"Evergreen Avenue","Block_No":50},"geometry":{"type":"LineString","coordinates":[[-122.5368009,37.8961603],[-122.5369992,37.8960216],[-122.5374032,37.8957445],[-122.53746,37.8956993],[-122.5375223,37.8956648],[-122.5375618,37.8956351]]}},{"type":"Feature","properties":{"highway":"residential","name":"Evergreen Avenue","Block_No":49},"geometry":{"type":"LineString","coordinates":[[-122.5391501,37.8952832],[-122.5392141,37.8952962],[-122.53942,37.8953404],[-122.5395598,37.8953723]]}},{"type":"Feature","properties":{"highway":"residential","name":"Evergreen Avenue","Block_No":36},"geometry":{"type":"LineString","coordinates":[[-122.5395598,37.8953723],[-122.5399034,37.8954508],[-122.5401838,37.8955094],[-122.5402019,37.8955134]]}},{"type":"Feature","properties":{"highway":"residential","name":"Rydal Avenue","Block_No":30},"geometry":{"type":"LineString","coordinates":[[-122.5452754,37.8930161],[-122.5449797,37.892389]]}},{"type":"Feature","properties":{"highway":"residential","name":"Vernal Avenue","Block_No":57},"geometry":{"type":"LineString","coordinates":[[-122.5384296,37.8898885],[-122.5384327,37.8896228],[-122.5384459,37.889572],[-122.5384723,37.8895291],[-122.5385036,37.8894901],[-122.5387905,37.8892233],[-122.5388548,37.8891921],[-122.5389175,37.8891726],[-122.5389818,37.8891674],[-122.5390395,37.8891739],[-122.5390566,37.8891798],[-122.5391229,37.8892025],[-122.5391664,37.8892194],[-122.5392159,37.889248],[-122.5392621,37.8892806],[-122.5393066,37.8893248],[-122.5393362,37.8893599],[-122.5394599,37.8895985]]}},{"type":"Feature","properties":{"highway":"residential","name":"Vernal Avenue","Block_No":56},"geometry":{"type":"LineString","coordinates":[[-122.5394599,37.8895985],[-122.5396169,37.8899013]]}},{"type":"Feature","properties":{"highway":"residential","name":"Vernal Avenue","Block_No":55},"geometry":{"type":"LineString","coordinates":[[-122.5382744,37.8902266],[-122.5383717,37.8900925],[-122.538403,37.8900301],[-122.5384212,37.8899611],[-122.5384294,37.8899012],[-122.5384296,37.8898885]]}},{"type":"Feature","properties":{"highway":"residential","name":"West California Avenue","Block_No":43},"geometry":{"type":"LineString","coordinates":[[-122.5411286,37.8895471],[-122.541316,37.8898203]]}},{"type":"Feature","properties":{"highway":"residential","name":"West California Avenue","Block_No":43},"geometry":{"type":"LineString","coordinates":[[-122.5414928,37.8897639],[-122.541316,37.8898203]]}},{"type":"Feature","properties":{"highway":"residential","name":"Ferndale Avenue","Block_No":30},"geometry":{"type":"LineString","coordinates":[[-122.5468176,37.8921558],[-122.5468398,37.8921098]]}},{"type":"Feature","properties":{"highway":"residential","name":"Ferndale Avenue","Block_No":31},"geometry":{"type":"MultiLineString","coordinates":[[[-122.5459993,37.8932502],[-122.5459929,37.8932291],[-122.5459958,37.8931712],[-122.5460472,37.8931066],[-122.5461164,37.8930424],[-122.5461829,37.8929766],[-122.5462117,37.8929468]],[[-122.5462981,37.8926742],[-122.5463007,37.8926484],[-122.5463227,37.8925939],[-122.546324,37.8925924]]]}},{"type":"Feature","properties":{"highway":"residential","name":"Ferndale Avenue","Block_No":29},"geometry":{"type":"MultiLineString","coordinates":[[[-122.5469835,37.8918833],[-122.5470058,37.8918489],[-122.5471534,37.8916908],[-122.5472204,37.8916477]],[[-122.5475556,37.8913916],[-122.5475527,37.89138],[-122.5475115,37.8913684],[-122.5471834,37.8913766],[-122.546864,37.8914342],[-122.5467945,37.891439]]]}},{"type":"Feature","properties":{"highway":"residential","name":"Ferndale Avenue","Block_No":26},"geometry":{"type":"LineString","coordinates":[[-122.5460412,37.8934257],[-122.5460416,37.8933532],[-122.5460111,37.893289],[-122.5459993,37.8932502]]}},{"type":"Feature","properties":{"highway":"residential","name":"Western Avenue","Block_No":42},"geometry":{"type":"LineString","coordinates":[[-122.5414911,37.889958],[-122.5414988,37.8899648],[-122.5415813,37.8900721],[-122.5416399,37.8901333],[-122.541682,37.8901668],[-122.5417276,37.8901901],[-122.5417824,37.8902021],[-122.5418453,37.8902008],[-122.5419077,37.8901836],[-122.5419657,37.8901508],[-122.5421784,37.8899915],[-122.542263,37.8899612],[-122.5424429,37.8899282],[-122.5429295,37.8898074],[-122.5430299,37.8897948],[-122.5430719,37.8897931],[-122.5433377,37.8897822],[-122.5433546,37.8897803]]}},{"type":"Feature","properties":{"highway":"residential","name":"Western Avenue","Block_No":43},"geometry":{"type":"LineString","coordinates":[[-122.5413862,37.8898847],[-122.541449,37.8899207],[-122.5414911,37.889958]]}},{"type":"Feature","properties":{"highway":"footway","name":null,"Block_No":59},"geometry":{"type":"LineString","coordinates":[[-122.5350483,37.8907007],[-122.5351242,37.8907008]]}},{"type":"Feature","properties":{"highway":"footway","name":null,"Block_No":61},"geometry":{"type":"LineString","coordinates":[[-122.5352644,37.8907011],[-122.5353072,37.8907012],[-122.5353235,37.8907006]]}},{"type":"Feature","properties":{"highway":"footway","name":"Homestead Trail East","Block_No":43},"geometry":{"type":"LineString","coordinates":[[-122.5407424,37.8906999],[-122.5408039,37.8906334],[-122.5408165,37.8906288]]}},{"type":"Feature","properties":{"highway":"footway","name":"Homestead Trail East","Block_No":41},"geometry":{"type":"LineString","coordinates":[[-122.5397196,37.8910844],[-122.5397404,37.8910885],[-122.5398168,37.891116],[-122.5399281,37.8911552],[-122.5400515,37.8911795],[-122.5401816,37.8911753],[-122.5402886,37.8911568],[-122.5403573,37.8911382],[-122.5403842,37.8911212]]}},{"type":"Feature","properties":{"highway":"footway","name":"Homestead Trail East","Block_No":45},"geometry":{"type":"LineString","coordinates":[[-122.5391484,37.8914502],[-122.5392039,37.8914409],[-122.5392039,37.8914399],[-122.5392804,37.8913309],[-122.5392883,37.8913218]]}},{"type":"Feature","properties":{"highway":"footway","name":"Homestead Trail East","Block_No":29},"geometry":{"type":"LineString","coordinates":[[-122.5465156,37.8905478],[-122.5466579,37.8905358],[-122.5467723,37.8905076]]}}]}