{
  "type": "FeatureCollection",
  "features": [
    {
      "type": "Feature",
      "properties": {
        "name": "HOMESTEAD VALLEY SERVICE AREA",
        "number": "CSA 14",
        "acres": 469.239,
        "sbeId": "132CSA"
      },
      "geometry": {
        "type": "Polygon",
        "coordinates": [
          [
            [
              -122.55617180456898,
              37.90245218947494
            ],
            [
              -122.55593593353551,
              37.90225861485618
            ],
            [
              -122.55593091961454,
              37.902254499747706
            ],
            [
              -122.55593065140039,
              37.902254261087215
            ],
            [
              -122.55592116152326,
              37.90225333132065
            ],
            [
              -122.55565247447547,
              37.90222697795439
            ],
            [
              -122.55564934614789,
              37.902226671021104
            ],
            [
              -122.55564190226133,
              37.902225940835336
            ],
            [
              -122.55564159431941,
              37.90222591014696
            ],
            [
              -122.55564121791822,
              37.90222587163807
            ],
            [
              -122.55561760201186,
              37.90220525630798
            ],
            [
              -122.55561584775886,
              37.902203723223785
            ],
            [
              -122.55559316973734,
              37.902183911675316
            ],
            [
              -122.55541171113425,
              37.90202887952827
            ],
            [
              -122.55539699617822,
              37.90201629683475
            ],
            [
              -122.55536908214448,
              37.901992435262486
            ],
            [
              -122.55530622526359,
              37.90193860157904
            ],
            [
              -122.55526130856428,
              37.90190024955073
            ],
            [
              -122.55525928167958,
              37.90189852293744
            ],
            [
              -122.55520901114926,
              37.901855565095666
            ],
            [
              -122.55506832690631,
              37.90173772550867
            ],
            [
              -122.55506200417693,
              37.90173242820679
            ],
            [
              -122.55498466518813,
              37.901667620757465
            ],
            [
              -122.55487953383415,
              37.901577539043814
            ],
            [
              -122.55487211733856,
              37.90157118740897
            ],
            [
              -122.55477109807067,
              37.90148460288738
            ],
            [
              -122.55473176436738,
              37.90145139052113
            ],
            [
              -122.55473072435373,
              37.90145051190103
            ],
            [
              -122.55469376665043,
              37.90143749242865
            ],
            [
              -122.55466302957234,
              37.90142666192542
            ],
            [
              -122.55453327634096,
              37.90138095283036
            ],
            [
              -122.5545313042396,
              37.901380258052775
            ],
            [
              -122.55452621524095,
              37.90137843600144
            ],
            [
              -122.55452608288502,
              37.90137837972473
            ],
            [
              -122.55452591592544,
              37.90137830602564
            ],
            [
              -122.55452578937837,
              37.901378254154004
            ],
            [
              -122.55414210084032,
              37.90124237641982
            ],
            [
              -122.55412771654227,
              37.901237281485464
            ],
            [
              -122.55412756307277,
              37.90123728415507
            ],
            [
              -122.5540160427167,
              37.90119680165896
            ],
            [
              -122.55400336562015,
              37.90119219972354
            ],
            [
              -122.55400277960828,
              37.90119198461101
            ],
            [
              -122.55399016403699,
              37.90118742756638
            ],
            [
              -122.55397426291722,
              37.901181648833806
            ],
            [
              -122.55389973519036,
              37.90115458906367
            ],
            [
              -122.55388684320421,
              37.90114990703988
            ],
            [
              -122.55341469081212,
              37.90097881645462
            ],
            [
              -122.553401907169,
              37.90097418386446
            ],
            [
              -122.5534017344027,
              37.90097410575867
            ],
            [
              -122.55339941741995,
              37.9009746327086
            ],
            [
              -122.55324196779023,
              37.901009009695464
            ],
            [
              -122.55324182087834,
              37.90100904379271
            ],
            [
              -122.55324078075282,
              37.901009269159076
            ],
            [
              -122.55319028943163,
              37.90102029122812
            ],
            [
              -122.55307854962997,
              37.90104467624834
            ],
            [
              -122.55306908487766,
              37.901046741481714
            ],
            [
              -122.5528347289916,
              37.901097952411924
            ],
            [
              -122.55274832249656,
              37.90111683455055
            ],
            [
              -122.55273805967735,
              37.901119077652616
            ],
            [
              -122.55273727232367,
              37.901119231028815
            ],
            [
              -122.55273661152982,
              37.901119395723356
            ],
            [
              -122.55270735419673,
              37.90112666798052
            ],
            [
              -122.55240009264068,
              37.90120287992189
            ],
            [
              -122.55239654147854,
              37.901202991209665
            ],
            [
              -122.55239641642936,
              37.901202993383066
            ],
            [
              -122.5523302015496,
              37.90120504091973
            ],
            [
              -122.55231356361162,
              37.901205550882196
            ],
            [
              -122.55231127381053,
              37.90120562222092
            ],
            [
              -122.55228969273988,
              37.90120629018761
            ],
            [
              -122.55214051351737,
              37.90121089337517
            ],
            [
              -122.55210918560634,
              37.901211860466915
            ],
            [
              -122.55210891227308,
              37.90121184719244
            ],
            [
              -122.55210880507383,
              37.901211877894475
            ],
            [
              -122.55195110751386,
              37.90120195067019
            ],
            [
              -122.55171828307041,
              37.901187299386784
            ],
            [
              -122.55167653982402,
              37.90118467030481
            ],
            [
              -122.55116153200105,
              37.90115868751353
            ],
            [
              -122.5511611572927,
              37.901158668787986
            ],
            [
              -122.5511563167527,
              37.90115842392168
            ],
            [
              -122.55115594666627,
              37.901158407819494
            ],
            [
              -122.55115559331038,
              37.901158174232215
            ],
            [
              -122.5509613291398,
              37.901032802569176
            ],
            [
              -122.5508035066574,
              37.900931000932765
            ],
            [
              -122.55074771070717,
              37.90089499099097
            ],
            [
              -122.55058166009205,
              37.90078784351803
            ],
            [
              -122.55038880054614,
              37.90066342887723
            ],
            [
              -122.55038536909055,
              37.900663755220904
            ],
            [
              -122.55036792353083,
              37.900665491077596
            ],
            [
              -122.55036225271806,
              37.90066606718913
            ],
            [
              -122.55035970632456,
              37.90066631868382
            ],
            [
              -122.550340236029,
              37.90066825101108
            ],
            [
              -122.5503197505853,
              37.900670283873474
            ],
            [
              -122.55031939284108,
              37.900670302702096
            ],
            [
              -122.54994137221658,
              37.90068248024367
            ],
            [
              -122.5499267236858,
              37.90068295173127
            ],
            [
              -122.54992662023666,
              37.90068295352711
            ],
            [
              -122.54992649481471,
              37.90068294218608
            ],
            [
              -122.54992639225335,
              37.900682934954276
            ],
            [
              -122.54992601446828,
              37.90068284598294
            ],
            [
              -122.54953221432146,
              37.9005599921307
            ],
            [
              -122.54944198043745,
              37.90053184133764
            ],
            [
              -122.54944079768019,
              37.900531432883476
            ],
            [
              -122.54943765740505,
              37.90053036085743
            ],
            [
              -122.54940495983936,
              37.900519169194865
            ],
            [
              -122.54939164634557,
              37.900514612062
            ],
            [
              -122.54913591653971,
              37.90043494890151
            ],
            [
              -122.54900035400591,
              37.9003927196039
            ],
            [
              -122.54897238935153,
              37.90038400787171
            ],
            [
              -122.54897204507567,
              37.900383896686634
            ],
            [
              -122.54866232747727,
              37.90028619766126
            ],
            [
              -122.54856158278672,
              37.90025441819209
            ],
            [
              -122.54854810839682,
              37.90025016746844
            ],
            [
              -122.54849498677929,
              37.90023309161741
            ],
            [
              -122.54848576054808,
              37.90023012352988
            ],
            [
              -122.54840264632745,
              37.900203380522605
            ],
            [
              -122.54838920629274,
              37.90019905528501
            ],
            [
              -122.54814994435951,
              37.900122081993196
            ],
            [
              -122.54812665967124,
              37.900114591156175
            ],
            [
              -122.54802623576924,
              37.90008226133557
            ],
            [
              -122.54801280605939,
              37.90007793767913
            ],
            [
              -122.5478226020478,
              37.90001752989274
            ],
            [
              -122.5477845414014,
              37.90000543674723
            ],
            [
              -122.54763163894052,
              37.89995684567548
            ],
            [
              -122.54761939152436,
              37.89995295388678
            ],
            [
              -122.54750091010862,
              37.8999379049408
            ],
            [
              -122.54749056841226,
              37.89993659093341
            ],
            [
              -122.5474903572101,
              37.899936562151495
            ],
            [
              -122.54722377956341,
              37.899936538274844
            ],
            [
              -122.5472233928052,
              37.89993653596781
            ],
            [
              -122.54693775850647,
              37.89992108307238
            ],
            [
              -122.54690175700551,
              37.89991913775095
            ],
            [
              -122.54687291545925,
              37.89991757840017
            ],
            [
              -122.54687259072738,
              37.89991755699239
            ],
            [
              -122.54665830808196,
              37.89990596120363
            ],
            [
              -122.54664603608721,
              37.89990529701391
            ],
            [
              -122.54664564277493,
              37.89990526327585
            ],
            [
              -122.5463651572205,
              37.89988864730852
            ],
            [
              -122.54635109381151,
              37.89988781406165
            ],
            [
              -122.54635082579516,
              37.899887787163514
            ],
            [
              -122.54635068900718,
              37.89988777601564
            ],
            [
              -122.54632944753982,
              37.89988672469391
            ],
            [
              -122.54632887447819,
              37.899888419908066
            ],
            [
              -122.5463003878356,
              37.8999729073619
            ],
            [
              -122.54630025099117,
              37.89997330627055
            ],
            [
              -122.54614145673082,
              37.89995198539813
            ],
            [
              -122.54613920211787,
              37.89995168200134
            ],
            [
              -122.5461213012142,
              37.89994927860429
            ],
            [
              -122.54610736242783,
              37.899947397752435
            ],
            [
              -122.5460869097565,
              37.899944638423534
            ],
            [
              -122.54607943812434,
              37.89994363234745
            ],
            [
              -122.54607902713876,
              37.89994357638318
            ],
            [
              -122.54607850259815,
              37.899943526892635
            ],
            [
              -122.54607505961249,
              37.89994306384151
            ],
            [
              -122.54586046509728,
              37.899914309157566
            ],
            [
              -122.54587835535793,
              37.89986645348592
            ],
            [
              -122.54587840290948,
              37.89986632198505
            ],
            [
              -122.54587909109406,
              37.89986447066986
            ],
            [
              -122.54587916026301,
              37.899864298239486
            ],
            [
              -122.54587922374797,
              37.899864125907584
            ],
            [
              -122.5458783728024,
              37.89986440651085
            ],
            [
              -122.54585204483287,
              37.899872740225156
            ],
            [
              -122.54582376403921,
              37.89988169175743
            ],
            [
              -122.54580061106793,
              37.899889020566214
            ],
            [
              -122.54573583233027,
              37.89990952538704
            ],
            [
              -122.54572365093036,
              37.89991338095768
            ],
            [
              -122.54565942777317,
              37.89993357780661
            ],
            [
              -122.54561980331246,
              37.89994603959109
            ],
            [
              -122.5454994689101,
              37.89998385662196
            ],
            [
              -122.54549109675419,
              37.89998648721337
            ],
            [
              -122.54513946995971,
              37.90009490043507
            ],
            [
              -122.5451344289332,
              37.900096454928764
            ],
            [
              -122.54513429351157,
              37.90009649332298
            ],
            [
              -122.54513415734453,
              37.90009650469347
            ],
            [
              -122.54510479945276,
              37.90009354434373
            ],
            [
              -122.54510237707224,
              37.90009330241207
            ],
            [
              -122.54509067326052,
              37.900092126240196
            ],
            [
              -122.54496390396923,
              37.90007932894904
            ],
            [
              -122.5449624053504,
              37.90007917826233
            ],
            [
              -122.54495032619587,
              37.90007795991078
            ],
            [
              -122.54495009796723,
              37.900077932320436
            ],
            [
              -122.54494972649633,
              37.9000778657545
            ],
            [
              -122.54489586442553,
              37.90006937083149
            ],
            [
              -122.54478710382618,
              37.900052160937605
            ],
            [
              -122.54467457708101,
              37.90003435646257
            ],
            [
              -122.54466108738853,
              37.90003222163099
            ],
            [
              -122.54466073336745,
              37.90003216918156
            ],
            [
              -122.54464822314975,
              37.90002950639665
            ],
            [
              -122.54459904284604,
              37.90001904672318
            ],
            [
              -122.54443137959984,
              37.89998339540621
            ],
            [
              -122.54441808580157,
              37.89998056862299
            ],
            [
              -122.544417725476,
              37.899980493751485
            ],
            [
              -122.54436818852257,
              37.89997087378671
            ],
            [
              -122.54435788590284,
              37.89996887119798
            ],
            [
              -122.54434471783733,
              37.89996631439849
            ],
            [
              -122.54427758145867,
              37.89995321846345
            ],
            [
              -122.54426423582971,
              37.89995061516189
            ],
            [
              -122.54426387449188,
              37.89995054481357
            ],
            [
              -122.54411322681858,
              37.899923293455196
            ],
            [
              -122.54409007315599,
              37.89991909352337
            ],
            [
              -122.54407009160485,
              37.899915474037925
            ],
            [
              -122.54396376848756,
              37.899896191650534
            ],
            [
              -122.54395036850956,
              37.899893761387716
            ],
            [
              -122.54395000274926,
              37.899893695621074
            ],
            [
              -122.54360838292433,
              37.8998337551849
            ],
            [
              -122.54359483430311,
              37.89983137792294
            ],
            [
              -122.54359446248708,
              37.89983129874169
            ],
            [
              -122.54351195939098,
              37.89981500852746
            ],
            [
              -122.54349815551157,
              37.89981220038236
            ],
            [
              -122.54322089366825,
              37.89974425615378
            ],
            [
              -122.5430836748137,
              37.89971063021923
            ],
            [
              -122.54307005654934,
              37.8997072925004
            ],
            [
              -122.54263280103177,
              37.89961489270122
            ],
            [
              -122.54261950786444,
              37.89961208373116
            ],
            [
              -122.54260692281251,
              37.89960942382922
            ],
            [
              -122.5426068198811,
              37.89960940307923
            ],
            [
              -122.54260635081977,
              37.89960930304652
            ],
            [
              -122.54260575547084,
              37.899609160137295
            ],
            [
              -122.54260220852036,
              37.89960838966533
            ],
            [
              -122.54250611766889,
              37.89958695981615
            ],
            [
              -122.54271455198082,
              37.89888790235158
            ],
            [
              -122.5430064556588,
              37.89877733656797
            ],
            [
              -122.54302157882074,
              37.89877160811082
            ],
            [
              -122.54333277605227,
              37.89882673507154
            ],
            [
              -122.54334074322071,
              37.89882814730564
            ],
            [
              -122.54342541116635,
              37.898504658877805
            ],
            [
              -122.54339156304394,
              37.89849869724669
            ],
            [
              -122.54334338698592,
              37.89849021589318
            ],
            [
              -122.54332957206283,
              37.89848778192966
            ],
            [
              -122.54336523535368,
              37.89835867144854
            ],
            [
              -122.54320829625304,
              37.89846642077331
            ],
            [
              -122.54244089206354,
              37.89833125047025
            ],
            [
              -122.54244260050157,
              37.89832766560474
            ],
            [
              -122.54262446720656,
              37.89794539336079
            ],
            [
              -122.54265666218528,
              37.89753425919607
            ],
            [
              -122.54251015548242,
              37.89716087176942
            ],
            [
              -122.54238383824661,
              37.89702142623116
            ],
            [
              -122.54224368659028,
              37.896866710725405
            ],
            [
              -122.54224099461646,
              37.8968637372932
            ],
            [
              -122.542239739359,
              37.896863376885705
            ],
            [
              -122.54201775395771,
              37.896799602807725
            ],
            [
              -122.54189304056769,
              37.896763770313974
            ],
            [
              -122.54184076903302,
              37.896748753239486
            ],
            [
              -122.54023955263364,
              37.896977063011896
            ],
            [
              -122.53865310633783,
              37.896316215314556
            ],
            [
              -122.53863438911924,
              37.89632978730545
            ],
            [
              -122.53836900518097,
              37.89652224709886
            ],
            [
              -122.53815464714076,
              37.89667770192706
            ],
            [
              -122.53786113794467,
              37.8968905638425
            ],
            [
              -122.53771371852906,
              37.896997470113035
            ],
            [
              -122.53770926878418,
              37.896993224651844
            ],
            [
              -122.53766498147377,
              37.896950966475174
            ],
            [
              -122.53765648840223,
              37.8969428623687
            ],
            [
              -122.53765628867109,
              37.89694267115187
            ],
            [
              -122.53765455616362,
              37.89694108335929
            ],
            [
              -122.5376398378983,
              37.89692761086486
            ],
            [
              -122.5372569367233,
              37.896577010256244
            ],
            [
              -122.53724806683353,
              37.89656888919089
            ],
            [
              -122.5371657012573,
              37.89649064780329
            ],
            [
              -122.5371643699803,
              37.89648938202674
            ],
            [
              -122.53716226222832,
              37.896487381633804
            ],
            [
              -122.53711686939735,
              37.8964442699498
            ],
            [
              -122.53710811594837,
              37.896435956708
            ],
            [
              -122.53710707690183,
              37.896434978785706
            ],
            [
              -122.5368837602392,
              37.89622900292914
            ],
            [
              -122.53686127865315,
              37.896208265243935
            ],
            [
              -122.53685243514273,
              37.89620010764591
            ],
            [
              -122.53684208838318,
              37.896192951999005
            ],
            [
              -122.53672395146039,
              37.89611117904049
            ],
            [
              -122.53671365783208,
              37.89610405220644
            ],
            [
              -122.53635505963366,
              37.895789309965856
            ],
            [
              -122.5363462868188,
              37.8957816107339
            ],
            [
              -122.53634614608174,
              37.89578145544752
            ],
            [
              -122.53634419118733,
              37.89578274185653
            ],
            [
              -122.5363166956416,
              37.89580080604016
            ],
            [
              -122.53631245173155,
              37.895803594603365
            ],
            [
              -122.53631225070674,
              37.895803728746976
            ],
            [
              -122.53631201149211,
              37.89580350756737
            ],
            [
              -122.53631070421363,
              37.8958022864286
            ],
            [
              -122.53623069962038,
              37.89572770500126
            ],
            [
              -122.53622193197705,
              37.89571953072831
            ],
            [
              -122.53620633254272,
              37.89570559200441
            ],
            [
              -122.53618810875741,
              37.895689309400254
            ],
            [
              -122.53617838548932,
              37.895680626192195
            ],
            [
              -122.5361101391636,
              37.89561966302836
            ],
            [
              -122.53610922281396,
              37.895618845201334
            ],
            [
              -122.5361036301677,
              37.895613849747605
            ],
            [
              -122.53603933742589,
              37.895556418742586
            ],
            [
              -122.53600678630248,
              37.89552708475991
            ],
            [
              -122.5360067385094,
              37.895527042325476
            ],
            [
              -122.53600632455786,
              37.89552667004965
            ],
            [
              -122.53598415896535,
              37.89550669639532
            ],
            [
              -122.53597950025203,
              37.89550249593011
            ],
            [
              -122.5359553732314,
              37.89548075365119
            ],
            [
              -122.535953407143,
              37.89547898150696
            ],
            [
              -122.535946391846,
              37.89547266235115
            ],
            [
              -122.53592378886552,
              37.89545257997004
            ],
            [
              -122.53592365947348,
              37.8954524650425
            ],
            [
              -122.53592032557843,
              37.89544950343989
            ],
            [
              -122.53586597595971,
              37.8954012168106
            ],
            [
              -122.53585695579852,
              37.89539320367737
            ],
            [
              -122.53567585484377,
              37.89524512477587
            ],
            [
              -122.53567552086609,
              37.89524497282026
            ],
            [
              -122.53567538828813,
              37.89524490751442
            ],
            [
              -122.53567529611372,
              37.895244864042525
            ],
            [
              -122.5356745757693,
              37.89524451597347
            ],
            [
              -122.53567349821809,
              37.89524399832484
            ],
            [
              -122.53554592550752,
              37.895182713904575
            ],
            [
              -122.53553382354528,
              37.8951769005801
            ],
            [
              -122.53547909382586,
              37.89514926096568
            ],
            [
              -122.53547124008732,
              37.89514529039497
            ],
            [
              -122.5353706017689,
              37.89509445885541
            ],
            [
              -122.53534949966144,
              37.895083801587134
            ],
            [
              -122.53534778940005,
              37.895082937958875
            ],
            [
              -122.5353387249335,
              37.89507836190166
            ],
            [
              -122.53533858704337,
              37.895078310205335
            ],
            [
              -122.53533582518803,
              37.89507878589164
            ],
            [
              -122.53525626888568,
              37.89509244172614
            ],
            [
              -122.53523927194627,
              37.89509536175011
            ],
            [
              -122.53518939144773,
              37.89510392783301
            ],
            [
              -122.5350876381662,
              37.89512139978587
            ],
            [
              -122.53504916175223,
              37.895128006471246
            ],
            [
              -122.5348252500731,
              37.89516646496721
            ],
            [
              -122.53482522857652,
              37.895166717679146
            ],
            [
              -122.53481668111283,
              37.89528296999567
            ],
            [
              -122.53481660155155,
              37.89528400776924
            ],
            [
              -122.53481658919745,
              37.89528417921385
            ],
            [
              -122.5348153554249,
              37.89528352185692
            ],
            [
              -122.53481294199763,
              37.89528218998851
            ],
            [
              -122.5348012221588,
              37.89527575357054
            ],
            [
              -122.53472857781628,
              37.89523586293315
            ],
            [
              -122.53458648883105,
              37.895157835141184
            ],
            [
              -122.53458649179584,
              37.89515773595594
            ],
            [
              -122.53458650044422,
              37.89515763667278
            ],
            [
              -122.53458662042767,
              37.89515517067112
            ],
            [
              -122.53459357189574,
              37.89501244731582
            ],
            [
              -122.53459358610286,
              37.89501213615023
            ],
            [
              -122.5345936557802,
              37.89501073805933
            ],
            [
              -122.53459564333846,
              37.894983079629334
            ],
            [
              -122.53459583335206,
              37.894980430374545
            ],
            [
              -122.53460415309472,
              37.89486469569092
            ],
            [
              -122.53460951281612,
              37.894790127449596
            ],
            [
              -122.53460977945124,
              37.89478637468277
            ],
            [
              -122.53460979598161,
              37.894786148191805
            ],
            [
              -122.53460982143218,
              37.8947858323264
            ],
            [
              -122.53460762249728,
              37.89478506362512
            ],
            [
              -122.5346032178073,
              37.894783526340035
            ],
            [
              -122.53459670722086,
              37.894781253897754
            ],
            [
              -122.53458508688293,
              37.89477719676699
            ],
            [
              -122.53439687229998,
              37.89471149284154
            ],
            [
              -122.53439231371709,
              37.89470990052213
            ],
            [
              -122.5343878539052,
              37.89470834345078
            ],
            [
              -122.53438022144144,
              37.89470567756737
            ],
            [
              -122.53437924153992,
              37.894704780613736
            ],
            [
              -122.53437244640511,
              37.894698561213964
            ],
            [
              -122.53427869142335,
              37.89461271764932
            ],
            [
              -122.53427858059352,
              37.89461261591851
            ],
            [
              -122.53428070307737,
              37.8946077794559
            ],
            [
              -122.5343028193765,
              37.89455737893415
            ],
            [
              -122.53438034746786,
              37.89438069289991
            ],
            [
              -122.53439722759065,
              37.89434222459798
            ],
            [
              -122.53440736322986,
              37.894318491182204
            ],
            [
              -122.53440747022799,
              37.89431824600935
            ],
            [
              -122.53440691348574,
              37.894317850052964
            ],
            [
              -122.53428312855424,
              37.894229716594296
            ],
            [
              -122.53421397537228,
              37.894156566376616
            ],
            [
              -122.53415435548642,
              37.8940746145958
            ],
            [
              -122.53415371717541,
              37.89407000143422
            ],
            [
              -122.53415347278255,
              37.894065238192525
            ],
            [
              -122.53415347031144,
              37.89406514811312
            ],
            [
              -122.53415345820297,
              37.89406491400462
            ],
            [
              -122.53415354691492,
              37.89406234400031
            ],
            [
              -122.53415363550332,
              37.894059769492024
            ],
            [
              -122.53415426723893,
              37.89405460813845
            ],
            [
              -122.53415480504857,
              37.894052034002115
            ],
            [
              -122.53415533744639,
              37.89404946987252
            ],
            [
              -122.53415683592006,
              37.89404439722738
            ],
            [
              -122.53415875781646,
              37.89403942092792
            ],
            [
              -122.53415991972672,
              37.894037003666725
            ],
            [
              -122.5341610827489,
              37.89403458548512
            ],
            [
              -122.53416385976873,
              37.89402989636245
            ],
            [
              -122.53416612588926,
              37.89402731137701
            ],
            [
              -122.5341683920096,
              37.89402472639152
            ],
            [
              -122.53417352991626,
              37.89401966314473
            ],
            [
              -122.53417924059828,
              37.894014751348415
            ],
            [
              -122.53418425188498,
              37.894010627550955
            ],
            [
              -122.53418822701556,
              37.89400753547615
            ],
            [
              -122.53418842742154,
              37.894007378816234
            ],
            [
              -122.53418583375523,
              37.894005278596644
            ],
            [
              -122.5341834495148,
              37.894003350506885
            ],
            [
              -122.53417294215357,
              37.89399483836003
            ],
            [
              -122.53416321054672,
              37.89398695361504
            ],
            [
              -122.53415902275363,
              37.89399041885278
            ],
            [
              -122.53390605432638,
              37.89419982750738
            ],
            [
              -122.53386681305746,
              37.89423367914187
            ],
            [
              -122.53386430784225,
              37.89423584016027
            ],
            [
              -122.53385373885067,
              37.894228563717895
            ],
            [
              -122.53373131932159,
              37.89414428231935
            ],
            [
              -122.5337066959474,
              37.89412625395767
            ],
            [
              -122.53367328259515,
              37.89410178997127
            ],
            [
              -122.53366295951774,
              37.89409423170119
            ],
            [
              -122.53359320450218,
              37.894043852697045
            ],
            [
              -122.53345421333614,
              37.893943467749864
            ],
            [
              -122.53320583287388,
              37.893764082778176
            ],
            [
              -122.53312913696293,
              37.893708691482274
            ],
            [
              -122.53311958958709,
              37.893701796624995
            ],
            [
              -122.53297188129153,
              37.89377615267163
            ],
            [
              -122.53267675955493,
              37.89392474195736
            ],
            [
              -122.53267654654434,
              37.89392485377068
            ],
            [
              -122.53266319834647,
              37.89391521430634
            ],
            [
              -122.53266198592095,
              37.893914338464896
            ],
            [
              -122.53264687203236,
              37.89390338747934
            ],
            [
              -122.53264708516645,
              37.89390328017003
            ],
            [
              -122.53264730954415,
              37.89390316816108
            ],
            [
              -122.53294315996108,
              37.89375257831174
            ],
            [
              -122.53302128263259,
              37.89371301070044
            ],
            [
              -122.53308800808892,
              37.89367921782888
            ],
            [
              -122.53308816512767,
              37.89367913852126
            ],
            [
              -122.53314968148719,
              37.8936479821532
            ],
            [
              -122.5332266912759,
              37.89360897880199
            ],
            [
              -122.53323075280137,
              37.89360692167425
            ],
            [
              -122.53340603100561,
              37.8935181522416
            ],
            [
              -122.53340629454786,
              37.89351801702623
            ],
            [
              -122.53318328047715,
              37.89335820945555
            ],
            [
              -122.53317804181815,
              37.89335445596083
            ],
            [
              -122.53317777494436,
              37.893354262287936
            ],
            [
              -122.53324439041255,
              37.89332061991384
            ],
            [
              -122.53324794732501,
              37.89331882381602
            ],
            [
              -122.53330156109762,
              37.893291746278535
            ],
            [
              -122.53330172381881,
              37.893291666872756
            ],
            [
              -122.53321835011026,
              37.89317185068878
            ],
            [
              -122.5332113249085,
              37.89316175273177
            ],
            [
              -122.5332060139825,
              37.89315411892975
            ],
            [
              -122.53320584817672,
              37.893153878455585
            ],
            [
              -122.53320572981457,
              37.893153709262016
            ],
            [
              -122.53320549889726,
              37.89315337528098
            ],
            [
              -122.533205202992,
              37.89315295229708
            ],
            [
              -122.53320511897499,
              37.8931529988048
            ],
            [
              -122.53319393061142,
              37.893158918715315
            ],
            [
              -122.53314511056752,
              37.89318476100177
            ],
            [
              -122.53314187544306,
              37.89318647224834
            ],
            [
              -122.53313587376154,
              37.893189646948535
            ],
            [
              -122.53312068539368,
              37.89317182911105
            ],
            [
              -122.53310207774611,
              37.89315000114116
            ],
            [
              -122.53309498648555,
              37.89314168242124
            ],
            [
              -122.53307522723077,
              37.893118499916575
            ],
            [
              -122.53307511566388,
              37.893118371160774
            ],
            [
              -122.53307500409694,
              37.893118242404945
            ],
            [
              -122.53305921653455,
              37.89309972291358
            ],
            [
              -122.53305865264635,
              37.89309906572036
            ],
            [
              -122.53305809444163,
              37.89309840842928
            ],
            [
              -122.53299176211726,
              37.893020590195775
            ],
            [
              -122.53292485888039,
              37.89294210223609
            ],
            [
              -122.53290773195495,
              37.892922014231516
            ],
            [
              -122.53280728118611,
              37.89280417346085
            ],
            [
              -122.53273707668691,
              37.89272181652113
            ],
            [
              -122.53273595915215,
              37.892720501955374
            ],
            [
              -122.53273607591139,
              37.892720405317235
            ],
            [
              -122.53279417219963,
              37.89267034002642
            ],
            [
              -122.53280123260437,
              37.892664261410054
            ],
            [
              -122.53292716507774,
              37.892555829525804
            ],
            [
              -122.53293934814197,
              37.89254533594549
            ],
            [
              -122.53294119799544,
              37.89254374498535
            ],
            [
              -122.53313726935023,
              37.892542869827224
            ],
            [
              -122.53313828394242,
              37.89254441146684
            ],
            [
              -122.53314217542074,
              37.892550297915896
            ],
            [
              -122.5332573880288,
              37.89272472774306
            ],
            [
              -122.53335299922897,
              37.892869478093274
            ],
            [
              -122.53335910878536,
              37.89286405928886
            ],
            [
              -122.53336040551105,
              37.89286290863074
            ],
            [
              -122.53336051090277,
              37.892862812187715
            ],
            [
              -122.53340464343884,
              37.89282363136945
            ],
            [
              -122.53347181136122,
              37.89276399987712
            ],
            [
              -122.5334725630149,
              37.8927521376946
            ],
            [
              -122.53347637347538,
              37.89269203461161
            ],
            [
              -122.53347687678713,
              37.892680115422884
            ],
            [
              -122.53347771771593,
              37.892660187587964
            ],
            [
              -122.53348563711604,
              37.89247248933269
            ],
            [
              -122.53348753269871,
              37.89245357342745
            ],
            [
              -122.53350179870363,
              37.892311195450795
            ],
            [
              -122.5336469873491,
              37.892183198188825
            ],
            [
              -122.53384302666696,
              37.89201181608162
            ],
            [
              -122.53400324797748,
              37.89193356630612
            ],
            [
              -122.53400456726719,
              37.89190206216064
            ],
            [
              -122.53414343588861,
              37.89182049403226
            ],
            [
              -122.53421371678063,
              37.891779131155175
            ],
            [
              -122.53428326680176,
              37.89174412631778
            ],
            [
              -122.53426711009209,
              37.89173018342976
            ],
            [
              -122.53420010290415,
              37.89167237194849
            ],
            [
              -122.53408800289313,
              37.89157578182529
            ],
            [
              -122.53408787477095,
              37.89157567138003
            ],
            [
              -122.53408711777519,
              37.89157502202442
            ],
            [
              -122.53408667521627,
              37.89157464212398
            ],
            [
              -122.53405134049858,
              37.89154000232775
            ],
            [
              -122.53434160269997,
              37.89124481585251
            ],
            [
              -122.53463987503753,
              37.89094133092289
            ],
            [
              -122.53464006307904,
              37.89094113842621
            ],
            [
              -122.53464041714567,
              37.89094077994766
            ],
            [
              -122.53463536180136,
              37.89093603652205
            ],
            [
              -122.53462597059888,
              37.89092719966877
            ],
            [
              -122.53462548689865,
              37.890926770912166
            ],
            [
              -122.53462502593152,
              37.890926341763816
            ],
            [
              -122.53462461747343,
              37.89092596127771
            ],
            [
              -122.53461658085686,
              37.89091841596168
            ],
            [
              -122.5346161300207,
              37.89091794157765
            ],
            [
              -122.53457388564505,
              37.890873557145596
            ],
            [
              -122.53456919601561,
              37.89086863077615
            ],
            [
              -122.53448708426042,
              37.890782352434506
            ],
            [
              -122.53448685013292,
              37.89078210863317
            ],
            [
              -122.53448630118905,
              37.89077930177845
            ],
            [
              -122.5344860827482,
              37.89077817901701
            ],
            [
              -122.53448511656754,
              37.89077322092899
            ],
            [
              -122.53448508950945,
              37.89077306368165
            ],
            [
              -122.53448360759623,
              37.890765473003405
            ],
            [
              -122.53448157659133,
              37.89075502860947
            ],
            [
              -122.53447453830587,
              37.89071883611316
            ],
            [
              -122.53447438584229,
              37.89071804566633
            ],
            [
              -122.53446347632853,
              37.89066199028704
            ],
            [
              -122.53445506915395,
              37.89061876121596
            ],
            [
              -122.5344510907561,
              37.89059830807787
            ],
            [
              -122.53444198599787,
              37.89055149605731
            ],
            [
              -122.53443969695459,
              37.890539728610975
            ],
            [
              -122.53453472387051,
              37.89044369195048
            ],
            [
              -122.53455299243677,
              37.890425234683704
            ],
            [
              -122.53466857151061,
              37.89030648898179
            ],
            [
              -122.53473175182414,
              37.89021388125016
            ],
            [
              -122.53471726144069,
              37.890152488384395
            ],
            [
              -122.53465312818685,
              37.89007525139075
            ],
            [
              -122.53460475539023,
              37.890016172735294
            ],
            [
              -122.53449269713089,
              37.89007812408765
            ],
            [
              -122.53441183509707,
              37.8901204301266
            ],
            [
              -122.53440939485638,
              37.89011753419478
            ],
            [
              -122.534395404148,
              37.89010083141651
            ],
            [
              -122.53439401694068,
              37.89009917904872
            ],
            [
              -122.53437910832068,
              37.89008139079323
            ],
            [
              -122.53437589288758,
              37.89007755472632
            ],
            [
              -122.53437515752474,
              37.89007665716419
            ],
            [
              -122.53437511363789,
              37.890075886475636
            ],
            [
              -122.53436579338697,
              37.88988019743497
            ],
            [
              -122.5343617741389,
              37.88979586828799
            ],
            [
              -122.53436245896583,
              37.88979616740929
            ],
            [
              -122.53436294228587,
              37.88979637537445
            ],
            [
              -122.53436310919935,
              37.889796449102214
            ],
            [
              -122.5343635810294,
              37.88979665275927
            ],
            [
              -122.53437082625932,
              37.88979981287031
            ],
            [
              -122.53437191397663,
              37.889800289799844
            ],
            [
              -122.53437274076022,
              37.88980058196902
            ],
            [
              -122.5343748626733,
              37.889801325864575
            ],
            [
              -122.53437879535622,
              37.88980270546299
            ],
            [
              -122.53438196216482,
              37.889803816175565
            ],
            [
              -122.53438253060945,
              37.889804018167844
            ],
            [
              -122.53438366478036,
              37.889804323064936
            ],
            [
              -122.53439263597392,
              37.88980676850787
            ],
            [
              -122.5343935467701,
              37.88980701416827
            ],
            [
              -122.53439390122931,
              37.88980708466449
            ],
            [
              -122.53439448437591,
              37.88980720078742
            ],
            [
              -122.53440380436858,
              37.889809054426166
            ],
            [
              -122.53440487923635,
              37.88980927022284
            ],
            [
              -122.53440600895914,
              37.88980941297668
            ],
            [
              -122.53441566351786,
              37.88981065342706
            ],
            [
              -122.5344161313941,
              37.88981071295673
            ],
            [
              -122.53441644520598,
              37.889810752610536
            ],
            [
              -122.53442285524521,
              37.88981124147224
            ],
            [
              -122.53452594521323,
              37.88980971564319
            ],
            [
              -122.53460326110499,
              37.88980856538167
            ],
            [
              -122.53477073510173,
              37.88972599156564
            ],
            [
              -122.53477119519178,
              37.889725767343606
            ],
            [
              -122.53477140161453,
              37.8897256646519
            ],
            [
              -122.53477171693189,
              37.88972551051639
            ],
            [
              -122.53477349406045,
              37.889724630038685
            ],
            [
              -122.53502361615634,
              37.88960006754133
            ],
            [
              -122.53502612430286,
              37.889598600382364
            ],
            [
              -122.53528464785803,
              37.88948683043173
            ],
            [
              -122.53539010864311,
              37.889478933697845
            ],
            [
              -122.53553983750562,
              37.88946797917222
            ],
            [
              -122.53554989567203,
              37.88947331853332
            ],
            [
              -122.5357290896067,
              37.889568443163995
            ],
            [
              -122.53574085857419,
              37.88957429644778
            ],
            [
              -122.53590673460091,
              37.8896567954275
            ],
            [
              -122.53591817585496,
              37.889662888662336
            ],
            [
              -122.53609652167053,
              37.88975786244873
            ],
            [
              -122.53610818035179,
              37.88976400418686
            ],
            [
              -122.53614161712694,
              37.88978161780432
            ],
            [
              -122.53614533641759,
              37.88978180961041
            ],
            [
              -122.53637779847293,
              37.88979382148341
            ],
            [
              -122.53651547521346,
              37.889805321137715
            ],
            [
              -122.53652816483628,
              37.88981040864868
            ],
            [
              -122.53673466910715,
              37.88989319433659
            ],
            [
              -122.5367363019123,
              37.889893725828315
            ],
            [
              -122.53691969230968,
              37.8899534520377
            ],
            [
              -122.537183066049,
              37.889969193624474
            ],
            [
              -122.5371832585623,
              37.889969205623565
            ],
            [
              -122.53718490122174,
              37.889967694772196
            ],
            [
              -122.53720325346178,
              37.88995086234048
            ],
            [
              -122.53736278948887,
              37.88981418177632
            ],
            [
              -122.53746056912402,
              37.88973680091194
            ],
            [
              -122.5374794964924,
              37.889721824938704
            ],
            [
              -122.53748001372462,
              37.88972099049438
            ],
            [
              -122.53748604142997,
              37.88971128847007
            ],
            [
              -122.53761447489535,
              37.88953952079464
            ],
            [
              -122.53768546083568,
              37.889442022741385
            ],
            [
              -122.5376962436809,
              37.8894272134281
            ],
            [
              -122.53769652856212,
              37.8894268209863
            ],
            [
              -122.53769665457209,
              37.889426647579484
            ],
            [
              -122.53768727629914,
              37.88940918334932
            ],
            [
              -122.53767772907719,
              37.88939140570552
            ],
            [
              -122.53761572676032,
              37.889274648281024
            ],
            [
              -122.5376156788199,
              37.889274558986244
            ],
            [
              -122.53761540316238,
              37.8892740455413
            ],
            [
              -122.53756729390778,
              37.889183446899104
            ],
            [
              -122.53750700246307,
              37.88906442125905
            ],
            [
              -122.5374363584162,
              37.88892494798647
            ],
            [
              -122.53743557071348,
              37.888923388047075
            ],
            [
              -122.53745192439794,
              37.88892037063115
            ],
            [
              -122.53782876789775,
              37.88885082832535
            ],
            [
              -122.53782908610131,
              37.888852269293594
            ],
            [
              -122.53782915715584,
              37.88885257898855
            ],
            [
              -122.53782944953258,
              37.888853907749905
            ],
            [
              -122.53783036889966,
              37.88885806543813
            ],
            [
              -122.53783833209793,
              37.88889409491091
            ],
            [
              -122.53784981007205,
              37.88889200513717
            ],
            [
              -122.5378969357936,
              37.88888341509529
            ],
            [
              -122.53789721871223,
              37.88888336515092
            ],
            [
              -122.53789797135028,
              37.88888323500125
            ],
            [
              -122.53790018881391,
              37.88888282091742
            ],
            [
              -122.53823047346178,
              37.88877920997431
            ],
            [
              -122.53870030139169,
              37.888632857162555
            ],
            [
              -122.53878709865513,
              37.888614617280254
            ],
            [
              -122.53880607285826,
              37.88875857882441
            ],
            [
              -122.5389038304659,
              37.88887298696237
            ],
            [
              -122.53902649116402,
              37.88899831222978
            ],
            [
              -122.53914288421446,
              37.88911755873545
            ],
            [
              -122.53926946000222,
              37.88924168961356
            ],
            [
              -122.53934900071351,
              37.889318731056406
            ],
            [
              -122.53937103914453,
              37.889340068932846
            ],
            [
              -122.53940343325907,
              37.889371434266195
            ],
            [
              -122.53957371804427,
              37.889561251495515
            ],
            [
              -122.5395833828434,
              37.88956257245745
            ],
            [
              -122.53980035043693,
              37.88959221900256
            ],
            [
              -122.53987289744371,
              37.889589645338
            ],
            [
              -122.53991569985963,
              37.889588124472226
            ],
            [
              -122.54004719039025,
              37.88958345263134
            ],
            [
              -122.54004843595692,
              37.88953551585258
            ],
            [
              -122.54031966514475,
              37.88953176636883
            ],
            [
              -122.54034467013844,
              37.88952113152678
            ],
            [
              -122.54036993125045,
              37.88951034084793
            ],
            [
              -122.54038651872459,
              37.88950325537672
            ],
            [
              -122.54039102581919,
              37.88950132998292
            ],
            [
              -122.54053737259383,
              37.88943881457902
            ],
            [
              -122.54054325094128,
              37.889447007831436
            ],
            [
              -122.54055309074472,
              37.88946072199652
            ],
            [
              -122.54057026580354,
              37.889484660820614
            ],
            [
              -122.54059773814558,
              37.889522944863465
            ],
            [
              -122.54062740301075,
              37.889564287604124
            ],
            [
              -122.54062799270086,
              37.88956567430618
            ],
            [
              -122.54063370463147,
              37.88957901820982
            ],
            [
              -122.54065848160172,
              37.889636960313446
            ],
            [
              -122.54065889160744,
              37.889637809387835
            ],
            [
              -122.54065901196405,
              37.88963805063754
            ],
            [
              -122.54065913269251,
              37.88963830539912
            ],
            [
              -122.54066201825286,
              37.889644275688084
            ],
            [
              -122.54067952444349,
              37.88968049242759
            ],
            [
              -122.54067997671093,
              37.889681430893646
            ],
            [
              -122.54068073061391,
              37.88968299950766
            ],
            [
              -122.54069278398329,
              37.88970793256482
            ],
            [
              -122.54069357384515,
              37.88970956814888
            ],
            [
              -122.54069531631106,
              37.88971317446239
            ],
            [
              -122.5407020148402,
              37.889727037537355
            ],
            [
              -122.54070212701663,
              37.88972698152518
            ],
            [
              -122.54070261500891,
              37.88972673877303
            ],
            [
              -122.54071054780879,
              37.88972276606174
            ],
            [
              -122.54085582703834,
              37.88965000650674
            ],
            [
              -122.54104823932077,
              37.88955364278762
            ],
            [
              -122.54105773409039,
              37.889552007856906
            ],
            [
              -122.54111837511228,
              37.88954155438242
            ],
            [
              -122.54121478096276,
              37.88952492833341
            ],
            [
              -122.54123921485841,
              37.889572043566076
            ],
            [
              -122.54129913290198,
              37.88964277556472
            ],
            [
              -122.54135408266099,
              37.88971833836718
            ],
            [
              -122.54136222817768,
              37.889716682580364
            ],
            [
              -122.54162840113233,
              37.88966258783823
            ],
            [
              -122.54174237272457,
              37.88960609486436
            ],
            [
              -122.54175096509645,
              37.88960183580327
            ],
            [
              -122.5418735366178,
              37.88954107629637
            ],
            [
              -122.54188134723924,
              37.88953609715018
            ],
            [
              -122.54204156895206,
              37.88943394748473
            ],
            [
              -122.5420493011933,
              37.88942893093004
            ],
            [
              -122.54215661952206,
              37.88935930194275
            ],
            [
              -122.54220363475918,
              37.88934839865295
            ],
            [
              -122.54221373533787,
              37.889347539015574
            ],
            [
              -122.54232165269516,
              37.88933835890918
            ],
            [
              -122.54233179850664,
              37.88933765529185
            ],
            [
              -122.54248889780105,
              37.88932675459666
            ],
            [
              -122.54249278744133,
              37.88933251190851
            ],
            [
              -122.5425743219337,
              37.889453116980306
            ],
            [
              -122.54258066258217,
              37.889459424891285
            ],
            [
              -122.54283466075698,
              37.889712094206864
            ],
            [
              -122.54283552025605,
              37.889712953521375
            ],
            [
              -122.54283976912849,
              37.889709293142054
            ],
            [
              -122.54286513130863,
              37.88968744488176
            ],
            [
              -122.54291197101418,
              37.88964709150236
            ],
            [
              -122.54299730340063,
              37.889569687000396
            ],
            [
              -122.54299946460571,
              37.8895677263954
            ],
            [
              -122.54305085319349,
              37.88952111095857
            ],
            [
              -122.54305240683404,
              37.88952239985913
            ],
            [
              -122.54305791117373,
              37.88952695491954
            ],
            [
              -122.54306063781671,
              37.889529213965695
            ],
            [
              -122.54321952359405,
              37.88966085387618
            ],
            [
              -122.54322366644443,
              37.88966428343161
            ],
            [
              -122.54322412621246,
              37.88966466750689
            ],
            [
              -122.54328125906588,
              37.88971200052903
            ],
            [
              -122.54329611310268,
              37.8897243065063
            ],
            [
              -122.54329672423331,
              37.88972481863908
            ],
            [
              -122.54329786305864,
              37.88972591013779
            ],
            [
              -122.54330261435415,
              37.889730455688735
            ],
            [
              -122.54333393214762,
              37.88976041286597
            ],
            [
              -122.54334330461492,
              37.88976940347753
            ],
            [
              -122.54334511122686,
              37.889771164742946
            ],
            [
              -122.54340816813664,
              37.889831508868504
            ],
            [
              -122.54340859437835,
              37.889831914251424
            ],
            [
              -122.54341331579577,
              37.88983710829408
            ],
            [
              -122.54363497427822,
              37.89008098635396
            ],
            [
              -122.54363550783513,
              37.890081571925506
            ],
            [
              -122.54364295301988,
              37.89008050037944
            ],
            [
              -122.54788618081957,
              37.88946984500455
            ],
            [
              -122.54844008639915,
              37.88939012284795
            ],
            [
              -122.5484435466133,
              37.88938962121478
            ],
            [
              -122.54844836627161,
              37.889395930875004
            ],
            [
              -122.54875042307016,
              37.889791367579875
            ],
            [
              -122.54876608082908,
              37.88981186187526
            ],
            [
              -122.54912054115565,
              37.89027588708154
            ],
            [
              -122.54912756023366,
              37.89028507670525
            ],
            [
              -122.54913893652339,
              37.890299968451586
            ],
            [
              -122.54913972704948,
              37.8903010037559
            ],
            [
              -122.54913985705875,
              37.89030118174426
            ],
            [
              -122.54914465674096,
              37.89030746378567
            ],
            [
              -122.54927811414187,
              37.8904821532122
            ],
            [
              -122.54928622223942,
              37.890492766783986
            ],
            [
              -122.54928786227295,
              37.89049491387222
            ],
            [
              -122.54925658837628,
              37.89061688482759
            ],
            [
              -122.54925383511915,
              37.89062762112449
            ],
            [
              -122.54908190410242,
              37.89077739094623
            ],
            [
              -122.5490794666259,
              37.89077951417294
            ],
            [
              -122.5490704102432,
              37.89093302802521
            ],
            [
              -122.54906999438558,
              37.89094007830309
            ],
            [
              -122.54892855540645,
              37.89115496560123
            ],
            [
              -122.54871727949613,
              37.89133131515291
            ],
            [
              -122.54859219169096,
              37.891422089313906
            ],
            [
              -122.5484757044631,
              37.89163554452639
            ],
            [
              -122.54847382102709,
              37.89163899464103
            ],
            [
              -122.54847133472771,
              37.89164355110233
            ],
            [
              -122.54859642764835,
              37.89190233982116
            ],
            [
              -122.5485965988853,
              37.89190269283329
            ],
            [
              -122.54860028971858,
              37.89191032884603
            ],
            [
              -122.54859692371825,
              37.891911775131106
            ],
            [
              -122.54834215997228,
              37.89202118398708
            ],
            [
              -122.54834167833503,
              37.892021656472465
            ],
            [
              -122.54810932738735,
              37.8922466020977
            ],
            [
              -122.5481082186609,
              37.8922476748595
            ],
            [
              -122.54807344769047,
              37.892432281581215
            ],
            [
              -122.54807214050136,
              37.89243922114118
            ],
            [
              -122.54795247690059,
              37.89272735478744
            ],
            [
              -122.54795011177674,
              37.89273304827939
            ],
            [
              -122.54794920970235,
              37.89273522145299
            ],
            [
              -122.547949437961,
              37.89273751561209
            ],
            [
              -122.54795095472153,
              37.89275278125295
            ],
            [
              -122.54795890267857,
              37.8928327413766
            ],
            [
              -122.54826759622384,
              37.89301388220423
            ],
            [
              -122.5482724501197,
              37.89301417741672
            ],
            [
              -122.5483587720367,
              37.89301942017134
            ],
            [
              -122.54884889647812,
              37.89284690375257
            ],
            [
              -122.54886018079948,
              37.89285265150861
            ],
            [
              -122.54904971932119,
              37.89294920079427
            ],
            [
              -122.54905089579088,
              37.89294979771561
            ],
            [
              -122.54906313639508,
              37.89295603354219
            ],
            [
              -122.5490976020301,
              37.892973591455956
            ],
            [
              -122.54926875614443,
              37.89322147107788
            ],
            [
              -122.54927956756066,
              37.89322331299111
            ],
            [
              -122.5493513089063,
              37.89323553571275
            ],
            [
              -122.5494338791089,
              37.89319838528528
            ],
            [
              -122.54943687265812,
              37.8931970400706
            ],
            [
              -122.54972967959108,
              37.89278171792082
            ],
            [
              -122.54973030322257,
              37.89278082840211
            ],
            [
              -122.55009479523875,
              37.89267664641308
            ],
            [
              -122.55015402361568,
              37.89265971773916
            ],
            [
              -122.55015424511714,
              37.892668510733664
            ],
            [
              -122.55016403928674,
              37.893056729143005
            ],
            [
              -122.55027273942855,
              37.8932403359587
            ],
            [
              -122.55028405758429,
              37.89324248891543
            ],
            [
              -122.55104888654509,
              37.893387980488804
            ],
            [
              -122.5510495210536,
              37.89339073261761
            ],
            [
              -122.5511938589621,
              37.89401627426754
            ],
            [
              -122.5512814297506,
              37.89405567480919
            ],
            [
              -122.55128308617387,
              37.89405565504498
            ],
            [
              -122.55168993029703,
              37.89405086557996
            ],
            [
              -122.55169208012319,
              37.894050839940284
            ],
            [
              -122.55169338184562,
              37.89405082453119
            ],
            [
              -122.55169131646915,
              37.89405612176131
            ],
            [
              -122.55157236584533,
              37.894361187981126
            ],
            [
              -122.55157059880617,
              37.8943657184912
            ],
            [
              -122.55156879889658,
              37.894370335188604
            ],
            [
              -122.55164832335228,
              37.8946016925285
            ],
            [
              -122.55180465905497,
              37.89472993995801
            ],
            [
              -122.55181077252077,
              37.894729348866655
            ],
            [
              -122.55224514471315,
              37.89468734713511
            ],
            [
              -122.55255749295857,
              37.894741428393544
            ],
            [
              -122.55288488692872,
              37.89462599838162
            ],
            [
              -122.55289663814195,
              37.89463158263201
            ],
            [
              -122.5532673896135,
              37.89480777175613
            ],
            [
              -122.55326858278383,
              37.894807244520145
            ],
            [
              -122.55407724287768,
              37.89445028392183
            ],
            [
              -122.55407884981254,
              37.89446046503018
            ],
            [
              -122.55412697752263,
              37.89476541299937
            ],
            [
              -122.55413959026085,
              37.89476760795873
            ],
            [
              -122.55492640405481,
              37.89490453443438
            ],
            [
              -122.55516296359178,
              37.89498610564859
            ],
            [
              -122.55577748583158,
              37.89495000170346
            ],
            [
              -122.55577879041749,
              37.89494992491652
            ],
            [
              -122.55578666678674,
              37.89494946244273
            ],
            [
              -122.55578072914683,
              37.894955697748685
            ],
            [
              -122.55528406356704,
              37.89547729981999
            ],
            [
              -122.5552820832389,
              37.895479380068075
            ],
            [
              -122.5552763422329,
              37.89548540914849
            ],
            [
              -122.55638039718006,
              37.89613621335664
            ],
            [
              -122.55638103880852,
              37.89613658970878
            ],
            [
              -122.55638115448025,
              37.896136659792234
            ],
            [
              -122.55638282043189,
              37.89613505453845
            ],
            [
              -122.5563845561739,
              37.89613338227988
            ],
            [
              -122.55638549223009,
              37.89613248277863
            ],
            [
              -122.55639165007675,
              37.89612651758166
            ],
            [
              -122.55639805968994,
              37.89612040380387
            ],
            [
              -122.55684181720684,
              37.89569712119616
            ],
            [
              -122.5568433517164,
              37.89569565701355
            ],
            [
              -122.55690904549412,
              37.89563523643654
            ],
            [
              -122.55691186786565,
              37.895632641312794
            ],
            [
              -122.55722604977632,
              37.895343650825254
            ],
            [
              -122.55722791298042,
              37.89534194208606
            ],
            [
              -122.55727261657277,
              37.89530082261903
            ],
            [
              -122.5572733717841,
              37.89530012813534
            ],
            [
              -122.55727492647586,
              37.895298695137875
            ],
            [
              -122.55727514048925,
              37.895298497645896
            ],
            [
              -122.55727556662953,
              37.895298075658026
            ],
            [
              -122.55727654309625,
              37.89529924826102
            ],
            [
              -122.55728269089057,
              37.89530665735764
            ],
            [
              -122.55728365334201,
              37.89530781668636
            ],
            [
              -122.55729067536136,
              37.895316279402834
            ],
            [
              -122.55729822917422,
              37.89532538173478
            ],
            [
              -122.5573333003422,
              37.89536764371611
            ],
            [
              -122.55749469314166,
              37.895562142008316
            ],
            [
              -122.55764909795437,
              37.895742901031255
            ],
            [
              -122.55765602903058,
              37.89575054249365
            ],
            [
              -122.55792444292457,
              37.896046471720005
            ],
            [
              -122.5579300994807,
              37.89605465718854
            ],
            [
              -122.55799987680095,
              37.89615564349437
            ],
            [
              -122.55807872221934,
              37.896269753949575
            ],
            [
              -122.55808220441752,
              37.896277615017226
            ],
            [
              -122.55811749866778,
              37.89635717726045
            ],
            [
              -122.55812081340369,
              37.89636863352573
            ],
            [
              -122.55818477809996,
              37.89658973076285
            ],
            [
              -122.558262518112,
              37.89695938806809
            ],
            [
              -122.55826244332037,
              37.89696079077538
            ],
            [
              -122.55823908167051,
              37.89739727511333
            ],
            [
              -122.55824698087622,
              37.89768552641941
            ],
            [
              -122.5582470773092,
              37.89768904131465
            ],
            [
              -122.55831263303844,
              37.89773198829198
            ],
            [
              -122.55836468210634,
              37.89776550955763
            ],
            [
              -122.55837454105708,
              37.897772174384016
            ],
            [
              -122.55837801821966,
              37.89777452454498
            ],
            [
              -122.55840610352023,
              37.89779351582158
            ],
            [
              -122.55840903590602,
              37.897795496964136
            ],
            [
              -122.55841011962967,
              37.89779622969339
            ],
            [
              -122.5584132166361,
              37.89779832332282
            ],
            [
              -122.55847467720608,
              37.897839880715715
            ],
            [
              -122.5585506572881,
              37.89789124892437
            ],
            [
              -122.55852529511502,
              37.89793224795252
            ],
            [
              -122.5584497276053,
              37.89805440502302
            ],
            [
              -122.55844819289327,
              37.898056886710926
            ],
            [
              -122.55844753110159,
              37.89805795628447
            ],
            [
              -122.55844412408571,
              37.89806345906981
            ],
            [
              -122.55839780249924,
              37.89813834626517
            ],
            [
              -122.55837968412425,
              37.89816514456862
            ],
            [
              -122.55834524226853,
              37.8982160873167
            ],
            [
              -122.55834222334758,
              37.89823249805677
            ],
            [
              -122.55829492643717,
              37.898489643198545
            ],
            [
              -122.55847296260158,
              37.898649304361044
            ],
            [
              -122.5584296553276,
              37.89884199835928
            ],
            [
              -122.55842699153382,
              37.8988469077985
            ],
            [
              -122.5583900045616,
              37.89891507494341
            ],
            [
              -122.55843800811986,
              37.89897920647502
            ],
            [
              -122.55845809295377,
              37.899039579011415
            ],
            [
              -122.55845984474254,
              37.89904487470656
            ],
            [
              -122.55847854095342,
              37.89910139708489
            ],
            [
              -122.55840747190635,
              37.89924315297631
            ],
            [
              -122.5583848240106,
              37.899280752085915
            ],
            [
              -122.55871486832673,
              37.899177417525415
            ],
            [
              -122.55901925324432,
              37.89913042245594
            ],
            [
              -122.55924353362218,
              37.899095795957344
            ],
            [
              -122.55925029953896,
              37.899094934457345
            ],
            [
              -122.55972890055519,
              37.899033975535005
            ],
            [
              -122.55973626252782,
              37.89903303601817
            ],
            [
              -122.5597369934959,
              37.899032942157675
            ],
            [
              -122.55984567839239,
              37.898900781571825
            ],
            [
              -122.55984703584673,
              37.89889683306122
            ],
            [
              -122.55988953432232,
              37.89877320348609
            ],
            [
              -122.56001088370513,
              37.89876695804509
            ],
            [
              -122.56001094690606,
              37.89876677669767
            ],
            [
              -122.56004011582948,
              37.898760432402135
            ],
            [
              -122.56062592567855,
              37.89864143240205
            ],
            [
              -122.56097363832683,
              37.89857079673825
            ],
            [
              -122.5610051666255,
              37.89856447861337
            ],
            [
              -122.56103595990075,
              37.89855831299902
            ],
            [
              -122.56103627381427,
              37.898559172695364
            ],
            [
              -122.56113237479374,
              37.898825672650446
            ],
            [
              -122.56120438378879,
              37.89902538064993
            ],
            [
              -122.56120468546204,
              37.89902620901666
            ],
            [
              -122.56127914568305,
              37.89922673124582
            ],
            [
              -122.56134578353556,
              37.8994019646372
            ],
            [
              -122.56134701678221,
              37.89940521004718
            ],
            [
              -122.56135072220653,
              37.8994149461778
            ],
            [
              -122.56135302702288,
              37.899421553374225
            ],
            [
              -122.56135391106973,
              37.899424101924986
            ],
            [
              -122.56143774459308,
              37.899664498216396
            ],
            [
              -122.56161104675928,
              37.90015364301013
            ],
            [
              -122.56172621232146,
              37.90043783951187
            ],
            [
              -122.56172626748504,
              37.90043798274463
            ],
            [
              -122.56169480045787,
              37.90045720640901
            ],
            [
              -122.56162602418112,
              37.900499226323845
            ],
            [
              -122.5616254314468,
              37.900499588149685
            ],
            [
              -122.56039991988041,
              37.901248333803
            ],
            [
              -122.5602928484026,
              37.90134205017468
            ],
            [
              -122.55987558164081,
              37.90168026160815
            ],
            [
              -122.55978162767978,
              37.90175389020659
            ],
            [
              -122.55956743752222,
              37.90159802030137
            ],
            [
              -122.55876829550854,
              37.90231181303047
            ],
            [
              -122.55873825631717,
              37.90233864433987
            ],
            [
              -122.55873800653418,
              37.90233886498811
            ],
            [
              -122.55873328417019,
              37.902343084832744
            ],
            [
              -122.55863788512963,
              37.9022758088901
            ],
            [
              -122.55861944436144,
              37.90226280578101
            ],
            [
              -122.5584895232434,
              37.90215679223975
            ],
            [
              -122.55842360712795,
              37.90218560610374
            ],
            [
              -122.55839436874722,
              37.902198268754724
            ],
            [
              -122.55831135580499,
              37.90223422085078
            ],
            [
              -122.55828828175181,
              37.90224421295021
            ],
            [
              -122.55821055903631,
              37.902242198862076
            ],
            [
              -122.5579375335931,
              37.902235121446616
            ],
            [
              -122.55792527637216,
              37.902234803331744
            ],
            [
              -122.55760841157941,
              37.9022593488133
            ],
            [
              -122.5575950272945,
              37.90226038591485
            ],
            [
              -122.55748553490079,
              37.902268886122876
            ],
            [
              -122.5574125982312,
              37.90229879956075
            ],
            [
              -122.55740516366144,
              37.90230184905247
            ],
            [
              -122.55712020482976,
              37.90241217718484
            ],
            [
              -122.5571095066993,
              37.90241631901403
            ],
            [
              -122.55710935485207,
              37.90241638023872
            ],
            [
              -122.5570812820464,
              37.902434210594166
            ],
            [
              -122.55707089317238,
              37.90244080827223
            ],
            [
              -122.55692031062343,
              37.90249765154378
            ],
            [
              -122.55689042391245,
              37.90250893271857
            ],
            [
              -122.55682259809765,
              37.902534539037994
            ],
            [
              -122.55679700601979,
              37.90254417725887
            ],
            [
              -122.556792219929,
              37.9025446283186
            ],
            [
              -122.55679148708606,
              37.902544696958536
            ],
            [
              -122.55664811140004,
              37.902558189905086
            ],
            [
              -122.55664726052635,
              37.902558267809546
            ],
            [
              -122.55664681816197,
              37.9025583115627
            ],
            [
              -122.5565801901251,
              37.90256457286206
            ],
            [
              -122.55654630382077,
              37.90256775852516
            ],
            [
              -122.55652084061602,
              37.90257015311642
            ],
            [
              -122.55632643454722,
              37.90258842222741
            ],
            [
              -122.55632294732398,
              37.90258874971344
            ],
            [
              -122.55631989574444,
              37.902589037169356
            ],
            [
              -122.55631958386537,
              37.902589069636875
            ],
            [
              -122.556319426271,
              37.9025889236794
            ],
            [
              -122.55631929784684,
              37.902588804250584
            ],
            [
              -122.55623812041182,
              37.90251361926858
            ],
            [
              -122.55623804464425,
              37.90251355299622
            ],
            [
              -122.55623273304256,
              37.90250863018074
            ],
            [
              -122.55617180456898,
              37.90245218947494
            ]
          ]
        ]
      }
    }
  ]
}