{
  "type": "FeatureCollection",
  "features": [
    {
      "type": "Feature",
      "properties": {
        "name": "HOMESTEAD VALLEY SERVICE AREA (dummy placeholder)",
        "number": "CSA 14",
        "note": "Illustrative placeholder shape only — not the real County boundary. Swap this file out once the real converted shapefile geometry is supplied."
      },
      "geometry": {
        "type": "Polygon",
        "coordinates": [
          [
            [-122.5602, 37.8908],
            [-122.5545, 37.8888],
            [-122.5455, 37.8895],
            [-122.5378, 37.8935],
            [-122.5355, 37.8975],
            [-122.5382, 37.9005],
            [-122.5445, 37.9018],
            [-122.5522, 37.9008],
            [-122.5578, 37.8975],
            [-122.5602, 37.8908]
          ]
        ]
      }
    }
  ]
}
