{"type": "FeatureCollection", "name": "homestead boundry", "features": [{"type": "Feature", "properties": {"Name": "HOMESTEAD VALLEY SERVICE AREA", "Acres": 469.239, "Number": "CSA 14", "SBE_ID": "132CSA"}, "geometry": {"type": "Polygon", "coordinates": [[[-122.5561850039994, 37.90245717695374], [-122.5559491329078, 37.90226360233606], [-122.55594411898556, 37.90225948722763], [-122.55594385077138, 37.90225924856712], [-122.55593436089269, 37.90225831880118], [-122.55566567380122, 37.90223196545233], [-122.55566254547313, 37.90223165851925], [-122.55565510158537, 37.90223092833397], [-122.5556547936434, 37.90223089764562], [-122.55565441724217, 37.902230859136765], [-122.55563080132981, 37.90221024380666], [-122.55562904707638, 37.90220871072248], [-122.55560636904914, 37.90218889917402], [-122.5554249104006, 37.90203386702729], [-122.55541019544088, 37.90202128433382], [-122.55538228140016, 37.901997422761596], [-122.55531942450352, 37.90194358907825], [-122.55527450779296, 37.90190523705003], [-122.55527248090775, 37.90190351043673], [-122.55522221036486, 37.90186055259509], [-122.55508152608695, 37.90174271300853], [-122.555075203356, 37.901737415706656], [-122.55499786434797, 37.9016726082576], [-122.55489273296764, 37.901582526544125], [-122.55488531647019, 37.9015761749093], [-122.55478429717698, 37.90148959038786], [-122.55474496346388, 37.90145637802173], [-122.55474392344996, 37.90145549940163], [-122.55470696573957, 37.90144247993084], [-122.55467622865558, 37.901431649428964], [-122.55454647539929, 37.90138594033956], [-122.55454450329755, 37.90138524556208], [-122.5545394142979, 37.90138342351094], [-122.55453928194194, 37.90138336723424], [-122.55453911498233, 37.90138329353518], [-122.55453898843521, 37.901383241663545], [-122.5541552998234, 37.901247363946034], [-122.55414091552261, 37.901242269012315], [-122.55414076205305, 37.90124227168192], [-122.55402924167542, 37.90120178919058], [-122.55401656457643, 37.90119718725571], [-122.55401597856445, 37.90119697214321], [-122.55400336299074, 37.9011924150991], [-122.55398746186789, 37.90118663636721], [-122.55391293412663, 37.90115957660028], [-122.55390004213798, 37.90115489457701], [-122.55342788965466, 37.900983804011986], [-122.55341510600904, 37.90097917142235], [-122.5534149332427, 37.90097909331657], [-122.55341261625969, 37.90097962026672], [-122.55325516661013, 37.901013997267924], [-122.55325501969826, 37.90101403136519], [-122.55325397957257, 37.90101425673163], [-122.55320348824505, 37.901025278805285], [-122.55309174842932, 37.901049663835686], [-122.55308228367585, 37.90105172906993], [-122.5528479277603, 37.90110294002147], [-122.55276152125438, 37.90112182216798], [-122.55275125843389, 37.901124065270984], [-122.55275047108009, 37.90112421864725], [-122.55274981028617, 37.90112438334186], [-122.55272055294948, 37.90113165560176], [-122.55241329135586, 37.901207867571856], [-122.55240974019318, 37.9012079788599], [-122.55240961514397, 37.90120798103331], [-122.55234340025444, 37.90121002857497], [-122.55232676231402, 37.90121053853871], [-122.55232447251258, 37.901210609877594], [-122.55230289143874, 37.901211277845924], [-122.55215371219423, 37.901215881044735], [-122.55212238427856, 37.90121684813885], [-122.55212211094528, 37.90121683486441], [-122.552122003746, 37.90121686556644], [-122.55196430616105, 37.901206938352814], [-122.55173148168072, 37.90119228708518], [-122.5516897384277, 37.90118965800603], [-122.55117473052384, 37.901163675250146], [-122.55117435581545, 37.90116365652462], [-122.55116951527467, 37.90116341165865], [-122.5511691451882, 37.90116339555651], [-122.55116879183224, 37.90116316196923], [-122.55097452761773, 37.901037790309914], [-122.55081670509963, 37.90093598867655], [-122.55076090913678, 37.90089997873582], [-122.55059485848415, 37.9007928312661], [-122.55040199889461, 37.900668416629], [-122.55039856743855, 37.90066874297296], [-122.55038112187638, 37.90067047883106], [-122.55037545106282, 37.900671054943054], [-122.55037290466896, 37.900671306437964], [-122.55035343437068, 37.90067323876681], [-122.55033294892414, 37.90067527163086], [-122.55033259117985, 37.9006752904595], [-122.54995457049961, 37.90068746802968], [-122.54993992196667, 37.90068793951837], [-122.54993981851753, 37.900687941314224], [-122.54993969309555, 37.9006879299732], [-122.54993959053417, 37.90068792274139], [-122.54993921274905, 37.900687833770085], [-122.54954541252842, 37.90056497993634], [-122.54945517862747, 37.90053682914751], [-122.54945399587002, 37.900536420693406], [-122.54945085559427, 37.900535348667496], [-122.54941815802235, 37.90052415700636], [-122.54940484452601, 37.900519599874116], [-122.54914911467223, 37.90043993672564], [-122.54901355211305, 37.9003977074344], [-122.5489855874534, 37.90038899570352], [-122.54898524317747, 37.900388884518485], [-122.54867552552092, 37.90029118550757], [-122.54857478081144, 37.9002594060431], [-122.548561306419, 37.90025515532007], [-122.54850818479146, 37.900238079471514], [-122.54849895855853, 37.900235111384404], [-122.54841584432221, 37.90020836838093], [-122.54840240428497, 37.90020404314397], [-122.54816314230662, 37.90012706986321], [-122.54813985761398, 37.90011957902729], [-122.54803943369302, 37.90008724921127], [-122.54802600398065, 37.90008292555549], [-122.5478357999333, 37.90002251777791], [-122.54779773927972, 37.900010424634196], [-122.54764483679007, 37.89996183356955], [-122.54763258937163, 37.89995794178142], [-122.54751410793622, 37.89994289284281], [-122.54750376623812, 37.89994157883607], [-122.54750355503593, 37.899941550054194], [-122.54723697734896, 37.899941526196976], [-122.54723659059069, 37.89994152388996], [-122.54695095624699, 37.899926071014086], [-122.54691495474034, 37.899924125695094], [-122.54688611318954, 37.899922566346284], [-122.5468857884576, 37.89992254493854], [-122.54667150577845, 37.89991094916442], [-122.5466592337818, 37.89991028497556], [-122.54665884046943, 37.89991025123753], [-122.54637835487065, 37.89989363528926], [-122.54636429145945, 37.899892802043354], [-122.54636402344303, 37.89989277514522], [-122.54636388665507, 37.89989276399736], [-122.54634264518437, 37.89989171267711], [-122.54634207212284, 37.89989340789145], [-122.54631358548575, 37.8999778953544], [-122.54631344864134, 37.89997829426306], [-122.54615465435451, 37.89995697340044], [-122.54615239974119, 37.89995667000382], [-122.54613449883452, 37.89995426660786], [-122.54612056004582, 37.89995238575688], [-122.54610010737109, 37.89994962642925], [-122.5460926357377, 37.8999486203536], [-122.54609222475204, 37.899948564389355], [-122.54609170021132, 37.89994851489884], [-122.54608825722511, 37.89994805184794], [-122.5458736626741, 37.89991929717725], [-122.54589155293189, 37.89987144150032], [-122.54589160048346, 37.89987130999944], [-122.54589228866793, 37.89986945868402], [-122.54589235783685, 37.89986928625363], [-122.54589242132182, 37.899869113921724], [-122.54589157037614, 37.899869394525076], [-122.54586524240361, 37.89987772824199], [-122.54583696160672, 37.89988667977707], [-122.54581380863277, 37.899894008588156], [-122.54574902988769, 37.89991451341538], [-122.54573684848638, 37.89991836898726], [-122.54567262532186, 37.89993856584256], [-122.54563300085658, 37.899951027630955], [-122.54551266644043, 37.89998884467375], [-122.54550429428356, 37.89999147526596], [-122.54515266744849, 37.90009988852235], [-122.5451476264214, 37.900101443016524], [-122.54514749099977, 37.90010148141076], [-122.54514735483271, 37.900101492781275], [-122.54511799693616, 37.900098532433425], [-122.5451155745552, 37.90009829050191], [-122.54510387074161, 37.900097114330805], [-122.54497710142967, 37.90008431704782], [-122.5449756028106, 37.90008416636121], [-122.54496352365409, 37.90008294801045], [-122.5449632954254, 37.90008292042012], [-122.54496292395446, 37.90008285385419], [-122.54490906187452, 37.900074358934404], [-122.54480030125673, 37.90005714904702], [-122.54468777449246, 37.90003934457871], [-122.54467428479772, 37.90003720974795], [-122.54467393077657, 37.90003715729849], [-122.54466142055665, 37.90003449451432], [-122.54461224024432, 37.900024034843554], [-122.5444445769686, 37.89998838353584], [-122.544431283168, 37.89998555675337], [-122.54443092284237, 37.89998548188188], [-122.54438138588034, 37.89997586191991], [-122.5443710832588, 37.89997385933176], [-122.54435791519103, 37.89997130253303], [-122.5442907788007, 37.899958206601795], [-122.54427743316938, 37.89995560330098], [-122.5442770718315, 37.89995553295266], [-122.54412642413224, 37.89992828160304], [-122.54410327046567, 37.89992408167253], [-122.5440832889111, 37.89992046218826], [-122.54397696577551, 37.89990117980701], [-122.5439635657952, 37.89989874954497], [-122.54396320003481, 37.89989868377833], [-122.54362158015127, 37.89983874336209], [-122.54360803152773, 37.89983636610093], [-122.54360765971164, 37.89983628691969], [-122.54352515660115, 37.899819996710114], [-122.54351135271934, 37.8998171885658], [-122.5432340908262, 37.899749244351774], [-122.543096871947, 37.89971561842443], [-122.5430832536802, 37.89971228070632], [-122.54264599808577, 37.899619880931326], [-122.54263270491612, 37.89961707196203], [-122.54262011986197, 37.89961441206077], [-122.54262001693054, 37.899614391310784], [-122.54261954786912, 37.8996142912781], [-122.5426189525201, 37.899614148368904], [-122.54261540556898, 37.899613377897126], [-122.54251931470048, 37.89959194805316], [-122.54272774896278, 37.898892890515256], [-122.54301965267204, 37.89878232470114], [-122.54303477583562, 37.89877659624243], [-122.54334597312061, 37.89883172318503], [-122.54335394029042, 37.89883313541868], [-122.5434386082113, 37.89850964695777], [-122.54340476008306, 37.89850368532863], [-122.54335658401678, 37.898495203977916], [-122.54334276909132, 37.89849277001517], [-122.54337843237258, 37.898363659520726], [-122.54322149326073, 37.8984714088659], [-122.54245408893948, 37.89833623860755], [-122.54245579737734, 37.8983326537416], [-122.54263766406545, 37.89795038145261], [-122.5426698590013, 37.89753924725132], [-122.54252335223293, 37.89716585980429], [-122.54239703496182, 37.89702641426364], [-122.54225688326635, 37.89687169875519], [-122.54225419129178, 37.89686872532296], [-122.5422529360341, 37.896868364915534], [-122.54203095059181, 37.896804590848426], [-122.54190623717876, 37.89676875836078], [-122.54185396563444, 37.89675374128886], [-122.54025274901944, 37.89698205119699], [-122.538666302407, 37.896321203560305], [-122.53864758518715, 37.89633477555371], [-122.5383822012311, 37.89652723538247], [-122.53816784317651, 37.89668269023926], [-122.53787433396076, 37.89689555219378], [-122.53772691453524, 37.89700245848397], [-122.53772246478923, 37.89699821302276], [-122.53767817746719, 37.89695595484582], [-122.53766968439344, 37.89694785073926], [-122.53766948466225, 37.896947659522446], [-122.5376677521543, 37.89694607172986], [-122.53765303388522, 37.896932599235384], [-122.53727013261161, 37.896581998625486], [-122.53726126271954, 37.896573877560094], [-122.53717889712175, 37.896495636172], [-122.53717756584443, 37.89649437039543], [-122.5371754580919, 37.89649237000249], [-122.53713006524904, 37.8964492583182], [-122.53712131179776, 37.89644094507635], [-122.53712027275098, 37.89643996715408], [-122.53689695603067, 37.89623399129663], [-122.53687447443878, 37.896213253611336], [-122.5368656309261, 37.89620509601326], [-122.53685528416416, 37.89619794036652], [-122.536737147214, 37.89611616740983], [-122.53672685358332, 37.896109040575915], [-122.53636825529412, 37.895794298335275], [-122.53635948247704, 37.89578659910332], [-122.53635934173992, 37.89578644381694], [-122.53635738684535, 37.895787730226196], [-122.53632989129757, 37.89580579441333], [-122.5363256473872, 37.895808582977104], [-122.53632544636238, 37.89580871712073], [-122.5363252071477, 37.89580849594112], [-122.53632389986889, 37.89580727480235], [-122.53624389525487, 37.895732693374626], [-122.53623512760929, 37.895724519101634], [-122.53621952817095, 37.89571058037771], [-122.53620130438102, 37.895694297773524], [-122.53619158111043, 37.89568561456544], [-122.5361233347673, 37.895624651401526], [-122.53612241841743, 37.895623833574476], [-122.53611682576975, 37.895618838120726], [-122.53605253301156, 37.89556140711566], [-122.53601998187982, 37.8955320731329], [-122.53601993408672, 37.89553203069847], [-122.53601952013508, 37.89553165842264], [-122.5359973545369, 37.895511684768266], [-122.53599269582239, 37.89550748430303], [-122.53596856879557, 37.89548574202407], [-122.53596660270668, 37.89548396987982], [-122.53595958740787, 37.89547765072402], [-122.53593698442164, 37.89545756834288], [-122.53593685502958, 37.89545745341534], [-122.53593352113369, 37.89545449181272], [-122.53587917150114, 37.89540620518337], [-122.53587015133765, 37.89539819205013], [-122.53568905033832, 37.89525011314953], [-122.53568871636057, 37.895249961193905], [-122.53568858378257, 37.89524989588809], [-122.53568849160814, 37.895249852416185], [-122.5356877712636, 37.89524950434714], [-122.53568669371215, 37.895248986698554], [-122.53555912097518, 37.8951877022825], [-122.53554701901044, 37.89518188895841], [-122.53549228927952, 37.89515424934567], [-122.53548443553932, 37.89515027877521], [-122.5353837971998, 37.895099447238756], [-122.5353626950879, 37.89508878997114], [-122.53536098482614, 37.89508792634294], [-122.5353519203577, 37.895083350285994], [-122.53535178246754, 37.895083298589675], [-122.53534902061185, 37.89508377427622], [-122.53526946429903, 37.89509743011766], [-122.53525246735741, 37.89510035014311], [-122.53520258685231, 37.89510891623037], [-122.53510083355744, 37.89512638819209], [-122.53506235713839, 37.89513299488082], [-122.53483844542987, 37.89517145339631], [-122.53483842393332, 37.895171706108286], [-122.53482987648181, 37.8952879584351], [-122.53482979692068, 37.89528899620875], [-122.53482978456658, 37.895289167653395], [-122.53482855079375, 37.8952885102965], [-122.53482613736598, 37.89528717842811], [-122.53481441752463, 37.89528074201047], [-122.53474177316649, 37.89524085137507], [-122.5345996841507, 37.89516282358695], [-122.53459968711549, 37.895162724401715], [-122.53459969576387, 37.895162625118544], [-122.53459981574704, 37.89516015911664], [-122.53460676719959, 37.89501743574899], [-122.53460678140667, 37.895017124583354], [-122.53460685108386, 37.89501572649232], [-122.53460883863923, 37.89498806805989], [-122.53460902865251, 37.89498541880487], [-122.53461734838302, 37.89486968411101], [-122.53462270809658, 37.894795115863076], [-122.5346229747313, 37.894791363095926], [-122.53462299126164, 37.89479113660495], [-122.53462301671219, 37.89479082073952], [-122.53462081777685, 37.894790052038324], [-122.53461641308603, 37.894788514753444], [-122.53460990249833, 37.89478624231143], [-122.53459828215817, 37.89478218518118], [-122.53441006753916, 37.894716481263984], [-122.53440550895536, 37.89471488894476], [-122.53440104914263, 37.894713331873604], [-122.5343934166774, 37.89471066599055], [-122.53439243677565, 37.89470976903689], [-122.53438564163909, 37.8947035496371], [-122.53429188663318, 37.89461770607217], [-122.53429177580333, 37.89461760434136], [-122.53429389828692, 37.894612767878186], [-122.53431601458355, 37.89456236735063], [-122.53439354266611, 37.89438568129602], [-122.53441042278698, 37.894347212989636], [-122.53442055842501, 37.894323479571156], [-122.53442066542311, 37.89432323439828], [-122.53442010868073, 37.89432283844189], [-122.53429632372027, 37.894234704984925], [-122.53422717051937, 37.8941615547662], [-122.53416755061498, 37.89407960298289], [-122.53416691230333, 37.89407498982101], [-122.53416666790989, 37.894070226578904], [-122.53416666543878, 37.89407013649948], [-122.53416665333025, 37.894069902390974], [-122.53416674204193, 37.89406733238644], [-122.53416683063004, 37.89406475787794], [-122.53416746236515, 37.894059596523896], [-122.53416800017457, 37.894057022387315], [-122.53416853257218, 37.89405445825747], [-122.53417003104548, 37.89404938561177], [-122.5341719529416, 37.894044409311775], [-122.53417311485177, 37.89404199205029], [-122.53417427787382, 37.89403957386841], [-122.53417705489353, 37.89403488474514], [-122.5341793210141, 37.89403229975931], [-122.5341815871345, 37.89402971477343], [-122.53418672504135, 37.89402465152585], [-122.53419243572365, 37.894019739728705], [-122.53419744701064, 37.894015615930556], [-122.53420142214144, 37.89401252385518], [-122.53420162254746, 37.89401236719524], [-122.53419902888051, 37.89401026697568], [-122.5341966446395, 37.89400833888592], [-122.53418613727567, 37.893999826739126], [-122.53417640566646, 37.89399194199422], [-122.53417221787313, 37.893995407232524], [-122.5339192494319, 37.894204815923004], [-122.53388000816098, 37.89423866756318], [-122.53387750294564, 37.894240828581935], [-122.53386693395161, 37.894233552139724], [-122.53374451439424, 37.89414927074309], [-122.53371989101424, 37.89413124238168], [-122.53368647765409, 37.89410677839572], [-122.53367615457424, 37.89409922012572], [-122.5336063995423, 37.8940488411225], [-122.53346740834358, 37.89394845617705], [-122.53321902782292, 37.89376907120855], [-122.53314233189393, 37.893713679913645], [-122.53313278451586, 37.89370678505649], [-122.53298507620659, 37.89378114112006], [-122.53268995444262, 37.89392973043969], [-122.53268974143198, 37.89392984225302], [-122.53267639323099, 37.893920202788856], [-122.53267518080517, 37.89391932694742], [-122.53266006691304, 37.89390837596206], [-122.53266028004712, 37.89390826865274], [-122.53266050442485, 37.89390815664375], [-122.53295635486906, 37.89375756676033], [-122.53303447754779, 37.89371799914001], [-122.53310120301029, 37.89368420626078], [-122.53310136004906, 37.89368412695314], [-122.53316287641428, 37.893652970578], [-122.53323988621011, 37.89361396721793], [-122.53324394773594, 37.89361191008973], [-122.5334192259564, 37.893523140636894], [-122.53341948949866, 37.89352300542153], [-122.53319647537566, 37.89336319785378], [-122.53319123671544, 37.89335944435913], [-122.53319096984161, 37.893359250686224], [-122.53325758531594, 37.89332560830448], [-122.53326114222874, 37.89332381220626], [-122.53331475600633, 37.893296734662606], [-122.53331491872753, 37.8932966552568], [-122.53323154499246, 37.893176839068936], [-122.53322451978848, 37.893166741111585], [-122.53321920886079, 37.893159107309344], [-122.53321904305496, 37.89315886683516], [-122.53321892469275, 37.89315869764159], [-122.53321869377537, 37.89315836366054], [-122.53321839787003, 37.89315794067662], [-122.533218313853, 37.89315798718438], [-122.53320712548843, 37.893163907096174], [-122.53315830544012, 37.89318974938832], [-122.53315507031539, 37.89319146063527], [-122.53314906863334, 37.893194635336194], [-122.5331338802611, 37.89317681749833], [-122.53311527260819, 37.89315498952795], [-122.5331081813456, 37.893146670807866], [-122.53308842208513, 37.893123488302734], [-122.53308831051822, 37.893123359546934], [-122.53308819895123, 37.893123230791076], [-122.53307241138431, 37.89310471129932], [-122.53307184749596, 37.893104054106104], [-122.53307128929106, 37.89310339681497], [-122.53300495694764, 37.89302557857983], [-122.53293805369152, 37.8929470906185], [-122.53292092676118, 37.892927002613526], [-122.53282047596346, 37.892809161840376], [-122.53275027144407, 37.8927268048989], [-122.532749153909, 37.892725490333106], [-122.53274927066825, 37.89272539369496], [-122.53280736695946, 37.89267532839574], [-122.53281442736458, 37.89266924977836], [-122.5329403598444, 37.89256081787589], [-122.53295254290921, 37.892550324293815], [-122.53295439276282, 37.892548733333406], [-122.53315046414717, 37.89254785816092], [-122.53315147873968, 37.89254939980059], [-122.53315537021928, 37.89255528624985], [-122.53327058286503, 37.89272971608313], [-122.53336619409644, 37.89287446643846], [-122.53337230365314, 37.89286904763314], [-122.5333736003789, 37.892867896974835], [-122.5333737057706, 37.89286780053178], [-122.53341783830881, 37.892828619707046], [-122.53348500623443, 37.892768988204836], [-122.53348575788685, 37.89275712602126], [-122.53348956834091, 37.89269702293299], [-122.53349007165137, 37.89268510374327], [-122.53349091257797, 37.892665175906615], [-122.53349883195752, 37.89247747763514], [-122.53350072753828, 37.892458561728176], [-122.53351499352881, 37.89231618373864], [-122.53366018218142, 37.89218818645544], [-122.53385622150904, 37.89201680431967], [-122.5340164428347, 37.891938554525964], [-122.53401776212094, 37.89190705037778], [-122.53415663075387, 37.89182548223249], [-122.53422691165173, 37.891784119346816], [-122.53429646167935, 37.89174911450146], [-122.53428030496562, 37.89173517161343], [-122.53421329776084, 37.89167736013223], [-122.53410119772164, 37.891580770009156], [-122.53410106959943, 37.8915806595639], [-122.53410031260348, 37.891580010208315], [-122.53409987004446, 37.891579630307845], [-122.5340645353174, 37.89154499051133], [-122.53435479752844, 37.89124980399034], [-122.53465306987589, 37.89094631901374], [-122.5346532579174, 37.89094612651701], [-122.53465361198406, 37.89094576803839], [-122.53464855663843, 37.89094102461277], [-122.5346391654335, 37.89093218775945], [-122.53463868173314, 37.89093175900284], [-122.53463822076591, 37.8909313298545], [-122.53463781230771, 37.890930949368375], [-122.53462977568904, 37.89092340405231], [-122.53462932485274, 37.890922929668264], [-122.53458708046557, 37.8908785452356], [-122.53458239083484, 37.890873618866074], [-122.53450027905723, 37.89078734052323], [-122.53450004492966, 37.890787096721894], [-122.53449949598539, 37.89078428986698], [-122.53449927754437, 37.89078316710548], [-122.53449831136301, 37.89077820901709], [-122.53449828430489, 37.89077805176976], [-122.53449680239054, 37.89077046109098], [-122.53449477138415, 37.89076001669631], [-122.53448773309341, 37.890723824197536], [-122.53448758062972, 37.89072303375063], [-122.5344766711078, 37.890666978367484], [-122.53446826392693, 37.89062374929338], [-122.53446428552608, 37.890603296153905], [-122.53445518076107, 37.8905564841301], [-122.5344528917161, 37.89054471668296], [-122.53454791863524, 37.89044868000754], [-122.5345661872021, 37.8904302227379], [-122.53468176627966, 37.89031147701766], [-122.534744946592, 37.890218869273724], [-122.53473045619924, 37.8901574764039], [-122.53466632292674, 37.890080239408505], [-122.53461795011596, 37.890021160751665], [-122.53450589184683, 37.89008311211732], [-122.53442502980569, 37.890125418165695], [-122.5344225895643, 37.8901225222338], [-122.53440859885187, 37.890105819455194], [-122.53440721164414, 37.89010416708734], [-122.53439230301984, 37.89008637883144], [-122.5343890875858, 37.89008254276447], [-122.53438835222272, 37.890081645202315], [-122.53438830833578, 37.89008087451368], [-122.53437898806075, 37.88988518545743], [-122.53437496880228, 37.889800856303694], [-122.53437565362937, 37.88980115542497], [-122.5343761369495, 37.889801363390134], [-122.534376303863, 37.8898014371179], [-122.53437677569315, 37.88980164077494], [-122.53438402092453, 37.8898048008857], [-122.53438510864207, 37.88980527781519], [-122.5343859354258, 37.889805569984325], [-122.5343880573393, 37.889806313879795], [-122.53439199002298, 37.889807693478026], [-122.53439515683218, 37.88980880419046], [-122.53439572527694, 37.889809006182745], [-122.53439685944805, 37.88980931107977], [-122.53440583064322, 37.889811756522256], [-122.53440674143958, 37.8898120021826], [-122.53440709589887, 37.889812072678815], [-122.53440767904559, 37.8898121888017], [-122.53441699903985, 37.88981404243993], [-122.53441807390782, 37.889814258236534], [-122.53441920363079, 37.88981440099029], [-122.53442885819112, 37.88981564144009], [-122.53442932606742, 37.88981570096971], [-122.53442963987935, 37.889815740623504], [-122.53443604991963, 37.88981622948481], [-122.53453913990306, 37.8898147036481], [-122.53461645580639, 37.88981355338087], [-122.53478392981884, 37.889730979545746], [-122.53478438990895, 37.889730755323654], [-122.53478459633173, 37.88973065263192], [-122.5347849116491, 37.88973049849638], [-122.53478668877784, 37.88972961801847], [-122.53503681089713, 37.889605055492495], [-122.53503931904385, 37.88960358833323], [-122.53529784262516, 37.88949181835447], [-122.53540330342527, 37.88948392161224], [-122.53555303230915, 37.889472967074795], [-122.5355630904777, 37.88947830643562], [-122.5357422844505, 37.88957343106113], [-122.53575405342046, 37.88957928434457], [-122.53591992948185, 37.88966178331906], [-122.53593137073833, 37.88966787655357], [-122.5361097165919, 37.88976285033486], [-122.53612137527563, 37.88976899207265], [-122.53615481205787, 37.88978660568915], [-122.5361585313491, 37.88978679749501], [-122.536390993441, 37.889798809352044], [-122.53652867020368, 37.889810308997276], [-122.53654135982903, 37.88981539650772], [-122.53674786414072, 37.889898182187494], [-122.53674949694619, 37.889898713679145], [-122.53693288737821, 37.88995843988013], [-122.53719626115921, 37.88997418144904], [-122.53719645367254, 37.88997419344812], [-122.53719809633206, 37.88997268259647], [-122.5372164485729, 37.88995585016202], [-122.53737598460827, 37.889819169574885], [-122.53747376424924, 37.88974178869692], [-122.53749269161874, 37.88972681272107], [-122.53749320885095, 37.889725978276644], [-122.53749923655606, 37.889716276251086], [-122.53762767002094, 37.88954450855198], [-122.5376986559607, 37.88944701048543], [-122.53770943880585, 37.88943220117015], [-122.53770972368706, 37.889431808728276], [-122.537709849697, 37.88943163532146], [-122.53770047142062, 37.8894141710905], [-122.53769092419516, 37.88939639344593], [-122.5376289218554, 37.88927963601623], [-122.53762887391493, 37.889279546721454], [-122.53762859825731, 37.88927903327647], [-122.53758048898494, 37.88918843463025], [-122.53752019751728, 37.88906940898466], [-122.53744955344357, 37.88892993570564], [-122.53744876574055, 37.88892837576615], [-122.53746511942713, 37.88892535834878], [-122.53784196297585, 37.888855816009745], [-122.5378422811796, 37.888857256978056], [-122.5378423522342, 37.88885756667306], [-122.53784264461113, 37.888858895434495], [-122.53784356397884, 37.888863053123], [-122.5378515271825, 37.8888990825982], [-122.5378630051581, 37.88889699282347], [-122.53791013088579, 37.888888402777425], [-122.53791041380445, 37.88888835283303], [-122.5379111664426, 37.88888822268329], [-122.53791338390651, 37.888887808599286], [-122.53824366859233, 37.88878419762348], [-122.53871349657629, 37.88863784476529], [-122.53880029385076, 37.88861960487514], [-122.53881926807345, 37.88876356642989], [-122.53891702570917, 37.88887797457024], [-122.53903968644036, 37.88900329983919], [-122.53915607952224, 37.88912254634628], [-122.53928265534354, 37.88924667722553], [-122.53936219607581, 37.889323718668955], [-122.53938423451262, 37.88934505654558], [-122.5394166286357, 37.88937642187916], [-122.53958691346867, 37.8895662391119], [-122.53959657826944, 37.889567560073225], [-122.53981354589922, 37.889597206604996], [-122.53988609291666, 37.88959463293493], [-122.5399288953389, 37.88959311206593], [-122.54006038588885, 37.889588440215064], [-122.54006163145013, 37.889540503432194], [-122.54033286067853, 37.88953675392841], [-122.54035786567476, 37.889526119083634], [-122.54038312678935, 37.889515328402055], [-122.54039971426519, 37.88950824292903], [-122.54040422136025, 37.88950631753473], [-122.54055056814975, 37.889443802115004], [-122.54055644649907, 37.88945199536765], [-122.54056628630558, 37.88946570953315], [-122.54058346136976, 37.88948964835799], [-122.5406109337204, 37.88952793240203], [-122.54064059859483, 37.88956927514398], [-122.54064118828519, 37.88957066184611], [-122.54064690021823, 37.88958400575043], [-122.54067167719894, 37.88964194785705], [-122.54067208720483, 37.8896427969315], [-122.5406722075615, 37.8896430381812], [-122.54067232828999, 37.889643292942814], [-122.54067521385147, 37.88964926323208], [-122.54069272004895, 37.88968547997331], [-122.54069317231658, 37.889686418439396], [-122.54069392621986, 37.8896879870535], [-122.54070597959395, 37.88971292011186], [-122.54070676945612, 37.88971455569601], [-122.5407085119227, 37.889718162009686], [-122.54071521045447, 37.88973202508533], [-122.54071532263093, 37.88973196907313], [-122.54071581062323, 37.889731726320896], [-122.54072374342387, 37.889727753608724], [-122.54086902266694, 37.889654994037066], [-122.54106143496728, 37.88955863029592], [-122.54107092973814, 37.88955699536435], [-122.541131570768, 37.889546541884584], [-122.54122797663112, 37.889529915827154], [-122.54125241053592, 37.88957703106198], [-122.54131232859677, 37.88964776306215], [-122.54136727837286, 37.889723325866896], [-122.54137542389059, 37.88972167007936], [-122.54164159687919, 37.88966757531331], [-122.54175556848212, 37.889611082326425], [-122.54176416085481, 37.88960682326435], [-122.54188673238767, 37.88954606374347], [-122.54189454300969, 37.889541084596296], [-122.5420547647349, 37.889438934910686], [-122.54206249697673, 37.889433918355], [-122.54216981531363, 37.88936428935408], [-122.54221683055655, 37.889353386059966], [-122.54222693113671, 37.88935252642176], [-122.54233484850924, 37.889343346306745], [-122.54234499432218, 37.88934264268863], [-122.54250209363907, 37.88933174198108], [-122.54250598328063, 37.88933749929312], [-122.5425875177993, 37.88945810436902], [-122.54259385844948, 37.88946441228006], [-122.54284785669199, 37.88971708159817], [-122.5428487161913, 37.889717940912675], [-122.54285296506397, 37.88971428053274], [-122.5428783272454, 37.88969243226879], [-122.54292516695334, 37.8896520788826], [-122.54301049934374, 37.889574674367985], [-122.54301266054888, 37.889572713762654], [-122.54306404913905, 37.889526098318214], [-122.54306560277996, 37.88952738721874], [-122.54307110712105, 37.88953194227915], [-122.54307383376468, 37.889534201325304], [-122.5432327195813, 37.88966584123515], [-122.54323686243272, 37.88966927079058], [-122.54323732220087, 37.88966965486585], [-122.54329445506843, 37.88971698788778], [-122.54330930910889, 37.889729293864974], [-122.54330992023968, 37.889729805997746], [-122.54331105906532, 37.88973089749648], [-122.54331581036206, 37.88973544304746], [-122.54334712816372, 37.889765400224896], [-122.54335650063351, 37.88977439083652], [-122.54335830724591, 37.889776152101945], [-122.54342136417225, 37.88983649622794], [-122.54342179041404, 37.88983690161085], [-122.54342651183279, 37.889842095653606], [-122.54364817037705, 37.89008597371761], [-122.54364870393414, 37.89008655928922], [-122.54365614911987, 37.8900854877425], [-122.54789937749027, 37.88947483200755], [-122.54845328314433, 37.88939510980392], [-122.54845674335893, 37.88939460817048], [-122.54846156301872, 37.88940091783088], [-122.54876361990881, 37.889796354546654], [-122.54877927767247, 37.88981684884258], [-122.54913373810648, 37.89028087406164], [-122.5491407571866, 37.89029006368559], [-122.54915213347981, 37.890304955432356], [-122.54915292400611, 37.8903059907367], [-122.54915305401543, 37.890306168725054], [-122.5491578536991, 37.89031245076664], [-122.54929131114044, 37.89048714019798], [-122.54929941924046, 37.89049775377006], [-122.5493010592745, 37.890499900858345], [-122.54926978538724, 37.89062187182614], [-122.54926703213094, 37.89063260812414], [-122.5490951011056, 37.89078237797088], [-122.54909266362895, 37.89078450119795], [-122.54908360726272, 37.89093801506364], [-122.54908319140586, 37.890945065342144], [-122.54894175243025, 37.891159952668474], [-122.54873047650847, 37.89133630225022], [-122.54860538869492, 37.89142707642788], [-122.54848890147424, 37.891640531666596], [-122.54848701803833, 37.89164398178168], [-122.54848453173909, 37.89164853824354], [-122.54860962470867, 37.8919073269748], [-122.5486097959457, 37.89190767998693], [-122.54861348678041, 37.89191531600004], [-122.54861012077977, 37.891916762285504], [-122.54835535700796, 37.89202617116914], [-122.54835487537069, 37.89202664365461], [-122.54812252441401, 37.89225158931547], [-122.54812141568752, 37.89225266207747], [-122.54808664473326, 37.89243726881705], [-122.54808533754473, 37.892444208377704], [-122.54796567395934, 37.892732342056675], [-122.54796330883578, 37.89273803554927], [-122.54796240676151, 37.89274020872309], [-122.54796263502045, 37.892742502882385], [-122.54796415178299, 37.8927577685244], [-122.5479720997505, 37.892837728654115], [-122.54828079336346, 37.89301886947431], [-122.5482856472601, 37.89301916468651], [-122.54837196919077, 37.89302440743525], [-122.54886209368625, 37.89285189096639], [-122.54887337800997, 37.89285763872209], [-122.54906291657156, 37.892954188001966], [-122.54906409304151, 37.89295478492327], [-122.54907633364827, 37.89296102074949], [-122.54911079929055, 37.89297857866219], [-122.5492819534595, 37.893226458292276], [-122.54929276487759, 37.893228300204854], [-122.54936450623549, 37.89324052292229], [-122.5494470764463, 37.893203372485694], [-122.54945006999579, 37.8932020272707], [-122.54974287692481, 37.89278670506499], [-122.54974350055629, 37.8927858155462], [-122.55010799261547, 37.89268163352194], [-122.55016722099936, 37.89266470484228], [-122.5501674425019, 37.8926734978375], [-122.55017723671804, 37.893061716278424], [-122.5502859368976, 37.893245323101446], [-122.55029725505531, 37.89324747605755], [-122.55106208414864, 37.89339296758726], [-122.55106271865753, 37.89339571971627], [-122.55120705666046, 37.89402126140771], [-122.55129462746679, 37.89406066194628], [-122.5512962838903, 37.89406064218194], [-122.5517031280744, 37.89405585268685], [-122.55170527790088, 37.894055827047005], [-122.55170657962351, 37.89405581163784], [-122.55170451424733, 37.89406110886854], [-122.55158556364094, 37.89436617512241], [-122.55158379660205, 37.89437070563299], [-122.55158199669272, 37.894375322330895], [-122.5516615211873, 37.89460667968423], [-122.5518178569285, 37.89473492711303], [-122.55182397039516, 37.89473433602116], [-122.55225834264834, 37.894692334254486], [-122.55257069094723, 37.89474641549463], [-122.5528980849535, 37.89463098544926], [-122.55290983616914, 37.89463656969923], [-122.5532805877172, 37.89481275881099], [-122.55328178088763, 37.89481223157488], [-122.5540904410623, 37.89445527088793], [-122.55409204799857, 37.89446545199699], [-122.55414017575134, 37.89477039998804], [-122.5541527884917, 37.894772594946645], [-122.55493960242049, 37.89490952137634], [-122.5551761620027, 37.894991092580085], [-122.5557906843312, 37.89495498858715], [-122.55579198891728, 37.89495491180011], [-122.55579986528768, 37.894954449325716], [-122.55579392764758, 37.894960684632615], [-122.55529726205327, 37.89548228678351], [-122.5552952817251, 37.89548436703191], [-122.55528954071893, 37.89549039611326], [-122.55639359590849, 37.89614120029503], [-122.5563942375371, 37.89614157664714], [-122.55639435320889, 37.89614164673061], [-122.55639601916059, 37.89614004147656], [-122.55639775490263, 37.896138369217745], [-122.55639869095889, 37.89613746971636], [-122.55640484880576, 37.896131504518415], [-122.55641125841922, 37.89612539073964], [-122.55685501595406, 37.8957021080644], [-122.55685655046366, 37.895700643881554], [-122.55692224424432, 37.89564022329473], [-122.55692506661597, 37.89563762817054], [-122.55723924854058, 37.89534863763608], [-122.55724111174476, 37.895346928896636], [-122.5572858153391, 37.89530580942289], [-122.55728657055046, 37.89530511493908], [-122.55728812524228, 37.895303681941414], [-122.55728833925566, 37.895303484449386], [-122.55728876539598, 37.89530306246146], [-122.55728974186299, 37.89530423506448], [-122.5572958896591, 37.89531164416127], [-122.55729685211081, 37.895312803490015], [-122.5573038741322, 37.895321266206665], [-122.55731142794725, 37.89533036853885], [-122.55734649912544, 37.895372630521116], [-122.55750789197188, 37.89556712881772], [-122.55766229682891, 37.89574788784443], [-122.55766922790706, 37.895755529306975], [-122.55793764187598, 37.896051458538345], [-122.55794329843391, 37.89605964400717], [-122.55801307577643, 37.89616063031628], [-122.55809192121997, 37.896274740775254], [-122.55809540341959, 37.89628260184329], [-122.55813069768443, 37.896362164090576], [-122.55813401242216, 37.89637362035657], [-122.55819797715378, 37.89659471760741], [-122.55827571722051, 37.89696437493769], [-122.55827564242902, 37.89696577764511], [-122.55825228082631, 37.897402262021046], [-122.55826018006667, 37.89769051335053], [-122.55826027650009, 37.897694028246065], [-122.55832583224422, 37.897736975222166], [-122.55837788132386, 37.89777049648683], [-122.55838774027687, 37.897777161313066], [-122.55839121744026, 37.89777951147394], [-122.55841930274727, 37.897798502750085], [-122.55842223513376, 37.89780048389258], [-122.55842331885766, 37.89780121662183], [-122.55842641586477, 37.89780331025121], [-122.55848787644886, 37.89784486764308], [-122.55856385654833, 37.89789623585045], [-122.5585384943762, 37.89793723488387], [-122.55846292686924, 37.89805939197002], [-122.55846139215726, 37.89806187365824], [-122.55846073036561, 37.89806294323194], [-122.55845732334986, 37.89806844601798], [-122.5584110017651, 37.89814333322295], [-122.55839288339045, 37.89817013152995], [-122.55835844153545, 37.898221074284784], [-122.55835542261595, 37.898237485026435], [-122.55830812572826, 37.89849463019305], [-122.55848616193812, 37.89865429135583], [-122.55844285467995, 37.89884698537325], [-122.55844019088636, 37.89885189481307], [-122.55840320391646, 37.898920061966344], [-122.55845120748943, 37.898984193499786], [-122.55847129233338, 37.89904456603974], [-122.55847304412302, 37.8990498617352], [-122.55849174034331, 37.89910638411686], [-122.55842067130193, 37.899248140025264], [-122.55839802340714, 37.89928573913962], [-122.55872806776115, 37.89918240454646], [-122.5590324527193, 37.89913540945089], [-122.55925673312703, 37.89910078293306], [-122.5592634990447, 37.89909992143249], [-122.55974210012621, 37.89903896247019], [-122.55974946209984, 37.89903802295275], [-122.55975019306803, 37.8990379290922], [-122.5598588779656, 37.89890576848744], [-122.55986023541966, 37.89890181997639], [-122.55990273388736, 37.89877819038788], [-122.56002408328776, 37.898771944937494], [-122.56002414648867, 37.898771763590084], [-122.56005331541576, 37.898765419291884], [-122.56063912533955, 37.89864641923919], [-122.56098683803218, 37.89857578354417], [-122.56101836633488, 37.89856946541646], [-122.56104915961406, 37.898563299799356], [-122.56104947352773, 37.89856415949575], [-122.56114557455268, 37.89883065946598], [-122.5612175835818, 37.89903036747681], [-122.5612178852552, 37.8990311958436], [-122.56129234551074, 37.899231718084], [-122.56135898339367, 37.89940695148506], [-122.56136021664088, 37.899410196895246], [-122.56136392206687, 37.89941993302637], [-122.56136622688435, 37.899426540223196], [-122.56136711093164, 37.899429088774106], [-122.56145094449558, 37.89966948507939], [-122.56162424674478, 37.90015862990117], [-122.56173941235735, 37.90044282641812], [-122.561739467521, 37.900442969650875], [-122.56170800049128, 37.90046219331915], [-122.561639224209, 37.900504213242506], [-122.56163863147465, 37.90050457506841], [-122.56041311981001, 37.90125332087333], [-122.56030604832692, 37.90134703726063], [-122.55988878154135, 37.90168524875265], [-122.55979482757466, 37.90175887736406], [-122.55958063736662, 37.90160300746149], [-122.55878149531509, 37.90231680030821], [-122.55875145612227, 37.90234363162202], [-122.55875120633931, 37.90234385227033], [-122.55874648397507, 37.902348072115636], [-122.55865108491228, 37.90228079617438], [-122.55863264413979, 37.90226779306555], [-122.55850272298981, 37.90216177952494], [-122.55843680686775, 37.90219059339615], [-122.55840756848407, 37.902203256050285], [-122.55832455553346, 37.9022392081554], [-122.55830148147795, 37.902249200257344], [-122.55822375875049, 37.90224718617471], [-122.55795073326517, 37.90224010877857], [-122.55793847604232, 37.902239790664574], [-122.55762161120457, 37.902264336171285], [-122.55760822691774, 37.90226537327391], [-122.55749873450848, 37.90227387349062], [-122.55742579783133, 37.90230378693629], [-122.55741836326082, 37.90230683642883], [-122.55713340439887, 37.90241716459114], [-122.55712270626728, 37.902421306421445], [-122.55712255442002, 37.902421367646156], [-122.55709448161218, 37.902439198005126], [-122.55708409273737, 37.90244579568449], [-122.55693351017224, 37.902502638971775], [-122.55690362345808, 37.902513920149666], [-122.55683579763601, 37.90253952647616], [-122.5568102055554, 37.90254916469969], [-122.55680541946391, 37.90254961575984], [-122.55680468662088, 37.9025496843998], [-122.55666131091475, 37.90256317735794], [-122.55666046004093, 37.90256325526247], [-122.55666001767652, 37.90256329901567], [-122.55659338963031, 37.902569560320416], [-122.55655950332122, 37.90257274598624], [-122.5565340401129, 37.90257514057956], [-122.55633963401682, 37.902593409706256], [-122.55633614679311, 37.90259373719253], [-122.55633309521312, 37.90259402464873], [-122.55633278333404, 37.90259405711628], [-122.55633262573961, 37.902593911158796], [-122.55633249731544, 37.902593791729984], [-122.5562513198594, 37.902518606747655], [-122.5562512440918, 37.90251854047528], [-122.55624593248874, 37.90251361765977], [-122.5561850039994, 37.90245717695374]]]}}]}