{
  "type": "FeatureCollection",
  "features": [
    {
      "type": "Feature",
      "properties": {
        "name": "Sample Zone A (DUMMY)",
        "riskLevel": "High",
        "note": "Placeholder polygon only. Replace with real overlay data, e.g. a eucalyptus-grove risk polygon hand-digitized from the client's observations, or a Fire Hazard Severity Zone from the Marin County GIS Open Data Portal."
      },
      "geometry": {
        "type": "Polygon",
        "coordinates": [
          [
            [-122.5605, 37.9010],
            [-122.5562, 37.9010],
            [-122.5562, 37.9060],
            [-122.5605, 37.9060],
            [-122.5605, 37.9010]
          ]
        ]
      }
    },
    {
      "type": "Feature",
      "properties": {
        "name": "Sample Zone B (DUMMY)",
        "riskLevel": "Moderate",
        "note": "Placeholder polygon only. Second category to demonstrate data-driven symbology (color keyed off a property, like a real hazard-severity layer would use)."
      },
      "geometry": {
        "type": "Polygon",
        "coordinates": [
          [
            [-122.5562, 37.9010],
            [-122.5520, 37.9010],
            [-122.5520, 37.9060],
            [-122.5562, 37.9060],
            [-122.5562, 37.9010]
          ]
        ]
      }
    }
  ]
}
